province	city	school_url	school_grades	school_board	school_language	response_url	school_name	school_type	postal_code	phone_number	street_address
QC	Rawdon	http://www.cssamares.qc.ca/?page=ecoleinfo&type=2&no=109	secondaire	Commission scolaire des Samarres	French	site/default.aspx?page=ecoleinfo&type=2&no=109	des Chutes	L'école secondaire	J0K 1S0	450758-3749	3144 18e Avenue
QC	Joliette	http://www.cssamares.qc.ca/?page=ecoleinfo&type=2&no=105	secondaire	Commission scolaire des Samarres	French	site/default.aspx?page=ecoleinfo&type=2&no=105	Barthélemy-Joliette	L'école secondaire	J6E 6E6	450758-3754	345 rue Sir-Mathias-Tellier
QC	Saint-Gabriel-de-Brandon	http://www.cssamares.qc.ca/?page=ecoleinfo&type=2&no=108	secondaire	Commission scolaire des Samarres	French	site/default.aspx?page=ecoleinfo&type=2&no=108	Bermon	L'école secondaire	J0K 2N0	450758-3640	1919 6e Rang
QC	Saint-Roch-de-l'Achigan	http://www.cssamares.qc.ca/?page=ecoleinfo&type=2&no=098	secondaire	Commission scolaire des Samarres	French	site/default.aspx?page=ecoleinfo&type=2&no=098	de l'Achigan	L'école secondaire	J0K 3H0	450588-7410	60 montée Rémi-Henri
QC	Berthierville	http://www.cssamares.qc.ca/?page=ecoleinfo&type=2&no=104	secondaire	Commission scolaire des Samarres	French	site/default.aspx?page=ecoleinfo&type=2&no=104	Pierre-de-Lestage	L'école secondaire	J0K 1A0	450758-3599	881 rue Pierre-de-Lestage
QC	Saint-Félix-de-Valois	http://www.cssamares.qc.ca/?page=ecoleinfo&type=2&no=099	secondaire	Commission scolaire des Samarres	French	site/default.aspx?page=ecoleinfo&type=2&no=099	de l'Érablière	L'école secondaire	J0K 2M0	450758-3570	5211 rue Principale
QC	Lavaltrie	http://www.cssamares.qc.ca/?page=ecoleinfo&type=2&no=012	secondaire	Commission scolaire des Samarres	French	site/default.aspx?page=ecoleinfo&type=2&no=012	de la Rive	L'école secondaire	J5T 1G7	450758-3594	60 rue Douaire-de-Bondy
QC	Sainte-Julienne	http://www.cssamares.qc.ca/?page=ecoleinfo&type=2&no=009	secondaire	Commission scolaire des Samarres	French	site/default.aspx?page=ecoleinfo&type=2&no=009	de Sainte-Julienne (pavillon du Havre-Jeunesse)	L'école secondaire	J0K 2T0	450758-3744	2175 rue du Domaine-Malo
QC	Saint-Michel-des-Saints	http://www.cssamares.qc.ca/?page=ecoleinfo&type=2&no=107	secondaire	Commission scolaire des Samarres	French	site/default.aspx?page=ecoleinfo&type=2&no=107	des Montagnes	L'école secondaire	J0K 3B0	450758-3643	290 rue Brassard
QC	Saint-Charles-Borromée	http://www.cssamares.qc.ca/?page=ecoleinfo&type=2&no=062	secondaire	Commission scolaire des Samarres	French	site/default.aspx?page=ecoleinfo&type=2&no=062	de l'Espace-Jeunesse (pavillon de l'Espace-Jeunesse)	L'école secondaire	J6E 0B9	450758-3556	90 boul. des Mésanges
QC	Joliette	http://www.cssamares.qc.ca/?page=ecoleinfo&type=2&no=103	secondaire	Commission scolaire des Samarres	French	site/default.aspx?page=ecoleinfo&type=2&no=103	Thérèse-Martin	L'école secondaire	J6E 3W7	450758-3620	916 rue Ladouceur
QC	Saint-Jean-de-Matha	http://www.cssamares.qc.ca/?page=ecoleinfo&type=1&no=025	primaire	Commission scolaire des Samarres	French	site/default.aspx?page=ecoleinfo&type=1&no=025	Bernèche	L'école primaire	J0K 2S0	450758-3688	239 rue du Collège
QC	Saint-Lin-Laurentides	http://www.cssamares.qc.ca/?page=ecoleinfo&type=1&no=001	primaire	Commission scolaire des Samarres	French	site/default.aspx?page=ecoleinfo&type=1&no=001	de l'Aubier	L'école primaire	J5M 2H2	450439-6051	250 chemin Saint-Stanislas
QC	Saint-Jacques	http://www.cssamares.qc.ca/?page=ecoleinfo&type=1&no=095	primaire	Commission scolaire des Samarres	French	site/default.aspx?page=ecoleinfo&type=1&no=095	de Grand-Pré	L'école primaire	J0K 2R0	450758-3736	20 rue Beaudry
QC	Saint-Zénon	http://www.cssamares.qc.ca/?page=ecoleinfo&type=1&no=031	primaire	Commission scolaire des Samarres	French	site/default.aspx?page=ecoleinfo&type=1&no=031	Bérard	L'école primaire	J0K 3N0	450758-3693	90 rue du Collège
QC	Joliette	http://www.cssamares.qc.ca/?page=ecoleinfo&type=2&no=850	secondaire	Commission scolaire des Samarres	French	site/default.aspx?page=ecoleinfo&type=2&no=850	de l'Intervalle	L'école secondaire	J6E 3W7	450759-0765	1170 rue Ladouceur
QC	Mandeville	http://www.cssamares.qc.ca/?page=ecoleinfo&type=1&no=033	primaire	Commission scolaire des Samarres	French	site/default.aspx?page=ecoleinfo&type=1&no=033	Youville	L'école primaire	J0K 1L0	450758-3694	275 rue Desjardins
QC	Saint-Michel-des-Saints	http://www.cssamares.qc.ca/?page=ecoleinfo&type=1&no=040	primaire	Commission scolaire des Samarres	French	site/default.aspx?page=ecoleinfo&type=1&no=040	Saint-Jean-Baptiste	L'école primaire	J0K 3B0	450758-3697	380 rue Brassard
QC	Saint-Jacques	http://www.cssamares.qc.ca/?page=ecoleinfo&type=1&no=094	primaire	Commission scolaire des Samarres	French	site/default.aspx?page=ecoleinfo&type=1&no=094	Saint-Louis-de-France	L'école primaire	J0K 2R0	450758-3734	4 rue du Collège
QC	Saint-Damien	http://www.cssamares.qc.ca/?page=ecoleinfo&type=1&no=016	primaire	Commission scolaire des Samarres	French	site/default.aspx?page=ecoleinfo&type=1&no=016	Saint-Coeur-de-Marie	L'école primaire	J0K 2E0	450758-3687	6960 rue Principale
QC	Saint-Liguori	http://www.cssamares.qc.ca/?page=ecoleinfo&type=1&no=089	primaire	Commission scolaire des Samarres	French	site/default.aspx?page=ecoleinfo&type=1&no=089	Saint-Joseph	L'école primaire	J0K 2X0	450758-3731	740 rue Principale
QC	Crabtree	http://www.cssamares.qc.ca/?page=ecoleinfo&type=1&no=084	primaire	Commission scolaire des Samarres	French	site/default.aspx?page=ecoleinfo&type=1&no=084	Sacré-Coeur-de-Jésus	L'école primaire	J0K 1B0	450758-3724	141 8e Rue, C.P. 240
QC	Sainte-Mélanie	http://www.cssamares.qc.ca/?page=ecoleinfo&type=1&no=037	primaire	Commission scolaire des Samarres	French	site/default.aspx?page=ecoleinfo&type=1&no=037	Sainte-Hélène	L'école primaire	J0K 3A0	450758-3696	100 rue de l'Église
QC	Joliette	http://www.cssamares.qc.ca/?page=ecoleinfo&type=1&no=075	primaire	Commission scolaire des Samarres	French	site/default.aspx?page=ecoleinfo&type=1&no=075	Sainte-Thérèse	L'école primaire	J6E 4K3	450758-3718	305 rue Calixa-Lavallée
QC	Saint-Cuthbert	http://www.cssamares.qc.ca/?page=ecoleinfo&type=1&no=007	primaire	Commission scolaire des Samarres	French	site/default.aspx?page=ecoleinfo&type=1&no=007	Sainte-Anne	L'école primaire	J0K 2C0	450758-3682	1950 rue Principale
QC	Sainte-Béatrix	http://www.cssamares.qc.ca/?page=ecoleinfo&type=1&no=027	primaire	Commission scolaire des Samarres	French	site/default.aspx?page=ecoleinfo&type=1&no=027	Panet	L'école primaire	J0K 1Y0	450758-3690	891 rue de l'Église
QC	Notre-Dame-de-Lourdes	http://www.cssamares.qc.ca/?page=ecoleinfo&type=1&no=017	primaire	Commission scolaire des Samarres	French	site/default.aspx?page=ecoleinfo&type=1&no=017	Sainte-Bernadette	L'école primaire	J0K 1K0	450758-3576	3961 rue Principale
QC	Saint-Ambroise-de-Kildare	http://www.cssamares.qc.ca/?page=ecoleinfo&type=1&no=085	primaire	Commission scolaire des Samarres	French	site/default.aspx?page=ecoleinfo&type=1&no=085	Notre-Dame-de-la-Paix	L'école primaire	J0K 1C0	450758-3726	961 rue des Commissaires
QC	Entrelacs	http://www.cssamares.qc.ca/?page=ecoleinfo&type=1&no=051	primaire	Commission scolaire des Samarres	French	site/default.aspx?page=ecoleinfo&type=1&no=051	Notre-Dame-de-la-Merci — Saint-Émile (pavillon Saint-Émile)	L'école primaire	J0T 2E0	450228-4350	2500 chemin d'Entrelacs
QC	Saint-Norbert	http://www.cssamares.qc.ca/?page=ecoleinfo&type=1&no=004	primaire	Commission scolaire des Samarres	French	site/default.aspx?page=ecoleinfo&type=1&no=004	Sainte-Anne	L'école primaire	J0K 3C0	450758-3579	2130 rue Principale
QC	Notre-Dame-de-la-Merci	http://www.cssamares.qc.ca/?page=ecoleinfo&type=1&no=050	primaire	Commission scolaire des Samarres	French	site/default.aspx?page=ecoleinfo&type=1&no=050	Notre-Dame-de-la-Merci — Saint-Émile (pavillon Notre-Dame-de-la-Merci)	L'école primaire	J0T 2A0	819424-2466	1936 route 125
QC	Saint-Alexis	http://www.cssamares.qc.ca/?page=ecoleinfo&type=1&no=091	primaire	Commission scolaire des Samarres	French	site/default.aspx?page=ecoleinfo&type=1&no=091	Notre-Dame	L'école primaire	J0K 1T0	450758-3732	225 rue Principale
QC	Saint-Roch-de-l'Achigan	http://www.cssamares.qc.ca/?page=ecoleinfo&type=1&no=059	primaire	Commission scolaire des Samarres	French	site/default.aspx?page=ecoleinfo&type=1&no=059	Notre-Dame	L'école primaire	J0K 3H0	450588-7851	20 rue Vézina
QC	Joliette	http://www.cssamares.qc.ca/?page=ecoleinfo&type=1&no=070	primaire	Commission scolaire des Samarres	French	site/default.aspx?page=ecoleinfo&type=1&no=070	Monseigneur J.-A.-Papineau	L'école primaire	J6E 5H1	450758-3716	485 rue Laval
QC	Joliette	http://www.cssamares.qc.ca/?page=ecoleinfo&type=1&no=073	primaire	Commission scolaire des Samarres	French	site/default.aspx?page=ecoleinfo&type=1&no=073	Lorenzo-Gauthier — Rose-des-Vents (pavillon Rose-des-Vents)	L'école primaire	J6E 2S7	450758-3564	273 rue Richard
QC	Saint-Paul	http://www.cssamares.qc.ca/?page=ecoleinfo&type=1&no=046	primaire	Commission scolaire des Samarres	French	site/default.aspx?page=ecoleinfo&type=1&no=046	La Passerelle (pavillon Vert-Demain)	L'école primaire	J0K 3E0	450758-3674	157 rue des Tourelles
QC	Saint-Calixte	http://www.cssamares.qc.ca/?page=ecoleinfo&type=1&no=123	primaire	Commission scolaire des Samarres	French	site/default.aspx?page=ecoleinfo&type=1&no=123	Louis-Joseph-Martel — de la Gentiane (pavillon de la Gentiane)	L'école primaire	J0K 1Z0	450439-6245	100 rue Marie-Fournier
QC	Saint-Charles-Borromée	http://www.cssamares.qc.ca/?page=ecoleinfo&type=1&no=069	primaire	Commission scolaire des Samarres	French	site/default.aspx?page=ecoleinfo&type=1&no=069	Lorenzo-Gauthier — Rose-des-Vents (pavillon Lorenzo-Gauthier)	L'école primaire	J6E 1Z3	450758-3714	100 rue Deschênes
QC	Saint-Paul	http://www.cssamares.qc.ca/?page=ecoleinfo&type=1&no=086	primaire	Commission scolaire des Samarres	French	site/default.aspx?page=ecoleinfo&type=1&no=086	La Passerelle (pavillon Notre-Dame-du-Sacré-Coeur)	L'école primaire	J0K 3E0	450758-3728	33 boulevard Brassard
QC	Lavaltrie	http://www.cssamares.qc.ca/?page=ecoleinfo&type=1&no=011	primaire	Commission scolaire des Samarres	French	site/default.aspx?page=ecoleinfo&type=1&no=011	Jean-Chrysostôme-Chaussé	L'école primaire	J5T 2G5	450758-3588	41 rue Saint-Antoine Nord
QC	Joliette	http://www.cssamares.qc.ca/?page=ecoleinfo&type=1&no=077	primaire	Commission scolaire des Samarres	French	site/default.aspx?page=ecoleinfo&type=1&no=077	Intégrée de Saint-Pierre (pavillon Saint-Pierre)	L'école primaire	J6E 3N6	450758-3721	940 rue de Lanaudière
QC	Joliette	http://www.cssamares.qc.ca/?page=ecoleinfo&type=1&no=076	primaire	Commission scolaire des Samarres	French	site/default.aspx?page=ecoleinfo&type=1&no=076	Intégrée de Saint-Pierre (pavillon maternelle Wilfrid-Gervais)	L'école primaire	J6E 3K1	450758-3720	945 rue Notre-Dame
QC	Joliette	http://www.cssamares.qc.ca/?page=ecoleinfo&type=1&no=079	primaire	Commission scolaire des Samarres	French	site/default.aspx?page=ecoleinfo&type=1&no=079	Intégrée de Saint-Pierre (pavillon Marie-Charlotte)	L'école primaire	J6E 3K1	450758-3723	981 rue Notre-Dame
QC	Saint-Didace	http://www.cssamares.qc.ca/?page=ecoleinfo&type=1&no=035	primaire	Commission scolaire des Samarres	French	site/default.aspx?page=ecoleinfo&type=1&no=035	Germain-Caron	L'école primaire	J0K 2G0	450758-3695	490 rue Principale
QC	Saint-Barthélemy	http://www.cssamares.qc.ca/?page=ecoleinfo&type=1&no=008	primaire	Commission scolaire des Samarres	French	site/default.aspx?page=ecoleinfo&type=1&no=008	Dusablé	L'école primaire	J0K 1X0	450758-3583	601 rue Dusablé
QC	Sainte-Élisabeth	http://www.cssamares.qc.ca/?page=ecoleinfo&type=1&no=018	primaire	Commission scolaire des Samarres	French	site/default.aspx?page=ecoleinfo&type=1&no=018	Emmélie-Caron	L'école primaire	J0K 2J0	450758-3582	2420 rue Principale
QC	Berthierville	http://www.cssamares.qc.ca/?page=ecoleinfo&type=1&no=003	primaire	Commission scolaire des Samarres	French	site/default.aspx?page=ecoleinfo&type=1&no=003	du Chemin-du-Roy (pavillon Sainte-Geneviève)	L'école primaire	J0K 1A0	450758-3578	761 rue Saint-Viateur
QC	Berthierville	http://www.cssamares.qc.ca/?page=ecoleinfo&type=1&no=005	primaire	Commission scolaire des Samarres	French	site/default.aspx?page=ecoleinfo&type=1&no=005	du Chemin-du-Roy (pavillon Saint-Joseph)	L'école primaire	J0K 1A0	450758-3580	770 rue Saint-Viateur
QC	Saint-Lin-Laurentides	http://www.cssamares.qc.ca/?page=ecoleinfo&type=1&no=125	primaire	Commission scolaire des Samarres	French	site/default.aspx?page=ecoleinfo&type=1&no=125	du Carrefour-des-Lacs	L'école primaire	J5M 1H2	450439-6170	145 Côte Saint-Ambroise
QC	Saint-Esprit	http://www.cssamares.qc.ca/?page=ecoleinfo&type=1&no=096	primaire	Commission scolaire des Samarres	French	site/default.aspx?page=ecoleinfo&type=1&no=096	Dominique-Savio	L'école primaire	J0K 2L0	450758-3737	39 rue des Écoles C.P. 51
QC	Saint-Lin-Laurentides	http://www.cssamares.qc.ca/?page=ecoleinfo&type=1&no=052	primaire	Commission scolaire des Samarres	French	site/default.aspx?page=ecoleinfo&type=1&no=052	des Trois-Temps (pavillon Sir-Wilfrid-Laurier)	L'école primaire	J5M 2X8	450439-7135	265 16e Avenue
QC	Berthierville	http://www.cssamares.qc.ca/?page=ecoleinfo&type=1&no=113	primaire	Commission scolaire des Samarres	French	site/default.aspx?page=ecoleinfo&type=1&no=113	du Chemin-du-Roy (pavillon maternelle Sainte-Geneviève)	L'école primaire	J0K 1A0	450758-3578	780 rue Saint-Viateur
QC	Notre-Dame-des-Prairies	http://www.cssamares.qc.ca/?page=ecoleinfo&type=1&no=064	primaire	Commission scolaire des Samarres	French	site/default.aspx?page=ecoleinfo&type=1&no=064	des Prairies (pavillon Dominique-Savio)	L'école primaire	J6E 1H7	450758-3566	189 rue Jetté
QC	Saint-Félix-de-Valois	http://www.cssamares.qc.ca/?page=ecoleinfo&type=1&no=022	primaire	Commission scolaire des Samarres	French	site/default.aspx?page=ecoleinfo&type=1&no=022	des Moulins (pavillon Sainte-Marguerite)	L'école primaire	J0K 2M0	450758-3559	71 rue Sainte-Marguerite
QC	Saint-Lin-Laurentides	http://www.cssamares.qc.ca/?page=ecoleinfo&type=1&no=119	primaire	Commission scolaire des Samarres	French	site/default.aspx?page=ecoleinfo&type=1&no=119	des Trois-Temps (pavillon de l'Oiseau-Bleu)	L'école primaire	J5M 2Z2	450439-6138	670 rue Archambault
QC	Notre-Dame-des-Prairies	http://www.cssamares.qc.ca/?page=ecoleinfo&type=1&no=072	primaire	Commission scolaire des Samarres	French	site/default.aspx?page=ecoleinfo&type=1&no=072	des Prairies (pavillon Monseigneur-Jetté)	L'école primaire	J6E 1H7	450758-3566	153 rue Jetté
QC	Saint-Lin-Laurentides	http://www.cssamares.qc.ca/?page=ecoleinfo&type=1&no=053	primaire	Commission scolaire des Samarres	French	site/default.aspx?page=ecoleinfo&type=1&no=053	des Trois-Temps (pavillon de l'Arc-en-Ciel)	L'école primaire	J5M 2X6	450439-3138	263 14e Avenue
QC	Saint-Félix-de-Valois	http://www.cssamares.qc.ca/?page=ecoleinfo&type=1&no=023	primaire	Commission scolaire des Samarres	French	site/default.aspx?page=ecoleinfo&type=1&no=023	des Moulins (pavillon Notre-Dame)	L'école primaire	J0K 2M0	450758-3562	70 rue Sainte-Marguerite
QC	Joliette	http://www.cssamares.qc.ca/?page=ecoleinfo&type=1&no=066	primaire	Commission scolaire des Samarres	French	site/default.aspx?page=ecoleinfo&type=1&no=066	des Mésanges (pavillon Sainte-Marie)	L'école primaire	J6E 5A5	450758-3712	574 boulevard Sainte-Anne
QC	Joliette	http://www.cssamares.qc.ca/?page=ecoleinfo&type=1&no=063	primaire	Commission scolaire des Samarres	French	site/default.aspx?page=ecoleinfo&type=1&no=063	des Mésanges (pavillon du Christ-Roi)	L'école primaire	J6E 2H9	450758-3711	228 rue Bordeleau
QC	Saint-Gabriel	http://www.cssamares.qc.ca/?page=ecoleinfo&type=1&no=014	primaire	Commission scolaire des Samarres	French	site/default.aspx?page=ecoleinfo&type=1&no=014	des Grands-Vents (pavillon Reine-Marie I)	L'école primaire	J0K 2N0	450758-3684	59 rue Champagne, C.P. 1780
QC	Saint-Calixte	http://www.cssamares.qc.ca/?page=ecoleinfo&type=1&no=058	primaire	Commission scolaire des Samarres	French	site/default.aspx?page=ecoleinfo&type=1&no=058	Louis-Joseph-Martel — de la Gentiane (pavillon Louis-Joseph-Martel)	L'école primaire	J0K 1Z0	450439-7183	6315 rue de l'Hôtel-de-Ville
QC	Lavaltrie	http://www.cssamares.qc.ca/?page=ecoleinfo&type=1&no=056	primaire	Commission scolaire des Samarres	French	site/default.aspx?page=ecoleinfo&type=1&no=056	des Eaux-Vives	L'école primaire	J5T 3B2	450758-3586	30 montée Guy-Mousseau
QC	Saint-Gabriel	http://www.cssamares.qc.ca/?page=ecoleinfo&type=1&no=013	primaire	Commission scolaire des Samarres	French	site/default.aspx?page=ecoleinfo&type=1&no=013	des Grands-Vents (pavillon Reine-Marie II)	L'école primaire	J0K 2N0	450758-3691	50 rue des Écoles, C.P. 1780
QC	Rawdon	http://www.cssamares.qc.ca/?page=ecoleinfo&type=1&no=045	primaire	Commission scolaire des Samarres	French	site/default.aspx?page=ecoleinfo&type=1&no=045	des Cascades (pavillon Saint-Louis)	L'école primaire	J0K 1S0	450758-3704	3763 rue Albert, C.P. 958
QC	Rawdon	http://www.cssamares.qc.ca/?page=ecoleinfo&type=1&no=043	primaire	Commission scolaire des Samarres	French	site/default.aspx?page=ecoleinfo&type=1&no=043	des Cascades (pavillon Sainte-Anne)	L'école primaire	J0K 1S0	450758-3701	3790 chemin du Lac Morgan, C.P. 399
QC	Saint-Thomas	http://www.cssamares.qc.ca/?page=ecoleinfo&type=1&no=087	primaire	Commission scolaire des Samarres	French	site/default.aspx?page=ecoleinfo&type=1&no=087	des Brise-Vent	L'école primaire	J0K 3L0	450758-3730	760 rue Principale
QC	Lavaltrie	http://www.cssamares.qc.ca/?page=ecoleinfo&type=1&no=054	primaire	Commission scolaire des Samarres	French	site/default.aspx?page=ecoleinfo&type=1&no=054	des Amis-Soleils	L'école primaire	J5T 2T7	450758-3590	1351 rue du Tricentenaire
QC	Chertsey	http://www.cssamares.qc.ca/?page=ecoleinfo&type=1&no=049	primaire	Commission scolaire des Samarres	French	site/default.aspx?page=ecoleinfo&type=1&no=049	de Saint-Théodore-de-Chertsey	L'école primaire	J0K 3K0	450758-3708	423 chemin de l'Église
QC	Saint-Gabriel	http://www.cssamares.qc.ca/?page=ecoleinfo&type=1&no=114	primaire	Commission scolaire des Samarres	French	site/default.aspx?page=ecoleinfo&type=1&no=114	des Grands-Vents (pavillon Sacré-Coeur)	L'école primaire	J0K 2N0	450758-3740	35 rue Dequoy
QC	Sainte-Marie-Salomé	http://www.cssamares.qc.ca/?page=ecoleinfo&type=1&no=093	primaire	Commission scolaire des Samarres	French	site/default.aspx?page=ecoleinfo&type=1&no=093	de Sainte-Marie-Salomé	L'école primaire	J0K 2Z0	450758-3733	141 rue Viger
QC	Sainte-Julienne	http://www.cssamares.qc.ca/?page=ecoleinfo&type=1&no=044	primaire	Commission scolaire des Samarres	French	site/default.aspx?page=ecoleinfo&type=1&no=044	de Sainte-Julienne (pavillon Notre-Dame-de-Fatima)	L'école primaire	J0K 2T0	450758-3703	2463 rue Victoria, C.P. 339
QC	Sainte-Marcelline-de-Kildare	http://www.cssamares.qc.ca/?page=ecoleinfo&type=1&no=048	primaire	Commission scolaire des Samarres	French	site/default.aspx?page=ecoleinfo&type=1&no=048	de Sainte-Marcelline	L'école primaire	J0K 2Y0	450758-3707	411 rang Pied-de-la-Montagne
QC	Sainte-Julienne	http://www.cssamares.qc.ca/?page=ecoleinfo&type=1&no=015	primaire	Commission scolaire des Samarres	French	site/default.aspx?page=ecoleinfo&type=1&no=015	de Sainte-Julienne (pavillon des Explorateurs)	L'école primaire	J0K 2T0	450758-3685	2747 rue Adolphe
QC	Saint-Côme	http://www.cssamares.qc.ca/?page=ecoleinfo&type=1&no=047	primaire	Commission scolaire des Samarres	French	site/default.aspx?page=ecoleinfo&type=1&no=047	de Saint-Côme	L'école primaire	J0K 2B0	450758-3705	1611 55e Rue
QC	Lanoraie	http://www.cssamares.qc.ca/?page=ecoleinfo&type=1&no=006	primaire	Commission scolaire des Samarres	French	site/default.aspx?page=ecoleinfo&type=1&no=006	de la Source d'Autray	L'école primaire	J0K 1E0	450758-3584	31 chemin Joliette
QC	Berthierville	http://www.cssamares.qc.ca/?page=ecoleinfo&type=1&no=002	primaire	Commission scolaire des Samarres	French	site/default.aspx?page=ecoleinfo&type=1&no=002	de l'Île Saint-Ignace	L'école primaire	J0K 1A0	450758-3680	770 rue Saint-Viateur
QC	Saint-Charles-Borromée	http://www.cssamares.qc.ca/?page=ecoleinfo&type=1&no=852	primaire	Commission scolaire des Samarres	French	site/default.aspx?page=ecoleinfo&type=1&no=852	de l'Espace-Jeunesse (pavillon la Traversée)	L'école primaire	J6E 6J2	450759-8222	1000 boulevard Sainte-Anne
QC	Sainte-Émélie-de-l'Énergie	http://www.cssamares.qc.ca/?page=ecoleinfo&type=1&no=029	primaire	Commission scolaire des Samarres	French	site/default.aspx?page=ecoleinfo&type=1&no=029	de l'Ami-Soleil	L'école primaire	J0K 2K0	450758-3710	501 rue Adèle-Deschênes
QC	Lavaltrie	http://www.cssamares.qc.ca/?page=ecoleinfo&type=1&no=055	primaire	Commission scolaire des Samarres	French	site/default.aspx?page=ecoleinfo&type=1&no=055	de la Source	L'école primaire	J5T 2S4	450758-3592	1020 rue du Tricentenaire
QC	Sainte-Julienne	http://www.cssamares.qc.ca/?page=ecoleinfo&type=1&no=118	primaire	Commission scolaire des Samarres	French	site/default.aspx?page=ecoleinfo&type=1&no=118	de Sainte-Julienne (pavillon des Boutons-d'Or)	L'école primaire	J0K 2T0	450758-3741	2370 Route 337
QC	Saint-Alphonse-Rodriguez	http://www.cssamares.qc.ca/?page=ecoleinfo&type=1&no=041	primaire	Commission scolaire des Samarres	French	site/default.aspx?page=ecoleinfo&type=1&no=041	de Saint-Alphonse	L'école primaire	J0K 1W0	450758-3699	2 rue Gabrielle-Roy
