province	city	school_url	school_grades	school_board	school_language	response_url	school_name	school_type	postal_code	phone_number	street_address
Québec	Saint-Bruno-de-Montarville	http://cfr.csp.qc.ca/		Commission scolaire des Patriotes		http://csp.ca/trouver-un-etablissement/centre/	Centre de formation du Richelieu	Centre de formation	J3V 3T5	450 645-2365	1430, rue Montarville
Québec	Sainte-Julie	http://cfpp.csp.qc.ca/		Commission scolaire des Patriotes		http://csp.ca/trouver-un-etablissement/centre/	Centre de formation professionnelle des Patriotes	Centre de formation	J3E 0C9	450 645-2370	2121, rue Darwin
Québec	Sainte-Julie	http://sae.csp.qc.ca/		Commission scolaire des Patriotes		http://csp.ca/trouver-un-etablissement/centre/	Service aux entreprises et à la communauté	Centre de formation	J3V 0C9	450 645-2370 poste 7103	2121, rue Darwin
Québec	Beloeil	http://polybel.csp.qc.ca/	secondaire	Commission scolaire Marie-Victorin	French	http://csp.ca/etablissement/ecole-polybel/	École secondaire Polybel	école secondaire	J3G 2M1	450 467-0262	725  rue De Lévis
Québec	Saint-Amable	http://francoiswilliams.csp.qc.ca/	secondaire	Commission scolaire Marie-Victorin	French	http://csp.ca/etablissement/ecole-francois-williams/	École secondaire François-Williams	école secondaire	J0L 1N0	450 645-2362	950  rue de Normandie
Québec	Boucherville	http://demortagne.csp.qc.ca/	secondaire	Commission scolaire Marie-Victorin	French	http://csp.ca/etablissement/ecole-de-mortagne/	École secondaire De Mortagne	école secondaire	J4B 1Z6	450 655-7311	955  boulevard De Montarville
Québec	Chambly	http://letremplin.csp.qc.ca/	secondaire	Commission scolaire Marie-Victorin	French	http://csp.ca/etablissement/ecole-le-tremplin/	École le Tremplin	école secondaire	J3L 4V8	450 461-5909	1501  avenue De Salaberry
Québec	Mont-Saint-Hilaire	http://oziasleduc.csp.qc.ca/	secondaire	Commission scolaire Marie-Victorin	French	http://csp.ca/etablissement/ecole-ozias-leduc/	École secondaire Ozias-Leduc	école secondaire	J3H 3N2	450 467-0261	525  rue Jolliet
Québec	McMasterville	http://eei.csp.qc.ca/	secondaire	Commission scolaire Marie-Victorin	French	http://csp.ca/etablissement/ecole-deducation-internationale/	École d’éducation internationale	école secondaire	J3G 1H1	450 467-4222	720  rue Morin
Québec	Beloeil	http://aucoeurdesmonts.csp.qc.ca/	primaire	Commission scolaire Marie-Victorin	French	http://csp.ca/etablissement/ecole-au-coeur-des-monts/	École au Cœur-des-Monts	école primaire	J3G 0P3	450 467-6681	2035  rue Paul-Perreault
Québec	Sainte-Julie	http://dugrandcoteau.csp.qc.ca	secondaire	Commission scolaire Marie-Victorin	French	http://csp.ca/etablissement/ecole-du-grand-coteau/	École secondaire du Grand-Coteau	école secondaire	J3E 2G2	450 645-2361	2020  rue Borduas
Québec	Chambly	http://madeleinebrousseau.csp.qc.ca	primaire	Commission scolaire Marie-Victorin	French	http://csp.ca/etablissement/ecole-madeleine-brousseau/	École Madeleine-Brousseau	école primaire	J3L 0Z9	450 461-5910	1700  boulevard Lebel
Québec	Chambly	http://desalaberry.csp.qc.ca/	primaire	Commission scolaire Marie-Victorin	French	http://csp.ca/etablissement/ecole-de-salaberry/	École De Salaberry	école primaire	J3L 2M5	450 461-5905	1371  rue Hertel
Québec	Saint-Bruno-de-Montarville	http://dumontbruno.csp.qc.ca/	secondaire	Commission scolaire Marie-Victorin	French	http://csp.ca/etablissement/ecole-du-mont-bruno/	École secondaire du Mont-Bruno	école secondaire	J3V 5J3	450 653-1541	221  boulevard Clairevue Est
Québec	Chambly	http://jacquesdechambly.csp.qc.ca/	primaire	Commission scolaire Marie-Victorin	French	http://csp.ca/etablissement/ecole-jacques-de-chambly/	École Jacques-De Chambly	école primaire	J3L 3H3	450 461-5902	5  rue des Voltigeurs
Québec	Varennes	http://lecarrefour.csp.qc.ca/	secondaire	Commission scolaire Marie-Victorin	French	http://csp.ca/etablissement/ecole-le-carrefour/	École secondaire le Carrefour	école secondaire	J3X 1P7	450 645-2363	123  chemin du Petit-Bois
Québec	Chambly	http://secdechambly.csp.qc.ca/	secondaire	Commission scolaire Marie-Victorin	French	http://csp.ca/etablissement/ecole-de-chambly/	École secondaire de Chambly	école secondaire	J3L 6H3	450 461-5908	535  boulevard Brassard
Québec	Boucherville	http://eoi.csp.qc.ca/	secondaire	Commission scolaire Marie-Victorin	French	http://csp.ca/etablissement/ecole-orientante-limpact/	École orientante l’Impact	école secondaire	J4B 3K9	450 655-4521	544  rue Saint-Sacrement
Québec	Chambly	http://debourgogne.csp.qc.ca/	primaire	Commission scolaire Marie-Victorin	French	http://csp.ca/etablissement/ecole-de-bourgogne/	École De Bourgogne	école primaire	J3L 1Y4	450 461-5901	1415  avenue Bourgogne
Québec	Carignan	http://duparchemin.csp.qc.ca/	primaire	Commission scolaire Marie-Victorin	French	http://csp.ca/etablissement/ecole-du-parchemin/	École du Parchemin	école primaire	J3L 3P9	450 461-5906	1800  rue Gilbert-Martel
Québec	Boucherville	http://pierreboucher.csp.qc.ca/	primaire	Commission scolaire Marie-Victorin	French	http://csp.ca/etablissement/ecole-pierre-boucher/	École Pierre-Boucher	école primaire	J4B 1L1	450 655-8088	225  rue Joseph-Martel
Québec	Carignan	http://carignansalieres.csp.qc.ca/	primaire	Commission scolaire Marie-Victorin	French	http://csp.ca/etablissement/ecole-carignan-salieres/	École Carignan-Salières	école primaire	J3L 0X1	450 461-1187	1551  rue de l’École
Québec	Varennes	http://lesmarguerite.csp.qc.ca/	primaire	Commission scolaire Marie-Victorin	French	http://csp.ca/etablissement/ecole-les-marguerite/	École les Marguerite	école primaire	J3X 1E7	450 645-2358	251  rue Beauchamp
Québec	Chambly	http://delapasserelle.csp.qc.ca/	primaire	Commission scolaire Marie-Victorin	French	http://csp.ca/etablissement/ecole-de-la-passerelle/	École de la Passerelle	école primaire	J3L 3M1	450 461-5903	60  rue Saint-Jacques
Québec	Verchères	http://ludgerduvernay.csp.qc.ca/	primaire	Commission scolaire Marie-Victorin	French	http://csp.ca/etablissement/ecole-ludger-duvernay/	École Ludger-Duvernay	école primaire	J0L 2R0	450 645-2341	36  rue Dalpé
Québec	Varennes	http://laroseraie.csp.qc.ca/	primaire	Commission scolaire Marie-Victorin	French	http://csp.ca/etablissement/ecole-la-roseraie/	École La Roseraie	école primaire	J3X 1M6	450 645-2355	237  rue Mongeau
Québec	Varennes	http://delasource.csp.qc.ca/	primaire	Commission scolaire Marie-Victorin	French	http://csp.ca/etablissement/ecole-de-la-source/	École de la Source	école primaire	J3X 1Z2	450 645-2350	239  rue du Fief
Québec	Varennes	http://ducarrousel.csp.qc.ca/	primaire	Commission scolaire Marie-Victorin	French	http://csp.ca/etablissement/ecole-du-carrousel/	École du Carrousel	école primaire	J3X 1L6	450 645-2351	230  rue Suzor-Côté
Québec	Sainte-Julie	http://lerucher.csp.qc.ca/	primaire	Commission scolaire Marie-Victorin	French	http://csp.ca/etablissement/ecole-le-rucher/	École Le Rucher	école primaire	J3E 1J9	450 645-2356	1800  rue Savaria
Québec	Sainte-Julie	http://dugrandchene.csp.qc.ca/	primaire	Commission scolaire Marie-Victorin	French	http://csp.ca/etablissement/ecole-du-grand-chene/	École du Grand-Chêne	école primaire	J3E 2X9	450 645-2343	27  rue du Plateau
Québec	Sainte-Julie	http://dumoulin.csp.qc.ca/	primaire	Commission scolaire Marie-Victorin	French	http://csp.ca/etablissement/ecole-du-moulin/	École Du Moulin	école primaire	J3E 1P8	450 645-2352	1500  rue du Moulin
Québec	Sainte-Julie	http://larpege.csp.qc.ca/	primaire	Commission scolaire Marie-Victorin	French	http://csp.ca/etablissement/ecole-larpege/	École L’Arpège	école primaire	J3E 1W8	450 645-2344	649  rue Saint-Joseph
Québec	Sainte-Julie	http://arcenciel.csp.qc.ca/	primaire	Commission scolaire Marie-Victorin	French	http://csp.ca/etablissement/ecole-arc-en-ciel/	École Arc-en-ciel	école primaire	J3E 2V6	450 645-2346	450  rue Charles-De Gaulle
Québec	Sainte-Julie	http://auxquatrevents.csp.qc.ca/	primaire	Commission scolaire Marie-Victorin	French	http://csp.ca/etablissement/ecole-aux-quatre-vents/	École Aux-Quatre-Vents	école primaire	J3E 1A4	450 645-2347	1920  rue Borduas
Québec	Saint-Jean-Baptiste	http://delamitie.csp.qc.ca/	primaire	Commission scolaire Marie-Victorin	French	http://csp.ca/etablissement/ecole-de-lamitie/	École de l’Amitié	école primaire	J0L 2B0	450 467-5870	3065  rue Bédard
Québec	Sainte-Julie	http://dutournevent.csp.qc.ca/	primaire	Commission scolaire Marie-Victorin	French	http://csp.ca/etablissement/ecole-du-tourne-vent/	École du Tourne-Vent	école primaire	J3E 2J1	450 645-2353	2300  rue de Genève
Québec	Saint-Denis-sur-Richelieu	http://saintdenis.csp.qc.ca/	primaire	Commission scolaire Marie-Victorin	French	http://csp.ca/etablissement/ecole-saint-denis/	École Saint-Denis	école primaire	J0H 1K0	450 645-2360	290  rue du Collège
Québec	Varennes	http://jplabarre.csp.qc.ca/	primaire	Commission scolaire Marie-Victorin	French	http://csp.ca/etablissement/ecole-j-p-labarre/	École J.-P.-Labarre	école primaire	J3X 1R4	450 645-2359	2250  route Marie-Victorin
Québec	Saint-Bruno-de-Montarville	http://mgrgillesgervais.csp.qc.ca/	primaire	Commission scolaire Marie-Victorin	French	http://csp.ca/etablissement/ecole-monseigneur-gilles-gervais/	École Monseigneur-Gilles-Gervais	école primaire	J3V 3A9	450 653-7610	1435  rue Châteauguay
Québec	Saint-Bruno-de-Montarville	http://demontarville.csp.qc.ca/	primaire	Commission scolaire Marie-Victorin	French	http://csp.ca/etablissement/ecole-de-montarville/	École De Montarville	école primaire	J3V 3V2	450 653-2411	1725  rue Montarville
Québec	Saint-Basile-le-Grand	http://delamosaique.csp.qc.ca/	primaire	Commission scolaire Marie-Victorin	French	http://csp.ca/etablissement/ecole-de-la-mosaique/	École de la Mosaïque	école primaire	J3N 1C6	450 441-6719	105  avenue de Montpellier
Québec	Saint-Basile-le-Grand	http://jacquesrocheleau.csp.qc.ca/	primaire	Commission scolaire Marie-Victorin	French	http://csp.ca/etablissement/ecole-jacques-rocheleau-pavillon-saint-basile/	École Jacques-Rocheleau – pavillon Saint-Basile	école primaire	J3N 1L6	450 653-2266	9  rue Préfontaine
Québec	Saint-Marc-sur-Richelieu	http://destroistemps.csp.qc.ca/	primaire	Commission scolaire Marie-Victorin	French	http://csp.ca/etablissement/ecole-des-trois-temps/	École des Trois-Temps	école primaire	J0L 2E0	450 467-1921	103  rue de la Fabrique
Québec	Saint-Charles-sur-Richelieu	http://saintcharles.csp.qc.ca/	primaire	Commission scolaire Marie-Victorin	French	http://csp.ca/etablissement/ecole-saint-charles/	École Saint-Charles	école primaire	J0H 2G0	450 467-0135	420  chemin des Patriotes
Québec	Saint-Bruno-de-Montarville	http://albertschweitzer.csp.qc.ca/	primaire	Commission scolaire Marie-Victorin	French	http://csp.ca/etablissement/ecole-albert-schweitzer/	École Albert-Schweitzer	école primaire	J3V 2Z5	450 653-2453	1139  rue Cadieux
Québec	Saint-Basile-le-Grand	http://delachanterelle.csp.qc.ca/	primaire	Commission scolaire Marie-Victorin	French	http://csp.ca/etablissement/ecole-de-la-chanterelle/	École de la Chanterelle	école primaire	J3N 1L1	450 461-1425	1  rue de la Chanterelle
Québec	Saint-Basile-le-Grand	http://jacquesrocheleau.csp.qc.ca/	primaire	Commission scolaire Marie-Victorin	French	http://csp.ca/etablissement/ecole-jacques-rocheleau/	École Jacques-Rocheleau	école primaire	J3N 1L6	450 653-4142	10  rue Préfontaine
Québec	Saint-Amable	http://lesablier.csp.qc.ca/	primaire	Commission scolaire Marie-Victorin	French	http://csp.ca/etablissement/ecole-le-sablier/	École Le Sablier	école primaire	J0L 1N0	450 645-2357	491  rue Ouellette
Québec	Saint-Amable	http://delodyssee.csp.qc.ca/	primaire	Commission scolaire Marie-Victorin	French	http://csp.ca/etablissement/ecole-de-lodyssee/	École de l’Odyssée	école primaire	J0L 1N0	450 645-2349	169  rue David Sud
Québec	Saint-Antoine-sur-Richelieu	http://gec.csp.qc.ca/	primaire	Commission scolaire Marie-Victorin	French	http://csp.ca/etablissement/ecole-georges-etienne-cartier/	École Georges-Étienne-Cartier	école primaire	J0L 1R0	450 645-2345	32  rue Marie-Rose
Québec	Mont-Saint-Hilaire	http://delaquarelle.csp.qc.ca/	primaire	Commission scolaire Marie-Victorin	French	http://csp.ca/etablissement/ecole-de-laquarelle/	École de l’Aquarelle	école primaire	J3H 3R3	450 467-0971	50  rue Michel
Québec	Otterburn Park	http://notredame.csp.qc.ca/	primaire	Commission scolaire Marie-Victorin	French	http://csp.ca/etablissement/ecole-notre-dame/	École Notre-Dame 1	école primaire	J3H 1L6	450 467-7511	306  rue du Prince-Albert
Québec	Otterburn Park	http://notredame.csp.qc.ca/	primaire	Commission scolaire Marie-Victorin	French	http://csp.ca/etablissement/ecole-notre-dame-2/	École Notre-Dame 2	école primaire	J3H 1R2	450 467-1830	11  rue Helen
Québec	Mont-Saint-Hilaire	http://delapommeraie.csp.qc.ca/	primaire	Commission scolaire Marie-Victorin	French	http://csp.ca/etablissement/ecole-de-la-pommeraie/	École de la Pommeraie	école primaire	J3H 2N8	450 467-7736	685  boulevard De Montenach
Québec	McMasterville	http://lafarandole.csp.qc.ca/	primaire	Commission scolaire Marie-Victorin	French	http://csp.ca/etablissement/ecole-la-farandole/	École La Farandole	école primaire	J3G 1N4	450 467-3467	400  boul. Constable
Québec	Mont-Saint-Hilaire	http://aufildeleau.csp.qc.ca/	primaire	Commission scolaire Marie-Victorin	French	http://csp.ca/etablissement/ecole-au-fil-de-leau/	École Au-Fil-de-l’Eau – Hertel	école primaire	J3H 3A4	450 467-6773	120  rue Sainte-Anne
Québec	Chambly	http://saintemarie.csp.qc.ca/	primaire	Commission scolaire Marie-Victorin	French	http://csp.ca/etablissement/ecole-sainte-marie/	École Sainte-Marie	école primaire	J3L 2L7	450 461-5907	1111  rue Denault
Québec	Saint-Amable	http://delenvolee.csp.qc.ca/	primaire	Commission scolaire Marie-Victorin	French	http://csp.ca/etablissement/ecole-de-lenvolee/	École de l’Envolée	école primaire	J0L 1N0	450 645-2348	440  rue de l’Église Sud
Québec	Mont-Saint-Hilaire	http://aufildeleau.csp.qc.ca/	primaire	Commission scolaire Marie-Victorin	French	http://csp.ca/etablissement/ecole-au-fil-de-leau-pavillon-desrochers/	École Au-Fil-de-l’Eau – Desrochers	école primaire	J3H 3M3	450 467-6773	259  rue Provencher
Québec	Boucherville	http://paulvi.csp.qc.ca/	primaire	Commission scolaire Marie-Victorin	French	http://csp.ca/etablissement/ecole-paul-vi/	École Paul-VI	école primaire	J4B 3R7	450 655-8930	666  rue Le Laboureur
Québec	Boucherville	http://peremarquette.csp.qc.ca/	primaire	Commission scolaire Marie-Victorin	French	http://csp.ca/etablissement/ecole-pere-marquette/	École Père-Marquette	école primaire	J4B 1T6	450 655-9901	900  rue du Fort-St-Louis
Québec	Boucherville	http://lesjeunesdecouvreurs.csp.qc.ca/	primaire	Commission scolaire Marie-Victorin	French	http://csp.ca/etablissement/ecole-les-jeunes-decouvreurs/	École Les Jeunes Découvreurs	école primaire	J4B 6T2	450 655-7892	850  rue Étienne-Brûlé
Québec	Boucherville	http://lhl.csp.qc.ca/	primaire	Commission scolaire Marie-Victorin	French	http://csp.ca/etablissement/ecole-louis-hippolyte-lafontaine/	École Louis-Hippolyte-Lafontaine	école primaire	J4B 3T3	450 655-5288	795  rue Benjamin-Loiseau
Québec	Boucherville	http://delabroquerie.csp.qc.ca/	primaire	Commission scolaire Marie-Victorin	French	http://csp.ca/etablissement/ecole-de-la-broquerie/	École De La Broquerie	école primaire	J4B 1K4	450 655-5266	401  rue De Jumonville
Québec	Contrecoeur	http://descoeursvaillants.csp.qc.ca/	primaire	Commission scolaire Marie-Victorin	French	http://csp.ca/etablissement/ecole-des-coeurs-vaillants/	École des Coeurs-Vaillants	école primaire	J0L 1C0	450 655-5738	5200  rue Bourgchemin
Québec	Contrecoeur	http://meremarierose.csp.qc.ca/	primaire	Commission scolaire Marie-Victorin	French	http://csp.ca/etablissement/ecole-mere-marie-rose/	École Mère-Marie-Rose	école primaire	J0L 1C0	450 645-2342	351  rue Chabot
Québec	Beloeil	http://letournesol.csp.qc.ca/	primaire	Commission scolaire Marie-Victorin	French	http://csp.ca/etablissement/ecole-le-tournesol/	École Le Tournesol	école primaire	J3G 5V5	450 467-5032	201  rue du Buisson
Québec	Beloeil	http://saintmathieu.csp.qc.ca/	primaire	Commission scolaire Marie-Victorin	French	http://csp.ca/etablissement/ecole-saint-mathieu/	École Saint-Mathieu	école primaire	J3G 2S8	450 467-9309	225  rue Hubert
Québec	Beloeil	http://jolivent.csp.qc.ca/	primaire	Commission scolaire Marie-Victorin	French	http://csp.ca/etablissement/ecole-jolivent/	École Jolivent	école primaire	J3G 3R6	450 467-2366	330  boulevard Cartier
Québec	Beloeil	http://lepetitbonheur.csp.qc.ca/	primaire	Commission scolaire Marie-Victorin	French	http://csp.ca/etablissement/ecole-le-petit-bonheur/	École Le Petit-Bonheur	école primaire	J3G 3G4	450 467-9932	80  rue F.-X.-Garneau
Québec	Boucherville	http://antoinegirouard.csp.qc.ca/	primaire	Commission scolaire Marie-Victorin	French	http://csp.ca/etablissement/ecole-antoine-girouard/	École Antoine-Girouard	école primaire	J4B 3E5	450 655-5991	650  rue Antoine-Girouard
