province	city	school_url	school_grades	school_board	school_language	response_url	school_name	school_type	postal_code	phone_number	street_address
Québec	Lachute	http://www.csrdn.qc.ca/template.asp?id=346		Commission scolaire de la Rivière-du-Nord	French	http://www.csrdn.qc.ca/template.asp?id=86	Édifice Le Parallèle	Formation générale des adultes	rue Mary	450566-0088	190  rue Mary
Québec	Saint-Jérôme	http://www.csrdn.qc.ca/template.asp?id=140		Commission scolaire de la Rivière-du-Nord	French	http://www.csrdn.qc.ca/template.asp?id=86	Édifice Marchand	Formation générale des adultes	rue Melançon	450436-5850	471  rue Melançon
Québec	Saint-Jérôme	http://www.csrdn.qc.ca/template.asp?id=139	Secondaire	Commission scolaire de la Rivière-du-Nord	French	http://www.csrdn.qc.ca/template.asp?id=85	Cap-Jeunesse	Secondaire	36e Avenue	450436-1858	600  36e Avenue
Québec	Mirabel	http://www.csrdn.qc.ca/template.asp?id=350	Secondaire	Commission scolaire de la Rivière-du-Nord	French	http://www.csrdn.qc.ca/template.asp?id=85	de Mirabel	Secondaire	du Val-d’Espoir	450569-2014	17 777  rue du Val-d’Espoir
Québec	Saint-Jérôme	http://www.csrdn.qc.ca/template.asp?id=342	Secondaire	Commission scolaire de la Rivière-du-Nord	French	http://www.csrdn.qc.ca/template.asp?id=85	des Hauts-Sommets	Secondaire	112e Avenue	450436-7414	1000  112e Avenue
Québec	Saint-Jérôme	http://www.csrdn.qc.ca/template.asp?id=340	Secondaire	Commission scolaire de la Rivière-du-Nord	French	http://www.csrdn.qc.ca/template.asp?id=85	des-Studios	Secondaire	montée Saint-Nicolas	450431-2114	909  montée Saint-Nicolas
Québec	Saint-Colomban	http://www.csrdn.qc.ca/template.asp?id=316	primaire	Commission scolaire de la Rivière-du-Nord	French	http://www.csrdn.qc.ca/template.asp?id=84	à l'Orée-des-Bois	Préscolaire / primaire	côte Saint-Nicholas	450431-1288	360  côte Saint-Nicholas
Québec	Mirabel	http://www.csrdn.qc.ca/template.asp?id=302	primaire	Commission scolaire de la Rivière-du-Nord	French	http://www.csrdn.qc.ca/template.asp?id=84	à l'Unisson	Préscolaire / primaire	Paul VI	450569-2233	13 300  rue Paul VI
Québec	Lachute	http://www.csrdn.qc.ca/template.asp?id=344	Secondaire	Commission scolaire de la Rivière-du-Nord	French	http://www.csrdn.qc.ca/template.asp?id=85	École polyvalente Lavigne	Secondaire	avenue Argenteuil	450562-8841	452  avenue Argenteuil
Québec	Saint-Jérôme	http://www.csrdn.qc.ca/template.asp?id=338	Secondaire	Commission scolaire de la Rivière-du-Nord	French	http://www.csrdn.qc.ca/template.asp?id=85	École polyvalente Saint-Jérôme	Secondaire	rue Filion	450436-4330	535  rue Filion
Québec	Saint-Jérôme	http://www.csrdn.qc.ca/template.asp?id=248	Secondaire	Commission scolaire de la Rivière-du-Nord	French	http://www.csrdn.qc.ca/template.asp?id=85	Frenette	Secondaire	rue Marie-Victorin	450438-4108	109  rue Marie-Victorin
Québec	Lachute	http://www.csrdn.qc.ca/template.asp?id=306	Secondaire	Commission scolaire de la Rivière-du-Nord	French	http://www.csrdn.qc.ca/template.asp?id=85	Le Tremplin	Secondaire	rue Hammond	450566-3108	77  rue Hammond
Québec	Saint-Jérôme	http://www.csrdn.qc.ca/template.asp?id=308	primaire	Commission scolaire de la Rivière-du-Nord	French	http://www.csrdn.qc.ca/template.asp?id=84	alternative de la Fourmilière	Préscolaire / primaire	rue Duvernay	450438-1220	175  rue Duvernay
Québec	Saint-Jérôme	http://www.csrdn.qc.ca/template.asp?id=2779	primaire	Commission scolaire de la Rivière-du-Nord	French	http://www.csrdn.qc.ca/template.asp?id=84	aux Couleurs-du-Savoir	Préscolaire / primaire	montée Sainte-Thérèse	450569-2082	1801  montée Sainte-Thérèse
Québec	Mirabel	http://www.csrdn.qc.ca/template.asp?id=288	primaire	Commission scolaire de la Rivière-du-Nord	French	http://www.csrdn.qc.ca/template.asp?id=84	aux Quatre-Vents	Préscolaire / primaire	rue Therrien	450569-2239	13 815  rue Therrien
Québec	Saint-Jérôme	http://www.csrdn.qc.ca/template.asp?id=138	primaire	Commission scolaire de la Rivière-du-Nord	French	http://www.csrdn.qc.ca/template.asp?id=84	Bellefeuille	Préscolaire / primaire	des Lacs	450438-9525	997  rue des Lacs
Québec	Saint-Jérôme	http://www.csrdn.qc.ca/template.asp?id=336	Secondaire	Commission scolaire de la Rivière-du-Nord	French	http://www.csrdn.qc.ca/template.asp?id=85	Saint-Stanislas	Secondaire	9e Rue	450436-6100	680  9e Rue
Québec	Brownsburg-Chatham	http://www.csrdn.qc.ca/template.asp?id=332	primaire	Commission scolaire de la Rivière-du-Nord	French	http://www.csrdn.qc.ca/template.asp?id=84	Bouchard	Préscolaire / primaire	de l’Église	450566-3126	294  rue de l’Église
Québec	Grenville	http://www.csrdn.qc.ca/template.asp?id=334	primaire	Commission scolaire de la Rivière-du-Nord	French	http://www.csrdn.qc.ca/template.asp?id=84	Dansereau/Saint-Martin	Préscolaire / primaire	rue Principale	450566-3103	316  rue Principale
Québec	Mirabel	http://www.csrdn.qc.ca/template.asp?id=314	primaire	Commission scolaire de la Rivière-du-Nord	French	http://www.csrdn.qc.ca/template.asp?id=84	de la Croisée-des-Champs	Préscolaire / primaire	rue Lacroix	450569-2099	13705  rue Lacroix
Québec	Saint-Jérôme	http://www.csrdn.qc.ca/template.asp?id=278	primaire	Commission scolaire de la Rivière-du-Nord	French	http://www.csrdn.qc.ca/template.asp?id=84	De La Durantaye	Préscolaire / primaire	rue Paul	450432-9582	31  rue Paul
Québec	Saint-Jérôme	http://www.csrdn.qc.ca/template.asp?id=310	primaire	Commission scolaire de la Rivière-du-Nord	French	http://www.csrdn.qc.ca/template.asp?id=84	de la Source	Préscolaire / primaire	la Salette	450431-0816	520  boulevard de la Salette
Québec	Saint-Colomban	http://www.csrdn.qc.ca/template.asp?id=318	primaire	Commission scolaire de la Rivière-du-Nord	French	http://www.csrdn.qc.ca/template.asp?id=84	de la Volière	Préscolaire / primaire	chemin Rivière-du-Nord	450569-3307	549  chemin Rivière-du-Nord
Québec	Saint-Jérôme	http://www.csrdn.qc.ca/template.asp?id=304	primaire	Commission scolaire de la Rivière-du-Nord	French	http://www.csrdn.qc.ca/template.asp?id=84	de l'Envolée	Préscolaire / primaire	rue Normand	450431-4377	1475  rue Normand
Québec	Saint-Jérôme	http://www.csrdn.qc.ca/template.asp?id=284	primaire	Commission scolaire de la Rivière-du-Nord	French	http://www.csrdn.qc.ca/template.asp?id=84	de l'Horizon-Soleil	Préscolaire / primaire	du Parc	450438-1296	1155  avenue du Parc
Québec	Prévost	http://www.csrdn.qc.ca/template.asp?id=1564	primaire	Commission scolaire de la Rivière-du-Nord	French	http://www.csrdn.qc.ca/template.asp?id=84	des Falaises	Préscolaire / primaire	rue Marchand	450569-2928	977  rue Marchand
Québec	Saint-Colomban	http://www.csrdn.qc.ca/template.asp?id=298	primaire	Commission scolaire de la Rivière-du-Nord	French	http://www.csrdn.qc.ca/template.asp?id=84	des Hautbois	Préscolaire / primaire	de l'Église	450438-8836	321  montée de l'Église
Québec	Saint-Hippolyte	http://www.csrdn.qc.ca/template.asp?id=296	primaire	Commission scolaire de la Rivière-du-Nord	French	http://www.csrdn.qc.ca/template.asp?id=84	des Hauteurs	Préscolaire / primaire	rue Bourget	450569-2023	30  rue Bourget
Québec	Prévost	http://www.csrdn.qc.ca/template.asp?id=312	primaire	Commission scolaire de la Rivière-du-Nord	French	http://www.csrdn.qc.ca/template.asp?id=84	du Champ-Fleuri	Préscolaire / primaire	du Clos-Toumalin	450431-3327	1135  rue du Clos-Toumalin
Québec	Sainte-Sophie	http://www.csrdn.qc.ca/template.asp?id=2777	primaire	Commission scolaire de la Rivière-du-Nord	French	http://www.csrdn.qc.ca/template.asp?id=84	du Grand-Héron	Préscolaire / primaire	montée Morel	450569-2081	1131  montée Morel
Québec	Sainte-Sophie	http://www.csrdn.qc.ca/template.asp?id=158	primaire	Commission scolaire de la Rivière-du-Nord	French	http://www.csrdn.qc.ca/template.asp?id=84	du Joli-Bois	Préscolaire / primaire	rue Val-des-Chênes	450431-0640	100  rue Val-des-Chênes
Québec	Saint-Jérôme	http://www.csrdn.qc.ca/template.asp?id=272	primaire	Commission scolaire de la Rivière-du-Nord	French	http://www.csrdn.qc.ca/template.asp?id=84	Dubois	Préscolaire / primaire	du Palais	450438-5008	562  rue du Palais
Québec	Sainte-Sophie	http://www.csrdn.qc.ca/template.asp?id=290	primaire	Commission scolaire de la Rivière-du-Nord	French	http://www.csrdn.qc.ca/template.asp?id=84	Jean-Moreau	Préscolaire / primaire	rue Saint-Joseph	450438-0717	2334  rue Saint-Joseph
Québec	Lachute	http://www.csrdn.qc.ca/template.asp?id=322	primaire	Commission scolaire de la Rivière-du-Nord	French	http://www.csrdn.qc.ca/template.asp?id=84	l'Oasis	Préscolaire / primaire	rue Hammond	450562-2223	80  rue Hammond
Québec	Saint-Jérôme	http://www.csrdn.qc.ca/template.asp?id=282	primaire	Commission scolaire de la Rivière-du-Nord	French	http://www.csrdn.qc.ca/template.asp?id=84	Mariboisé	Préscolaire / primaire	rue Duvernay	450432-4506	195  rue Duvernay
Québec	Mirabel	http://www.csrdn.qc.ca/template.asp?id=1056	primaire	Commission scolaire de la Rivière-du-Nord	French	http://www.csrdn.qc.ca/template.asp?id=84	Mer-et-Monde	Préscolaire / primaire	de l'Ambre	450569-3325	16 905  rue de l'Ambre
Québec	Saint-Jérôme	http://www.csrdn.qc.ca/template.asp?id=251	primaire	Commission scolaire de la Rivière-du-Nord	French	http://www.csrdn.qc.ca/template.asp?id=84	Notre-Dame	Préscolaire / primaire	rue Ouimet	450432-4472	581  rue Ouimet
Québec	Saint-Jérôme	http://www.csrdn.qc.ca/template.asp?id=274	primaire	Commission scolaire de la Rivière-du-Nord	French	http://www.csrdn.qc.ca/template.asp?id=84	Prévost	Préscolaire / primaire	rue Lauzon	450438-5603	85  rue Lauzon
Québec	Saint-Jérôme	http://www.csrdn.qc.ca/template.asp?id=292	primaire	Commission scolaire de la Rivière-du-Nord	French	http://www.csrdn.qc.ca/template.asp?id=84	Sacré-Coeur	Préscolaire / primaire	des Hauteurs	450438-1259	70  boulevard des Hauteurs
Québec	Lachute	http://www.csrdn.qc.ca/template.asp?id=328	primaire	Commission scolaire de la Rivière-du-Nord	French	http://www.csrdn.qc.ca/template.asp?id=84	Saint-Alexandre	Préscolaire / primaire	rue Grâce	450562-8519	451  rue Grâce
Québec	d’Argenteuil	http://www.csrdn.qc.ca/template.asp?id=320	primaire	Commission scolaire de la Rivière-du-Nord	French	http://www.csrdn.qc.ca/template.asp?id=84	Saint-André	Préscolaire / primaire	rue Legault	450566-3114	1  rue Legault
Québec	Mirabel	http://www.csrdn.qc.ca/template.asp?id=300	primaire	Commission scolaire de la Rivière-du-Nord	French	http://www.csrdn.qc.ca/template.asp?id=84	Sainte-Anne	Préscolaire / primaire	de Saint-Canut	450438-0424	9984  boulevard de Saint-Canut
Québec	Saint-Jérôme	http://www.csrdn.qc.ca/template.asp?id=286	primaire	Commission scolaire de la Rivière-du-Nord	French	http://www.csrdn.qc.ca/template.asp?id=84	Sainte-Paule	Préscolaire / primaire	rue Saint-Georges	450436-1757	1030  rue Saint-Georges
Québec	Saint-Jérôme	http://www.csrdn.qc.ca/template.asp?id=254	primaire	Commission scolaire de la Rivière-du-Nord	French	http://www.csrdn.qc.ca/template.asp?id=84	Sainte-Thérèse-de-l'Enfant-Jésus	Préscolaire / primaire	9e Rue	450438-8828	700  9e Rue
Québec	Mirabel	http://www.csrdn.qc.ca/template.asp?id=326	primaire	Commission scolaire de la Rivière-du-Nord	French	http://www.csrdn.qc.ca/template.asp?id=84	Saint-Hermas	Préscolaire / primaire	rue Lalande	450569-3373	4261  rue Lalande
Québec	Saint-Jérôme	http://www.csrdn.qc.ca/template.asp?id=276	primaire	Commission scolaire de la Rivière-du-Nord	French	http://www.csrdn.qc.ca/template.asp?id=84	Saint-Jean-Baptiste	Préscolaire / primaire	de Montigny	450438-3995	240  rue de Montigny
Québec	Saint-Jérôme	http://www.csrdn.qc.ca/template.asp?id=280	primaire	Commission scolaire de la Rivière-du-Nord	French	http://www.csrdn.qc.ca/template.asp?id=84	Saint-Joseph	Préscolaire / primaire	rue Saint-Georges	450438-3981	616  rue Saint-Georges
Québec	Lachute	http://www.csrdn.qc.ca/template.asp?id=330	primaire	Commission scolaire de la Rivière-du-Nord	French	http://www.csrdn.qc.ca/template.asp?id=84	Saint-Julien	Préscolaire / primaire	rue Wilson	450562-8521	218  rue Wilson
Québec	Brownsburg-Chatham	http://www.csrdn.qc.ca/template.asp?id=324	primaire	Commission scolaire de la Rivière-du-Nord	French	http://www.csrdn.qc.ca/template.asp?id=84	Saint-Philippe	Préscolaire / primaire	du Canton	450562-8576	223  route du Canton
Québec	Saint-Jérôme	http://www.csrdn.qc.ca/template.asp?id=2139	primaire	Commission scolaire de la Rivière-du-Nord	French	http://www.csrdn.qc.ca/template.asp?id=84	Sans-Frontières	Préscolaire / primaire	112e Avenue	450569-2131	1100  112e Avenue
Québec	Prévost	http://www.csrdn.qc.ca/template.asp?id=294	primaire	Commission scolaire de la Rivière-du-Nord	French	http://www.csrdn.qc.ca/template.asp?id=84	Val-des-Monts	Préscolaire / primaire	de l'École	450569-2913	872  rue de l'École
