province	city	school_url	school_grades	school_board	school_language	response_url	school_name	school_type	postal_code	phone_number	street_address
Québec	aile C Repentigny	www.centrelacroisee.com		Commission scolaire des Affluents	French	https://www.csaffluents.qc.ca/spip.php?article152	Centre la Croisée 	Formation générale des adultes	J5Y 1A2	450 492-3799	777, boulevard Iberville
Québec	" 
Mascouche"	limpactmas.csaffluents.qc.ca 	secondaire	Commission scolaire des Affluents	French	https://www.csaffluents.qc.ca/spip.php?article98	l’Impact	école secondaire	J7K 1X9	450492-3738	815, rue Bombardier, locaux 11 à 19
Québec	"
Repentigny"	www.cfpriverains.qc.ca		Commission scolaire des Affluents	French	https://www.csaffluents.qc.ca/spip.php?article157	CFP des Riverains à Repentigny	Formation professionnelle	J5Y 1N9	450492-3538	120, rue Valmont
Québec	" 
Terrebonne"			Commission scolaire des Affluents	French	https://www.csaffluents.qc.ca/spip.php?article158	CFP des Moulins à Terrebonne	Formation professionnelle	J6X 4J9	450492-3551	2525, boulevard des Entreprises 
Québec	" 
Mascouche"	http://leprelude.csaffluents.qc.ca	secondaire	Commission scolaire des Affluents	French	https://www.csaffluents.qc.ca/spip.php?article100	Le Prélude	école secondaire	J7K 1X6	450 492-3607	2995, avenue des Ancêtres
Québec	" 
L’Assomption"	http://paularseneau.csaffluents.qc.ca/	secondaire	Commission scolaire des Affluents	French	https://www.csaffluents.qc.ca/spip.php?article101	Paul-Arseneau	école secondaire	J5W 3L1	450492-3558	170, boulevard Hector-Papin
Québec	" 
Repentigny"	www.eshorizon.ca	secondaire	Commission scolaire des Affluents	French	https://www.csaffluents.qc.ca/spip.php?article97	l’Horizon	école secondaire	J5Z 4M6	450492-3571	239, boulevard J.-A. Paré
Québec	"
Repentigny"		secondaire	Commission scolaire des Affluents	French	https://www.csaffluents.qc.ca/spip.php?article96	l’Envolée	école secondaire	J6A 2P1	450492-3745	129, rue Notre-Dame
Québec	"
Repentigny"	jean-claude-crevier.csaffluents.qc.ca	secondaire	Commission scolaire des Affluents	French	https://www.csaffluents.qc.ca/spip.php?article2586	Jean-Claude-Crevier	école secondaire	J5Z 1S6	450 492-3729	391, rue du Village
Québec	"
Mascouche"	coteau.csaffluents.qc.ca	secondaire	Commission scolaire des Affluents	French	https://www.csaffluents.qc.ca/spip.php?article93	du Coteau	école secondaire	J7L 4C9	450492-3510	2121, rue de l’Alizé
Québec	" 
Terrebonne"	http://3saisons.csaffluents.qc.ca	secondaire	Commission scolaire des Affluents	French	https://www.csaffluents.qc.ca/spip.php?article92	des Trois-Saisons	école secondaire	J6X 3J4	450492-3746	1658, boulevard des Seigneurs
Québec	" 
Terrebonne"	desrives.csaffluents.qc.ca	secondaire	Commission scolaire des Affluents	French	https://www.csaffluents.qc.ca/spip.php?article91	Des Rives	école secondaire	J6W 5W9	450492-3613	400, montée Dumais
Québec	" 
Repentigny"	http://www.esfelixleclerc.com	secondaire	Commission scolaire des Affluents	French	https://www.csaffluents.qc.ca/spip.php?article94	Félix-Leclerc	école secondaire	J5Y 3W9	450492-3578	250, boulevard Louis-Philippe-Picard
Québec	" 
Repentigny"	jbm.csaffluents.qc.ca	secondaire	Commission scolaire des Affluents	French	https://www.csaffluents.qc.ca/spip.php?article95	Jean-Baptiste-Meilleur	école secondaire	J5Y 1A2	450492-3777	777, boulevard Iberville
Québec	" 
Terrebonne"	odyssee.csaffluents.qc.ca	secondaire	Commission scolaire des Affluents	French	https://www.csaffluents.qc.ca/spip.php?article90	de l’Odyssée	école secondaire	J7M 1Y8	450492-3743	2201, rue de la Jonquille
Québec	"
Repentigny"	Direction	primaire	Commission scolaire des Affluents	French	https://www.csaffluents.qc.ca/spip.php?article2585	Valmont-sur-Parc	école primaire	Repentigny, Québec	450492-3769	1155, boulevard Basile-Routhier
Québec	" 
L’Assomption"	stlouisass.csaffluents.qc.ca	primaire	Commission scolaire des Affluents	French	https://www.csaffluents.qc.ca/spip.php?article112	Saint-Louis (L’Assomption)	école primaire	J5W 3E6	450492-3508	761, rue du Pont
Québec	" 
Repentigny"	http://tournesol.csaffluents.qc.ca	primaire	Commission scolaire des Affluents	French	https://www.csaffluents.qc.ca/spip.php?article113	Tournesol	école primaire	J5Z 3L9	450492-3560	120, rue Payette
Québec	"
Terrebonne"	stlouister.csaffluents.qc.ca	primaire	Commission scolaire des Affluents	French	https://www.csaffluents.qc.ca/spip.php?article111	Saint-Louis (Terrebonne)	école primaire	J6W 3E5	450492-3611	539, rue St-Sacrement
Québec	"
Terrebonne"		primaire	Commission scolaire des Affluents	French	https://www.csaffluents.qc.ca/spip.php?article110	Saint-Joachim	école primaire	J7M 1S8	450492-3609	10521, rue Villeneuve
Québec	" 
L’Épiphanie"	saintguillaume.csaffluents.qc.ca	primaire	Commission scolaire des Affluents	French	https://www.csaffluents.qc.ca/spip.php?article109	Saint-Guillaume	école primaire	J5X 2Y2	450492-3592	81, rue des Sulpiciens
Québec	" 
Repentigny"	pie12.csaffluents.qc.ca	primaire	Commission scolaire des Affluents	French	https://www.csaffluents.qc.ca/spip.php?article107	Pie-XII	école primaire	J6A 4C7	450492-3515	50, rue Robert-Lussier
Québec	" 
L’Épiphanie"	mgrmongeau.csaffluents.qc.ca	primaire	Commission scolaire des Affluents	French	https://www.csaffluents.qc.ca/spip.php?article106	Mgr-Mongeau	école primaire	J5X 2T2	450492-3595	119, rue Amireault
Québec	" 
Repentigny"	marie-victorin.csaffluents.qc.ca	primaire	Commission scolaire des Affluents	French	https://www.csaffluents.qc.ca/spip.php?article105	Marie-Victorin	école primaire	J6A 5A8	450492-3522	75, rue Curé-Martineau
Québec	 secteur Le Gardeur	louisjosephhuot.csaffluents.qc.ca	primaire	Commission scolaire des Affluents	French	https://www.csaffluents.qc.ca/spip.php?article102	Louis-Joseph-Huot (institutionnelle)	école primaire	J5Z 1N5	450 492-3544	375, boulevard Lacombe Repentigny
Québec	" 
Repentigny"	:	primaire	Commission scolaire des Affluents	French	https://www.csaffluents.qc.ca/spip.php?article87	Louis-Fréchette	école primaire	J5Y 1B1	450492-3519	835, rue Fréchette
Québec	" 
Repentigny"	longpre.csaffluents.qc.ca	primaire	Commission scolaire des Affluents	French	https://www.csaffluents.qc.ca/spip.php?article86	Longpré	école primaire	J6A 1W2	450492-3536	249, rue Lanoue
Québec	" 
Repentigny"	lebourgneuf.csaffluents.qc.ca	primaire	Commission scolaire des Affluents	French	https://www.csaffluents.qc.ca/spip.php?article81	le Bourg-Neuf	école primaire	J5Z 4K3	450492-3573	168, rue Colbert
Québec	" 
Terrebonne"	http://leopoldgravel.csaffluents.qc.ca	primaire	Commission scolaire des Affluents	French	https://www.csaffluents.qc.ca/spip.php?article2584	Léopold-Gravel	école primaire	J6W 1M8	450492-3601	766, rue Saint-Paul
Québec	" 
Terrebonne"		primaire	Commission scolaire des Affluents	French	https://www.csaffluents.qc.ca/spip.php?article82	Le Castelet	école primaire	J6X 2N9	450492-3636	4200, rue Robert
Québec	" 
Mascouche"	lerucher.csaffluents.qc.ca	primaire	Commission scolaire des Affluents	French	https://www.csaffluents.qc.ca/spip.php?article84	Le Rucher	école primaire	J7L 3H2	450492-3603	855, rue des Érables
Québec	"
Repentigny"	tourterelle.csaffluents.qc.ca	primaire	Commission scolaire des Affluents	French	https://www.csaffluents.qc.ca/spip.php?article80	la Tourterelle	école primaire	J5Y 3M9	450492-3580	175, rue Philippe-Goulet
Québec	"
Charlemagne"	lapasserelle.csaffluents.qc.ca	primaire	Commission scolaire des Affluents	French	https://www.csaffluents.qc.ca/spip.php?article79	la Passerelle 	école primaire	J5Z 1E7	450492-3427	129, rue Saint-Alexis
Québec	" 
Mascouche"	lamennais.csaffluents.qc.ca	primaire	Commission scolaire des Affluents	French	https://www.csaffluents.qc.ca/spip.php?article78	La Mennais	école primaire	J7K 3B8	450492-3598	2881, rue Sainte-Marie
Québec	" 
Terrebonne"	larcenciel.csaffluents.qc.ca	primaire	Commission scolaire des Affluents	French	https://www.csaffluents.qc.ca/spip.php?article76	l’Arc-en-ciel	école primaire	J6V 1H6	450492-3735	273, rue Pierre-Laporte
Québec	" 
Repentigny"		primaire	Commission scolaire des Affluents	French	https://www.csaffluents.qc.ca/spip.php?article77	la Majuscule	école primaire	J5Z 4L3	450492-3590	210, rue Bertrand
Québec	"
Repentigny"	jeanxxiii.csaffluents.qc.ca	primaire	Commission scolaire des Affluents	French	https://www.csaffluents.qc.ca/spip.php?article75	Jean-XXIII	école primaire	J6A 1V5	450492-3533	185, rue du Curé-Longpré
Québec	"
Repentigny"	jeanduceppe.csaffluents.qc.ca	primaire	Commission scolaire des Affluents	French	https://www.csaffluents.qc.ca/spip.php?article66	Jean-Duceppe	école primaire	J5Z 4V3	450492-3583	610, rue Jean-Duceppe
Québec	secteur Lachenaie	jeandelafontaine.csaffluents.qc.ca	primaire	Commission scolaire des Affluents	French	https://www.csaffluents.qc.ca/spip.php?article65	Jean-De La Fontaine (institutionnelle)	école primaire	J6V 1B4	450 492-3736	192, rue de l’Église (anciennement rue Notre-Dame) Terrebonne
Québec	" 
Repentigny"	:	primaire	Commission scolaire des Affluents	French	https://www.csaffluents.qc.ca/spip.php?article64	Henri-Bourassa et Soleil-de-l’Aube	école primaire	J6A 2A4	450492-3517	283, boulevard Iberville
Québec	" 
Terrebonne"	estherblondin.csaffluents.qc.ca	primaire	Commission scolaire des Affluents	French	https://www.csaffluents.qc.ca/spip.php?article62	Esther-Blondin	école primaire	J6X 1N1	450492-3632	905, rue Vaillant
Québec	" 
Repentigny"	http://entramis.csaffluents.qc.ca/	primaire	Commission scolaire des Affluents	French	https://www.csaffluents.qc.ca/spip.php?article61	Entramis	école primaire	J6A 6Z5	450492-3567	595, boulevard L’Assomption
Québec	" 
Repentigny"	emilenelligan.csaffluents.qc.ca	primaire	Commission scolaire des Affluents	French	https://www.csaffluents.qc.ca/spip.php?article60	Émile-Nelligan	école primaire	J6A 4G1	450492-3554	45, rue Fiset
Québec	"
L’Assomption"	gareau.csaffluents.qc.ca	primaire	Commission scolaire des Affluents	French	https://www.csaffluents.qc.ca/spip.php?article63	Gareau	école primaire	J5W 4R5	450492-3565	2600, Boulevard de l’Ange-Gardien Nord
Québec	" 
Terrebonne"	vieuxchene.csaffluents.qc.ca	primaire	Commission scolaire des Affluents	French	https://www.csaffluents.qc.ca/spip.php?article59	du Vieux-Chêne	école primaire	J6W 5H2	450492-3739	99, croissant de la Matapédia
Québec	"
Repentigny"	dumoulin.csaffluents.qc.ca	primaire	Commission scolaire des Affluents	French	https://www.csaffluents.qc.ca/spip.php?article28	du Moulin	école primaire	J5Y 2R7	450492-3569	120, boulevard Laurentien
Québec	" 
Mascouche"	dusoleillevant.csaffluents.qc.ca	primaire	Commission scolaire des Affluents	French	https://www.csaffluents.qc.ca/spip.php?article57	du Soleil-Levant 	école primaire	J7K 3M9	450492-3741	3400, rue Champlain
Québec	L’Assomption	http://dumeandre.csaffluents.qc.ca/	primaire	Commission scolaire des Affluents	French	https://www.csaffluents.qc.ca/spip.php?article39	du Méandre (institutionnelle)	école primaire	J5W 2X6	450492-3506	190, boulevard Meilleur
Québec	" 
Terrebonne"	duboise.csaffluents.qc.ca	primaire	Commission scolaire des Affluents	French	https://www.csaffluents.qc.ca/spip.php?article55	du Boisé	école primaire	J7M 1Y6	450492-3617	5800, rue Rodrigue
Québec	"
Terrebonne"	dugeaibleu.csaffluents.qc.ca	primaire	Commission scolaire des Affluents	French	https://www.csaffluents.qc.ca/spip.php?article56	du Geai-Bleu	école primaire	J7M 1Y7	450492-3742	7101, rue Rodrigue
Québec	" 
Mascouche"	http://hauts-bois.csaffluents.qc.ca/	primaire	Commission scolaire des Affluents	French	https://www.csaffluents.qc.ca/spip.php?article53	des Hauts-Bois 	école primaire	J7L 3B3	450492-3628	99, rue Napoléon
Québec	"
Terrebonne"		primaire	Commission scolaire des Affluents	French	https://www.csaffluents.qc.ca/spip.php?article51	de la Sablière	école primaire	J6X 3E3	450492-3622	1659, boulevard des Seigneurs
Québec	"
Mascouche"	delaseigneurie.csaffluents.qc.ca	primaire	Commission scolaire des Affluents	French	https://www.csaffluents.qc.ca/spip.php?article1677	de la Seigneurie	école primaire	J7K 0J1	450492-3763	2460, rue de Versailles
Québec	" 
Repentigny"	http://desmoissons.csaffluents.qc.ca	primaire	Commission scolaire des Affluents	French	https://www.csaffluents.qc.ca/spip.php?article54	des Moissons	école primaire	J5Y 1Z3	450492-3562	945, rue Noiseux
Québec	" 
Mascouche"	Site	primaire	Commission scolaire des Affluents	French	https://www.csaffluents.qc.ca/spip.php?article52	de la Source 	école primaire	J7K 2B3	450492-3630	1275, avenue Châteaubriant
Québec	" 
Repentigny"	delapaix.csaffluents.qc.ca	primaire	Commission scolaire des Affluents	French	https://www.csaffluents.qc.ca/spip.php?article50	de la Paix	école primaire	J6A 7W9	450492-3576	830, rue Basile-Routhier
Québec	"
Terrebonne"	oreedesbois.csaffluents.qc.ca	primaire	Commission scolaire des Affluents	French	https://www.csaffluents.qc.ca/spip.php?article49	de l’Orée-des-Bois 	école primaire	J7M 1Y9	450492-3747	4960, rue Rodrigue
Québec	"
Terrebonne"		primaire	Commission scolaire des Affluents	French	https://www.csaffluents.qc.ca/spip.php?article44	Bernard-Corbin	école primaire	J6W 5N9	450492-3656	1747, rue Rochon
Québec	" 
Saint-Sulpice"		primaire	Commission scolaire des Affluents	French	https://www.csaffluents.qc.ca/spip.php?article43	aux-Quatre-Vents (Saint-Sulpice)	école primaire	J5W 3W4	450492-3547	903, rue Notre-Dame
Québec	" 
Terrebonne"	delaubier.csaffluents.qc.ca	primaire	Commission scolaire des Affluents	French	https://www.csaffluents.qc.ca/spip.php?article47	de l’Aubier	école primaire	J7M 1Z7	450492-3748	1651, rue Guillemette
Québec	Charlemagne	http://decharlemagne.csaffluents.qc.ca/	primaire	Commission scolaire des Affluents	French	https://www.csaffluents.qc.ca/spip.php?article46	de Charlemagne (institutionnelle)	école primaire	J5Z 1E7	450 492-3434	117, rue Saint-Alexis
Québec	" 
Terrebonne"	deletincelle.csaffluents.qc.ca	primaire	Commission scolaire des Affluents	French	https://www.csaffluents.qc.ca/spip.php?article48	de l’Étincelle	école primaire	J6X 4A8	450492-3740	2225, boulevard des Seigneurs
Québec	"
Mascouche"	aux4vents.csaffluents.qc.ca	primaire	Commission scolaire des Affluents	French	https://www.csaffluents.qc.ca/spip.php?article42	Aux 4 Vents (Mascouche)	école primaire	J7K 2A3	450492-3639	3000, avenue Bourque
Québec	"
L’Assomption"	aupointdujour.csaffluents.qc.ca	primaire	Commission scolaire des Affluents	French	https://www.csaffluents.qc.ca/spip.php?article41	au Point-du-Jour	école primaire	J5W 2P2	450492-3586	1075, boulevard Pierre-Lesueur
Québec	" 
Repentigny"		primaire	Commission scolaire des Affluents	French	https://www.csaffluents.qc.ca/spip.php?article738	Alphonse-Desjardins	école primaire	J6A 4R9	450492-3524	31, rue Brien
Québec	"
L’Assomption"	amitie.csaffluents.qc.ca	secondaire	Commission scolaire des Affluents	French	https://www.csaffluents.qc.ca/spip.php?article89	de l’Amitié	école secondaire	J5W 5H1	450492-3588	1600, boulevard de l’Ange-Gardien Nord
Québec	" 
Terrebonne"	www.armand-corbeil.ca	secondaire	Commission scolaire des Affluents	French	https://www.csaffluents.qc.ca/spip.php?article88	Armand-Corbeil 	école secondaire	J6W 1X2	450492-3619	795, rue John-F.-Kennedy
