province	city	school_url	school_grades	school_board	school_language	response_url	school_name	school_type	postal_code	phone_number	street_address
Québec	"
						Bois-des-Filion (Québec)"	http://sites.cssmi.qc.ca/lerucher/	primaire	Commission scolaire de la Seigneurie-des-Mille-Îles	French	http://gestiondoc.cssmi.qc.ca/gesdoc/php/accueilBV/ecoCentreInfoDrupal.php?ecoid=282	Le Rucher	école primaire	 J6Z 2C4	450621-1750	100, 33e Avenue
Québec	"
						Terrebonne (Québec)"	http://sites.cssmi.qc.ca/jeunesdumonde/	primaire	Commission scolaire de la Seigneurie-des-Mille-Îles	French	http://gestiondoc.cssmi.qc.ca/gesdoc/php/accueilBV/ecoCentreInfoDrupal.php?ecoid=283	Jeunes du monde	école primaire	 J6Y 1R2	450621-5642	452, rue de Neuilly
Québec	"
						Lorraine (Québec)"	http://sites.cssmi.qc.ca/lecarrefour	primaire	Commission scolaire de la Seigneurie-des-Mille-Îles	French	http://gestiondoc.cssmi.qc.ca/gesdoc/php/accueilBV/ecoCentreInfoDrupal.php?ecoid=280	Le Carrefour	école primaire	 J6Z 3L5	450621-2500	59, boul. de Vignory
Québec	"
						Saint-Eustache (Québec)"	http://www.ecolehorizonsoleil.com/	primaire	Commission scolaire de la Seigneurie-des-Mille-Îles	French	http://gestiondoc.cssmi.qc.ca/gesdoc/php/accueilBV/ecoCentreInfoDrupal.php?ecoid=252	Horizon-Soleil	école primaire	 J7P 4M2	450472-1440	425, rue Hamel
Québec	"
						Mirabel (Québec)"	http://sites.cssmi.qc.ca/girouard/	primaire	Commission scolaire de la Seigneurie-des-Mille-Îles	French	http://gestiondoc.cssmi.qc.ca/gesdoc/php/accueilBV/ecoCentreInfoDrupal.php?ecoid=203	Girouard	école primaire	 J7N 2N8	450434-8612	9030, rue Dumouchel
Québec	"
						Sainte-Marthe-sur-le-Lac (Québec)"	http://sites.cssmi.qc.ca/hordulac/	primaire	Commission scolaire de la Seigneurie-des-Mille-Îles	French	http://gestiondoc.cssmi.qc.ca/gesdoc/php/accueilBV/ecoCentreInfoDrupal.php?ecoid=209	Horizon-du-Lac	école primaire	 J0N 1P0	450473-2043	3099, chemin d'Oka
Québec	"
						Boisbriand (Québec)"	http://sites.cssmi.qc.ca/gastonpilon/	primaire	Commission scolaire de la Seigneurie-des-Mille-Îles	French	http://gestiondoc.cssmi.qc.ca/gesdoc/php/accueilBV/ecoCentreInfoDrupal.php?ecoid=274	Gaston-Pilon	école primaire	 J7G 1V7	450433-5520	1025, rue Castelneau
Québec	"
						Boisbriand (Québec)"	http://sites.cssmi.qc.ca/gabrielleroy/	primaire	Commission scolaire de la Seigneurie-des-Mille-Îles	French	http://gestiondoc.cssmi.qc.ca/gesdoc/php/accueilBV/ecoCentreInfoDrupal.php?ecoid=273	Gabrielle-Roy	école primaire	 J7G 3G7	450433-5380	500, rue Marie-C.-Daveluy
Québec	"
						Deux-Montagnes (Québec)"	http://sites.cssmi.qc.ca/emmanuelchenard/	primaire	Commission scolaire de la Seigneurie-des-Mille-Îles	French	http://gestiondoc.cssmi.qc.ca/gesdoc/php/accueilBV/ecoCentreInfoDrupal.php?ecoid=240	Emmanuel-Chénard	école primaire	 J7R 6L2	450491-5454	600, 28e Avenue
Québec	"
						Sainte-Thérèse (Québec)"	http://sites.cssmi.qc.ca/traitdunion/	primaire	Commission scolaire de la Seigneurie-des-Mille-Îles	French	http://gestiondoc.cssmi.qc.ca/gesdoc/php/accueilBV/ecoCentreInfoDrupal.php?ecoid=214	du Trait-d'Union (pavillon Charles-Ducharme)	école primaire	 J7E 3M7	450433-5505	66, rue Saint-Stanislas
Québec	"
						Lorraine (Québec)"	http://sites.cssmi.qc.ca/ruisselet/	primaire	Commission scolaire de la Seigneurie-des-Mille-Îles	French	http://gestiondoc.cssmi.qc.ca/gesdoc/php/accueilBV/ecoCentreInfoDrupal.php?ecoid=285	du Ruisselet	école primaire	 J6Z 4X1	450434-8896	65, boulevard de Chambord
Québec	"
						Boisbriand (Québec)"	http://sites.cssmi.qc.ca/dumai/	primaire	Commission scolaire de la Seigneurie-des-Mille-Îles	French	http://gestiondoc.cssmi.qc.ca/gesdoc/php/accueilBV/ecoCentreInfoDrupal.php?ecoid=275	du Mai	école primaire	 J7H 1R3	450433-5370	3233, rue de la Bastille
Québec	"
						Saint-Joseph-du-Lac (Québec)"	https://portraitecole.cssmi.qc.ca/PeAdmin/PeAdmin?page=PeAdmin.PageFormationPrimaire&EtablissementId=231	primaire	Commission scolaire de la Seigneurie-des-Mille-Îles	French	http://gestiondoc.cssmi.qc.ca/gesdoc/php/accueilBV/ecoCentreInfoDrupal.php?ecoid=231	du Grand-Pommier	école primaire	 J0N 1M0	450491-8415	257, rue Yvon
Québec	"
						Sainte-Anne-des-Plaines (Québec)"	http://sites.cssmi.qc.ca/boisjoli/	primaire	Commission scolaire de la Seigneurie-des-Mille-Îles	French	http://gestiondoc.cssmi.qc.ca/gesdoc/php/accueilBV/ecoCentreInfoDrupal.php?ecoid=287	Du Bois-Joli	école primaire	 J0N 1H0	450434-8509	200, rue Neuville-en-Ferrain
Québec	"
						Sainte-Thérèse (Québec)"	http://cms.cssmi.qc.ca		Commission scolaire de la Seigneurie-des-Mille-Îles	French	http://gestiondoc.cssmi.qc.ca/gesdoc/php/accueilBV/ecoCentreInfoDrupal.php?ecoid=305	Centre multiservice de Sainte-Thérèse	un centre de information	 J7E 5A4	450433-5432	125, rue Beauchamp
Québec	"
						Blainville (Québec)"	http://sites.cssmi.qc.ca/dessemailles/	primaire	Commission scolaire de la Seigneurie-des-Mille-Îles	French	http://gestiondoc.cssmi.qc.ca/gesdoc/php/accueilBV/ecoCentreInfoDrupal.php?ecoid=226	des Semailles	école primaire	 J7C 4Y7	450433-4616	1100, boul. Céloron
Québec	"
						Saint-Eustache (Québec)"	http://www.cfp-cssmi-csswl.cssmi.qc.ca		Commission scolaire de la Seigneurie-des-Mille-Îles	French	http://gestiondoc.cssmi.qc.ca/gesdoc/php/accueilBV/ecoCentreInfoDrupal.php?ecoid=460	Nouveau centre de formation professionnelle CSSMI - CSSWL	un centre de information	 	450491-8416	246, Allée du golf
Québec	"
						Deux-Montagnes (Québec)"	http://www.lemergence.qc.ca		Commission scolaire de la Seigneurie-des-Mille-Îles	French	http://gestiondoc.cssmi.qc.ca/gesdoc/php/accueilBV/ecoCentreInfoDrupal.php?ecoid=402	Centre de formation professionnelle, l'Émergence	un centre de information	 J7R 7B4	450623-3079	1415, chemin de l'Avenir
Québec	"
						Sainte-Thérèse (Québec)"	http://www.cfpauto.com		Commission scolaire de la Seigneurie-des-Mille-Îles	French	http://gestiondoc.cssmi.qc.ca/gesdoc/php/accueilBV/ecoCentreInfoDrupal.php?ecoid=403	Centre de formation professionnelle de l'automobile	un centre de information	 J7E 4S4	450433-5435	301, boul. du Domaine
Québec	"
						Sainte-Thérèse (Québec)"	http://www.cfnt.qc.ca/		Commission scolaire de la Seigneurie-des-Mille-Îles	French	http://gestiondoc.cssmi.qc.ca/gesdoc/php/accueilBV/ecoCentreInfoDrupal.php?ecoid=404	Centre de formation des Nouvelles-Technologies	un centre de information	 J7E 5R8	450433-5480	75, rue Duquet
Québec	"
						Sainte-Marthe-sur-le-Lac (Québec)"	http://cfcp.cssmi.qc.ca/		Commission scolaire de la Seigneurie-des-Mille-Îles	French	http://gestiondoc.cssmi.qc.ca/gesdoc/php/accueilBV/ecoCentreInfoDrupal.php?ecoid=306	Centre de formation continue des Patriotes	un centre de information	 J0N 1P0	450491-4488	2801, boul. des Promenades, local 120
Québec	"
						Mirabel (Québec)"	http://www.cfam.qc.ca		Commission scolaire de la Seigneurie-des-Mille-Îles	French	http://gestiondoc.cssmi.qc.ca/gesdoc/php/accueilBV/ecoCentreInfoDrupal.php?ecoid=407	Centre de formation agricole de Mirabel	un centre de information	 J7N 2X8	450434-8150	9850, rue de Belle-Rivière
Québec	"
						Bois-des-Filion (Québec)"	http://sites.cssmi.qc.ca/rivenord/	secondaire	Commission scolaire de la Seigneurie-des-Mille-Îles	French	http://gestiondoc.cssmi.qc.ca/gesdoc/php/accueilBV/ecoCentreInfoDrupal.php?ecoid=173	secondaire Rive-Nord	école secondaire	 J6Z 4P7	450621-3686	400, rue Joseph-Paquette
Québec	"
						Blainville (Québec)"	http://sites.cssmi.qc.ca/lucilleteasdale/	secondaire	Commission scolaire de la Seigneurie-des-Mille-Îles	French	http://gestiondoc.cssmi.qc.ca/gesdoc/php/accueilBV/ecoCentreInfoDrupal.php?ecoid=106	secondaire Lucille-Teasdale	école secondaire	 J7C 5A8	450430-2251	1275, boulevard Céloron
Québec	"
						Sainte-Marthe-sur-le-Lac (Québec)"	http://sites.cssmi.qc.ca/libjeu/	secondaire	Commission scolaire de la Seigneurie-des-Mille-Îles	French	http://gestiondoc.cssmi.qc.ca/gesdoc/php/accueilBV/ecoCentreInfoDrupal.php?ecoid=107	secondaire Liberté-Jeunesse	école secondaire	 J0N 1P0	450623-4666	2919, boul. des Promenades
Québec	"
						Boisbriand (Québec)"	https://sites.google.com/site/secondairejjrboisbriand/home	secondaire	Commission scolaire de la Seigneurie-des-Mille-Îles	French	http://gestiondoc.cssmi.qc.ca/gesdoc/php/accueilBV/ecoCentreInfoDrupal.php?ecoid=171	secondaire Jean-Jacques-Rousseau	école secondaire	 J7H 1P1	450433-5455	2700, rue Jean-Charles-Bonenfant
Québec	"
						Blainville (Québec)"	http://sites.cssmi.qc.ca/henri-dunant/	secondaire	Commission scolaire de la Seigneurie-des-Mille-Îles	French	http://gestiondoc.cssmi.qc.ca/gesdoc/php/accueilBV/ecoCentreInfoDrupal.php?ecoid=108	secondaire Henri-Dunant	école secondaire	 J7C 5Y8	450434-8951	200, rue Marie-Chapleau
Québec	"
						Rosemère (Québec)"	http://sites.cssmi.qc.ca/hubert-maisonneuve/	secondaire	Commission scolaire de la Seigneurie-des-Mille-Îles	French	http://gestiondoc.cssmi.qc.ca/gesdoc/php/accueilBV/ecoCentreInfoDrupal.php?ecoid=174	secondaire Hubert-Maisonneuve	école secondaire	 J7A 1Z1	450621-2003	364, rue de l'Académie
Québec	"
						Sainte-Anne-des-Plaines (Québec)"	http://harfang.danym.org/	secondaire	Commission scolaire de la Seigneurie-des-Mille-Îles	French	http://gestiondoc.cssmi.qc.ca/gesdoc/php/accueilBV/ecoCentreInfoDrupal.php?ecoid=172	secondaire du Harfang	école secondaire	 J0N 1H0	450434-8570	140, rue des Saisons
Québec	"
						Oka (Québec)"	http://eso.cssmi.qc.ca	secondaire	Commission scolaire de la Seigneurie-des-Mille-Îles	French	http://gestiondoc.cssmi.qc.ca/gesdoc/php/accueilBV/ecoCentreInfoDrupal.php?ecoid=102	secondaire d'Oka	école secondaire	 J0N 1E0	450491-8410	1700, chemin d'Oka
Québec	"
						Saint-Eustache (Québec)"	http://esp.cssmi.qc.ca	secondaire	Commission scolaire de la Seigneurie-des-Mille-Îles	French	http://gestiondoc.cssmi.qc.ca/gesdoc/php/accueilBV/ecoCentreInfoDrupal.php?ecoid=143	secondaire des Patriotes	école secondaire	 J7P 4S4	450472-6060	99, rue Grignon
Québec	"
						Sainte-Thérèse (Québec)"	http://sites.cssmi.qc.ca/stg/	secondaire	Commission scolaire de la Seigneurie-des-Mille-Îles	French	http://gestiondoc.cssmi.qc.ca/gesdoc/php/accueilBV/ecoCentreInfoDrupal.php?ecoid=104	Saint-Gabriel	école secondaire	 J7E 1V3	450433-5445	8, rue Tassé
Québec	"
						Sainte-Thérèse (Québec)"	http://sites.cssmi.qc.ca/pst/	secondaire	Commission scolaire de la Seigneurie-des-Mille-Îles	French	http://gestiondoc.cssmi.qc.ca/gesdoc/php/accueilBV/ecoCentreInfoDrupal.php?ecoid=105	Polyvalente Sainte-Thérèse	école secondaire	 J7E 4S4	450433-5400	401, boul. du Domaine
Québec	"
						Deux-Montagnes (Québec)"	http://sites.cssmi.qc.ca/pdm/	secondaire	Commission scolaire de la Seigneurie-des-Mille-Îles	French	http://gestiondoc.cssmi.qc.ca/gesdoc/php/accueilBV/ecoCentreInfoDrupal.php?ecoid=144	Polyvalente Deux-Montagnes	école secondaire	 J7R 6A7	450472-3070	500, chemin des Anciens
Québec	"
						Deux-Montagnes (Québec)"	http://sites.cssmi.qc.ca/deserables/	secondaire	Commission scolaire de la Seigneurie-des-Mille-Îles	French	http://gestiondoc.cssmi.qc.ca/gesdoc/php/accueilBV/ecoCentreInfoDrupal.php?ecoid=142	des Érables	école secondaire	 J7R 6A6	450472-2670	1400, chemin de l'Avenir
Québec	"
						Saint-Eustache (Québec)"	http://sites.cssmi.qc.ca/vdj/	primaire	Commission scolaire de la Seigneurie-des-Mille-Îles	French	http://gestiondoc.cssmi.qc.ca/gesdoc/php/accueilBV/ecoCentreInfoDrupal.php?ecoid=244	Village-des-Jeunes	école primaire	 J7R 2H3	450473-7422	16, rue Perry
Québec	"
						Rosemère (Québec)"	http://sites.cssmi.qc.ca/vdo/	primaire	Commission scolaire de la Seigneurie-des-Mille-Îles	French	http://gestiondoc.cssmi.qc.ca/gesdoc/php/accueilBV/ecoCentreInfoDrupal.php?ecoid=277	Val-des-Ormes	école primaire	 J7A 1H6	450437-5770	199, chemin de la Grande-Côte
Québec	"
						Sainte-Thérèse (Québec)"	http://sites.cssmi.qc.ca/terresoleil/	primaire	Commission scolaire de la Seigneurie-des-Mille-Îles	French	http://gestiondoc.cssmi.qc.ca/gesdoc/php/accueilBV/ecoCentreInfoDrupal.php?ecoid=212	Terre-Soleil	école primaire	 J7E 2M6	450433-5355	800, rue De Sève
Québec	"
						Saint-Eustache (Québec)"	http://sites.cssmi.qc.ca/tdj/	primaire	Commission scolaire de la Seigneurie-des-Mille-Îles	French	http://gestiondoc.cssmi.qc.ca/gesdoc/php/accueilBV/ecoCentreInfoDrupal.php?ecoid=251	Terre des jeunes	école primaire	 J7P 2V2	450473-9219	128, 25e Avenue
Québec	"
						Deux-Montagnes (Québec)"	http://sites.cssmi.qc.ca/sauve/	primaire	Commission scolaire de la Seigneurie-des-Mille-Îles	French	http://gestiondoc.cssmi.qc.ca/gesdoc/php/accueilBV/ecoCentreInfoDrupal.php?ecoid=241	Sauvé	école primaire	 J7R 3M2	450473-3206	214, 9e Avenue
Québec	"
						Mirabel (Québec)"	http://sites.cssmi.qc.ca/stescholastique/	primaire	Commission scolaire de la Seigneurie-des-Mille-Îles	French	http://gestiondoc.cssmi.qc.ca/gesdoc/php/accueilBV/ecoCentreInfoDrupal.php?ecoid=204	Sainte-Scholastique	école primaire	 J7N 2X5	450434-8716	9290, côte des Saints, QC
Québec	"
						Sainte-Thérèse (Québec)"	http://sites.cssmi.qc.ca/stpierre/	primaire	Commission scolaire de la Seigneurie-des-Mille-Îles	French	http://gestiondoc.cssmi.qc.ca/gesdoc/php/accueilBV/ecoCentreInfoDrupal.php?ecoid=217	Saint-Pierre	école primaire	 J7E 2S3	450433-5545	201, rue Saint-Pierre
Québec	"
						Saint-Joseph-du-Lac (Québec)"	http://sites.cssmi.qc.ca/rosedesvents/	primaire	Commission scolaire de la Seigneurie-des-Mille-Îles	French	http://gestiondoc.cssmi.qc.ca/gesdoc/php/accueilBV/ecoCentreInfoDrupal.php?ecoid=207	Rose-des-Vents	école primaire	 J0N 1M0	450473-5116	70, montée du Village
Québec	"
						Mirabel (Québec)"	https://sites.google.com/a/cssmi.qc.ca/spf/	primaire	Commission scolaire de la Seigneurie-des-Mille-Îles	French	http://gestiondoc.cssmi.qc.ca/gesdoc/php/accueilBV/ecoCentreInfoDrupal.php?ecoid=205	Prés fleuris	école primaire	 J7N 2B2	450434-8656	15074, rue de Saint-Augustin
Québec	"
						Blainville (Québec)"	http://sites.cssmi.qc.ca/plateau/	primaire	Commission scolaire de la Seigneurie-des-Mille-Îles	French	http://gestiondoc.cssmi.qc.ca/gesdoc/php/accueilBV/ecoCentreInfoDrupal.php?ecoid=219	Plateau Saint-Louis	école primaire	 J7C 2H4	450433-5350	425, boul. du Curé-Labelle
Québec	"
						Mirabel (Québec)"	https://portraitecole.cssmi.qc.ca/PeAdmin/PeAdmin?page=PeAdmin.PageFormationPrimaire&EtablissementId=260	primaire	Commission scolaire de la Seigneurie-des-Mille-Îles	French	http://gestiondoc.cssmi.qc.ca/gesdoc/php/accueilBV/ecoCentreInfoDrupal.php?ecoid=260	Nouvelle école de Saint-Augustin	école primaire	 J7N 0W6	450434-8576	13 000, rue Pierre-Perrin
Québec	"
						Blainville (Québec)"	http://sites.cssmi.qc.ca/nda/	primaire	Commission scolaire de la Seigneurie-des-Mille-Îles	French	http://gestiondoc.cssmi.qc.ca/gesdoc/php/accueilBV/ecoCentreInfoDrupal.php?ecoid=221	Notre-Dame-de-l'Assomption	école primaire	 J7C 2M2	450433-5540	1027, boul. du Curé-Labelle
Québec	"
						Saint-Eustache (Québec)"	http://sites.cssmi.qc.ca/notredame/	primaire	Commission scolaire de la Seigneurie-des-Mille-Îles	French	http://gestiondoc.cssmi.qc.ca/gesdoc/php/accueilBV/ecoCentreInfoDrupal.php?ecoid=242	Notre-Dame	école primaire	 J7R 1X9	450473-2933	151, rue Saint-Louis
Québec	"
						Terrebonne (Québec)"	http://sites.cssmi.qc.ca/mst/	primaire	Commission scolaire de la Seigneurie-des-Mille-Îles	French	http://gestiondoc.cssmi.qc.ca/gesdoc/php/accueilBV/ecoCentreInfoDrupal.php?ecoid=284	Marie-Soleil-Tougas	école primaire	 J6Y 1L2	450979-9736	3415, place Camus
Québec	"
						Lorraine (Québec)"	Http://sites.cssmi.qc.ca/letournesol	primaire	Commission scolaire de la Seigneurie-des-Mille-Îles	French	http://gestiondoc.cssmi.qc.ca/gesdoc/php/accueilBV/ecoCentreInfoDrupal.php?ecoid=279	Le Tournesol	école primaire	 J6Z 3Z8	450621-6301	155, boul. de Gaulle
Québec	"
						Sainte-Thérèse (Québec)"	http://sites.cssmi.qc.ca/tandem/	primaire	Commission scolaire de la Seigneurie-des-Mille-Îles	French	http://gestiondoc.cssmi.qc.ca/gesdoc/php/accueilBV/ecoCentreInfoDrupal.php?ecoid=271	Le Tandem	école primaire	 J7E 3P6	450433-5525	10, rue Bélisle
Québec	"
						Boisbriand (Québec)"	http://www.ecolelesentier.net/	primaire	Commission scolaire de la Seigneurie-des-Mille-Îles	French	http://gestiondoc.cssmi.qc.ca/gesdoc/php/accueilBV/ecoCentreInfoDrupal.php?ecoid=215	Le Sentier	école primaire	 J7G 2L2	450433-5515	287, chemin de la Grande-Côte
Québec	"
						Blainville (Québec)"	https://sites.google.com/site/ecoledesramilles/	primaire	Commission scolaire de la Seigneurie-des-Mille-Îles	French	http://gestiondoc.cssmi.qc.ca/gesdoc/php/accueilBV/ecoCentreInfoDrupal.php?ecoid=220	des Ramilles	école primaire	 J7C 5N4	450433-5415	1030, rue Gilles-Vigneault
Québec	"
						Pointe-Calumet (Québec)"	http://sites.cssmi.qc.ca/perseides/	primaire	Commission scolaire de la Seigneurie-des-Mille-Îles	French	http://gestiondoc.cssmi.qc.ca/gesdoc/php/accueilBV/ecoCentreInfoDrupal.php?ecoid=210	des Perséides	école primaire	 J0N 1G5	450623-9494	1020, rue Simonne
Québec	"
						Oka (Québec)"	http://sites.cssmi.qc.ca/despins/	primaire	Commission scolaire de la Seigneurie-des-Mille-Îles	French	http://gestiondoc.cssmi.qc.ca/gesdoc/php/accueilBV/ecoCentreInfoDrupal.php?ecoid=202	des Pins	école primaire	 J0N 1E0	450491-8400	25, rue des Pins
Québec	"
						Sainte-Anne-des-Plaines (Québec)"	http://sites.cssmi.qc.ca/desmoissons/	primaire	Commission scolaire de la Seigneurie-des-Mille-Îles	French	http://gestiondoc.cssmi.qc.ca/gesdoc/php/accueilBV/ecoCentreInfoDrupal.php?ecoid=286	des Moissons	école primaire	 J0N 1H0	450434-8458	1, rue Chaumont
Québec	"
						Deux-Montagnes (Québec)"	http://sites.cssmi.qc.ca/dm/	primaire	Commission scolaire de la Seigneurie-des-Mille-Îles	French	http://gestiondoc.cssmi.qc.ca/gesdoc/php/accueilBV/ecoCentreInfoDrupal.php?ecoid=253	des Mésanges	école primaire	 J7R 3W1	450491-5756	203, 14e Avenue
Québec	"
						Sainte-Marthe-sur-le-Lac (Québec)"	http://sites.cssmi.qc.ca/deslucioles/	primaire	Commission scolaire de la Seigneurie-des-Mille-Îles	French	http://gestiondoc.cssmi.qc.ca/gesdoc/php/accueilBV/ecoCentreInfoDrupal.php?ecoid=208	des Lucioles	école primaire	 J0N 1P0	450472-8060	320, rue de la Sève
Québec	"
						Sainte-Marthe-sur-le-Lac (Québec)"	http://sites.cssmi.qc.ca/stemarthe	primaire	Commission scolaire de la Seigneurie-des-Mille-Îles	French	http://gestiondoc.cssmi.qc.ca/gesdoc/php/accueilBV/ecoCentreInfoDrupal.php?ecoid=230	des Grands-Vents	école primaire	 J0N 1P0	450491-8403	3180, rue Laurin
Québec	"
						Boisbriand (Québec)"	http://sites.cssmi.qc.ca/grandschemins/	primaire	Commission scolaire de la Seigneurie-des-Mille-Îles	French	http://gestiondoc.cssmi.qc.ca/gesdoc/php/accueilBV/ecoCentreInfoDrupal.php?ecoid=270	des Grands-Chemins	école primaire	 J7G 3K1	450433-5514	1650, ave Alexandre-Le-Grand
Québec	"
						Sainte-Anne-des-Plaines (Québec)"	http://sites.cssmi.qc.ca/harmonie-jeunesse/	primaire	Commission scolaire de la Seigneurie-des-Mille-Îles	French	http://gestiondoc.cssmi.qc.ca/gesdoc/php/accueilBV/ecoCentreInfoDrupal.php?ecoid=288	de l'Harmonie-Jeunesse	école primaire	 J0N 1H0	450434-8408	540, rue des Colibris
Québec	"
						Terrebonne (Québec)"	http://sites.cssmi.qc.ca/espacecouleurs/	primaire	Commission scolaire de la Seigneurie-des-Mille-Îles	French	http://gestiondoc.cssmi.qc.ca/gesdoc/php/accueilBV/ecoCentreInfoDrupal.php?ecoid=289	de l'Espace-Couleurs	école primaire	 J6Y 0M1	450621-2352	1000, rue Marie-Gérin-Lajoie
Québec	"
						Blainville (Québec)"	http://sites.cssmi.qc.ca/envolee/	primaire	Commission scolaire de la Seigneurie-des-Mille-Îles	French	http://gestiondoc.cssmi.qc.ca/gesdoc/php/accueilBV/ecoCentreInfoDrupal.php?ecoid=224	de l'Envolée	école primaire	 J7C 5J9	450433-5385	60, rue des Grives
Québec	"
						Blainville (Québec)"	http://sites.cssmi.qc.ca/aquarelle/	primaire	Commission scolaire de la Seigneurie-des-Mille-Îles	French	http://gestiondoc.cssmi.qc.ca/gesdoc/php/accueilBV/ecoCentreInfoDrupal.php?ecoid=225	de l'Aquarelle	école primaire	 J7C 5Y1	450433-5470	1430, rue Maurice-Cullen
Québec	"
						Blainville (Québec)"	https://sites.google.com/a/cssmi.qc.ca/delaseigneurie/	primaire	Commission scolaire de la Seigneurie-des-Mille-Îles	French	http://gestiondoc.cssmi.qc.ca/gesdoc/php/accueilBV/ecoCentreInfoDrupal.php?ecoid=222	de la Seigneurie	école primaire	 J7C 3B4	450433-5365	930, rue de la Mairie
Québec	"
						Saint-Placide (Québec)"	http://sites.cssmi.qc.ca/amitie/	primaire	Commission scolaire de la Seigneurie-des-Mille-Îles	French	http://gestiondoc.cssmi.qc.ca/gesdoc/php/accueilBV/ecoCentreInfoDrupal.php?ecoid=201	de l'Amitié	école primaire	 J0V 2B0	450434-8391	60, ave Daniel-Morin
Québec	"
						Blainville (Québec)"	http://sites.cssmi.qc.ca/fontainebleau/	primaire	Commission scolaire de la Seigneurie-des-Mille-Îles	French	http://gestiondoc.cssmi.qc.ca/gesdoc/php/accueilBV/ecoCentreInfoDrupal.php?ecoid=213	de Fontainebleau	école primaire	 J7B 1T4	450433-5528	10, rue de Montauban
Québec	"
						Blainville (Québec)"	http://sites.cssmi.qc.ca/dlr/	primaire	Commission scolaire de la Seigneurie-des-Mille-Îles	French	http://gestiondoc.cssmi.qc.ca/gesdoc/php/accueilBV/ecoCentreInfoDrupal.php?ecoid=218	de la Renaissance	école primaire	 J7B 1J7	450433-5375	370, boul. d'Annecy
Québec	"
						Mirabel (Québec)"	https://sites.google.com/site/delacledeschamps/	primaire	Commission scolaire de la Seigneurie-des-Mille-Îles	French	http://gestiondoc.cssmi.qc.ca/gesdoc/php/accueilBV/ecoCentreInfoDrupal.php?ecoid=206	de la Clé-des-Champs	école primaire	 J7N 2J6	450434-8143	14700, rue Jean-Simon
Québec	"
						Boisbriand (Québec)"	http://sites.cssmi.qc.ca/clairiere/	primaire	Commission scolaire de la Seigneurie-des-Mille-Îles	French	http://gestiondoc.cssmi.qc.ca/gesdoc/php/accueilBV/ecoCentreInfoDrupal.php?ecoid=276	de la Clairière	école primaire	 J7H 1L5	450433-5475	3599, rue Charlotte-Boisjoli
Québec	"
						Saint-Eustache (Québec)"	http://sites.cssmi.qc.ca/curepaquin/	primaire	Commission scolaire de la Seigneurie-des-Mille-Îles	French	http://gestiondoc.cssmi.qc.ca/gesdoc/php/accueilBV/ecoCentreInfoDrupal.php?ecoid=249	Curé-Paquin	école primaire	 J7P 1V9	450473-7006	43, rue Saint-Laurent
Québec	"
						Saint-Eustache (Québec)"	http://sites.cssmi.qc.ca/coeuracoeur/	primaire	Commission scolaire de la Seigneurie-des-Mille-Îles	French	http://gestiondoc.cssmi.qc.ca/gesdoc/php/accueilBV/ecoCentreInfoDrupal.php?ecoid=247	Coeur à coeur, l'Alternative	école primaire	 J7R 0J1	450473-5614	799, montée Lauzon
Québec	"
						Saint-Eustache (Québec)"	http://sites.cssmi.qc.ca/clairmatin/	primaire	Commission scolaire de la Seigneurie-des-Mille-Îles	French	http://gestiondoc.cssmi.qc.ca/gesdoc/php/accueilBV/ecoCentreInfoDrupal.php?ecoid=250	Clair Matin	école primaire	 J7P 4V4	450472-5240	250, rue Therrien
Québec	"
						Blainville (Québec)"	http://sites.cssmi.qc.ca/chantebois/	primaire	Commission scolaire de la Seigneurie-des-Mille-Îles	French	http://gestiondoc.cssmi.qc.ca/gesdoc/php/accueilBV/ecoCentreInfoDrupal.php?ecoid=223	Chante-Bois	école primaire	 J7C 3R5	450433-5360	40 - 84e Avenue Est
Québec	"
						Sainte-Thérèse (Québec)"	http://sites.cssmi.qc.ca/arthurv/	primaire	Commission scolaire de la Seigneurie-des-Mille-Îles	French	http://gestiondoc.cssmi.qc.ca/gesdoc/php/accueilBV/ecoCentreInfoDrupal.php?ecoid=216	Arthur-Vaillancourt	école primaire	 J7E 3A4	450433-5530	25, rue Vézina
Québec	"
						Saint-Eustache (Québec)"	http://sites.cssmi.qc.ca/acdboise/	primaire	Commission scolaire de la Seigneurie-des-Mille-Îles	French	http://gestiondoc.cssmi.qc.ca/gesdoc/php/accueilBV/ecoCentreInfoDrupal.php?ecoid=246	au Coeur-du-Boisé	école primaire	 J7R 6M5	450491-5065	990, rue des Érables
Québec	"
						Rosemère (Québec)"	http://sites.cssmi.qc.ca/alpha/	primaire	Commission scolaire de la Seigneurie-des-Mille-Îles	French	http://gestiondoc.cssmi.qc.ca/gesdoc/php/accueilBV/ecoCentreInfoDrupal.php?ecoid=278	Alpha	école primaire	 J7A 3R9	450621-2400	334, rue Académie
Québec	"
						Saint-Eustache (Québec)"	http://sites.cssmi.qc.ca/arcenciel/	primaire	Commission scolaire de la Seigneurie-des-Mille-Îles	French	http://gestiondoc.cssmi.qc.ca/gesdoc/php/accueilBV/ecoCentreInfoDrupal.php?ecoid=245	Arc-en-ciel	école primaire	 J7R 5Y5	450472-7801	130, boul. L.-Joseph-Rodrigue
