province	city	school_url	school_grades	school_board	school_language	response_url	school_name	school_type	postal_code	phone_number	street_address
Québec	Montréal	http://academie-de-roberval.csdm.ca/	secondaire	Commission scolaire de Montréal	French	http://rechercheetab.csdm.qc.ca/Rechercheetablissement.aspx?recherche=nomecole&nom=&niveau=PR	Académie De Roberval	École secondaire	H2E 1R9	 514 596-5523	1370, rue De Castelnau Est
Québec	Montréal	http://Academie-Dunton.csdm.ca	secondaire	Commission scolaire de Montréal	French	http://rechercheetab.csdm.qc.ca/Rechercheetablissement.aspx?recherche=nomecole&nom=&niveau=PR	Académie Dunton	École secondaire	H1K 4B6	 514 596-2028	5555, rue De Boucherville
Québec	Montréal	http://acces-ouest.csdm.ca	secondaire	Commission scolaire de Montréal	French	http://rechercheetab.csdm.qc.ca/Rechercheetablissement.aspx?recherche=nomecole&nom=&niveau=PR	Annexe Accès	École secondaire	H2E 1Z6	 514 596-4769	8150, rue Rousselot
Québec	Montréal		primaire	Commission scolaire de Montréal	French	http://rechercheetab.csdm.qc.ca/Rechercheetablissement.aspx?recherche=nomecole&nom=&niveau=PR	Annexe Charlevoix	École primaire	H4C 3C7	 514 596-5670	633, rue De Courcelle
Québec	Montréal		primaire	Commission scolaire de Montréal	French	http://rechercheetab.csdm.qc.ca/Rechercheetablissement.aspx?recherche=nomecole&nom=&niveau=PR	Annexe la Passerelle	École primaire	H3K 1Z7	 514 596-4300	2120, rue Favard
Québec	Montréal	http://centre-champagnat.csdm.ca/		Commission scolaire de Montréal	French	http://rechercheetab.csdm.qc.ca/Rechercheetablissement.aspx?recherche=nomecole&nom=&niveau=PR	Centre Champagnat	Centre FGA	H2J 2X9	 514 350-8060	5017, rue Saint-Hubert
Québec	Montréal		primaire	Commission scolaire de Montréal	French	http://rechercheetab.csdm.qc.ca/Rechercheetablissement.aspx?recherche=nomecole&nom=&niveau=PR	Centre de réadaptation Marie-Enfant de l'Hôpital Sainte-Justine	École primaire	H1T 1C9	 514 596-8459	5200, rue Bélanger Est
Québec	Montréal		secondaire	Commission scolaire de Montréal	French	http://rechercheetab.csdm.qc.ca/Rechercheetablissement.aspx?recherche=nomecole&nom=&niveau=PR	Centre de réadaptation Marie-Enfant de l'Hôpital Sainte-Justine	École secondaire	H1T 1C9	 514 596-8459	5200, rue Bélanger Est
Québec	Montréal	http://centre-ressources-educatives.csdm.ca/		Commission scolaire de Montréal	French	http://rechercheetab.csdm.qc.ca/Rechercheetablissement.aspx?recherche=nomecole&nom=&niveau=PR	Centre de ressources éducatives et pédagogiques (CREP)	Centre FGA	H2T 2V5	 514 596-4567	5643, rue Clark
Québec	Montréal		secondaire	Commission scolaire de Montréal	French	http://rechercheetab.csdm.qc.ca/Rechercheetablissement.aspx?recherche=nomecole&nom=&niveau=PR	Centre Dollard-Cormier	École secondaire	H2X 2N7	 514 596-4288	3530, rue Saint-Urbain
Québec	Montréal	http://centre-gabrielle-roy.csdm.ca		Commission scolaire de Montréal	French	http://rechercheetab.csdm.qc.ca/Rechercheetablissement.aspx?recherche=nomecole&nom=&niveau=PR	Centre Gabrielle-Roy	Centre FGA	H1Z 3G1	 514 596-4455	8699, boulevard Saint-Michel
Québec	Montréal	http://centre-gedeon-ouimet.csdm.ca		Commission scolaire de Montréal	French	http://rechercheetab.csdm.qc.ca/Rechercheetablissement.aspx?recherche=nomecole&nom=&niveau=PR	Centre Gédéon-Ouimet	Centre FGA	H2K 3H2	 514 596-4514	1960, rue Poupart
Québec	Montréal	http://centre-tetreaultville.csdm.ca/		Commission scolaire de Montréal	French	http://rechercheetab.csdm.qc.ca/Rechercheetablissement.aspx?recherche=nomecole&nom=&niveau=PR	Centre Hochelaga-Maisonneuve	Centre FGA	H1V 3C6	 514 596-7441	2500, rue Théodore
Québec	Montréal	http://centre-lartigue.csdm.ca		Commission scolaire de Montréal	French	http://rechercheetab.csdm.qc.ca/Rechercheetablissement.aspx?recherche=nomecole&nom=&niveau=PR	Centre Lartigue	Centre FGA	H2K 4J5	 514 596-4433	2217, avenue Papineau
Québec	Montréal	http://centre-marie-mediatrice.csdm.ca/		Commission scolaire de Montréal	French	http://rechercheetab.csdm.qc.ca/Rechercheetablissement.aspx?recherche=nomecole&nom=&niveau=PR	Centre Marie-Médiatrice	Centre FGA	H2G 2J5	 514 596-5150	6200, rue des Écores
Québec	Montréal	http://centre-pauline-julien.csdm.ca/		Commission scolaire de Montréal	French	http://rechercheetab.csdm.qc.ca/Rechercheetablissement.aspx?recherche=nomecole&nom=&niveau=PR	Centre Pauline-Julien	Centre FGA	H3S 2A8	 514 736-8105	6830, chemin de la Côte-des-Neiges
Québec	Montréal	http://centre-ste-croix.csdm.ca		Commission scolaire de Montréal	French	http://rechercheetab.csdm.qc.ca/Rechercheetablissement.aspx?recherche=nomecole&nom=&niveau=PR	Centre Sainte-Croix	Centre FGA	H2P 1S6	 514 596-4381	85, rue Jarry Ouest
Québec	Montréal	http://centre-st-louis.csdm.ca		Commission scolaire de Montréal	French	http://rechercheetab.csdm.qc.ca/Rechercheetablissement.aspx?recherche=nomecole&nom=&niveau=PR	Centre Saint-Louis	Centre FGA	H2W 2L7	 514 596-5800	4285, rue Drolet, 3e étage
Québec	Montréal	http://centre-st-paul.csdm.ca		Commission scolaire de Montréal	French	http://rechercheetab.csdm.qc.ca/Rechercheetablissement.aspx?recherche=nomecole&nom=&niveau=PR	Centre Saint-Paul	Centre FGA	H4C 1S8	 514 596-4544	4976, rue Notre-Dame Ouest
Québec	Montréal	http://centre-tetreaultville.csdm.ca/		Commission scolaire de Montréal	French	http://rechercheetab.csdm.qc.ca/Rechercheetablissement.aspx?recherche=nomecole&nom=&niveau=PR	Centre Tétreaultville	Centre FGA	H1L 1H4	 514 596-5222	8300, rue De Teck
Québec	Montréal	http://centre-william-hingston.csdm.ca		Commission scolaire de Montréal	French	http://rechercheetab.csdm.qc.ca/Rechercheetablissement.aspx?recherche=nomecole&nom=&niveau=PR	Centre William-Hingston	Centre FGA	H3N 1K2	 514 596-4700	419, rue Saint-Roch 2 ième étage
Québec	Montréal	http://centre-yves-theriault.csdm.ca/		Commission scolaire de Montréal	French	http://rechercheetab.csdm.qc.ca/Rechercheetablissement.aspx?recherche=nomecole&nom=&niveau=PR	Centre Yves-Thériault	Centre FGA	H2A 1H1	 514 596-7110	3925, rue Villeray
Québec	Montréal		secondaire	Commission scolaire de Montréal	French	http://rechercheetab.csdm.qc.ca/Rechercheetablissement.aspx?recherche=nomecole&nom=&niveau=PR	CHSLD Marie-Rollet	École secondaire	H1T 1N6	 514 596-8459	5003, rue Saint-Zotique Est
Québec	Montréal			Commission scolaire de Montréal	French	http://rechercheetab.csdm.qc.ca/Rechercheetablissement.aspx?recherche=nomecole&nom=&niveau=PR	CPE Carcajou	Garderie	H1M 2M4	 514 257-6878	5100, rue Bossuet
Québec	Montréal	http://ahuntsic.csdm.ca/	primaire	Commission scolaire de Montréal	French	http://rechercheetab.csdm.qc.ca/Rechercheetablissement.aspx?recherche=nomecole&nom=&niveau=PR	École Ahuntsic	École primaire	H3L 2P5	 514 596-5167	10615, boulevard Saint-Laurent
Québec	Montréal	http://ahuntsic.csdm.ca	primaire	Commission scolaire de Montréal	French	http://rechercheetab.csdm.qc.ca/Rechercheetablissement.aspx?recherche=nomecole&nom=&niveau=PR	École Ahuntsic, annexe	École primaire	H3L 2K1	 514 596-5147	9900, avenue D'Auteuil
Québec	Montréal	http://alice-parizeau.csdm.ca/	primaire	Commission scolaire de Montréal	French	http://rechercheetab.csdm.qc.ca/Rechercheetablissement.aspx?recherche=nomecole&nom=&niveau=PR	École Alice-Parizeau	École primaire	H4J 1T2	 514 596-7330	11715, rue Filion
Québec	Montréal	http://alphonse-desjardins.csdm.ca	primaire	Commission scolaire de Montréal	French	http://rechercheetab.csdm.qc.ca/Rechercheetablissement.aspx?recherche=nomecole&nom=&niveau=PR	École Alphonse-Desjardins	École primaire	H1T 2L7	 514 596-4868	6600, rue Lemay
Québec	Montréal	http://arc-en-ciel.csdm.ca/	primaire	Commission scolaire de Montréal	French	http://rechercheetab.csdm.qc.ca/Rechercheetablissement.aspx?recherche=nomecole&nom=&niveau=PR	École Arc-en-Ciel	École primaire	H2W 2J6	 514 350-8860	4265, avenue Laval
Québec	Montréal	http://armand-lavergne.csdm.ca	primaire	Commission scolaire de Montréal	French	http://rechercheetab.csdm.qc.ca/Rechercheetablissement.aspx?recherche=nomecole&nom=&niveau=PR	École Armand-Lavergne	École primaire	H1L 4C5	 514 596-5115	2600, avenue Fletcher
Québec	Montréal	http://atelier.csdm.ca	primaire	Commission scolaire de Montréal	French	http://rechercheetab.csdm.qc.ca/Rechercheetablissement.aspx?recherche=nomecole&nom=&niveau=PR	École Atelier	École primaire	H2B 2Z7	 514 596-5570	10055, rue Jean-Jacques-Gagnier
Québec	Montréal	http://au-pied-de-la-montagne.csdm.ca/	primaire	Commission scolaire de Montréal	French	http://rechercheetab.csdm.qc.ca/Rechercheetablissement.aspx?recherche=nomecole&nom=&niveau=PR	École au Pied-de-la-Montagne, pavillon Jean-Jacques-Olier	École primaire	H2W 1P5	 514 350-8840	311, avenue des Pins Est
Québec	Montréal	http://au-pied-de-la-montagne.csdm.ca/	primaire	Commission scolaire de Montréal	French	http://rechercheetab.csdm.qc.ca/Rechercheetablissement.aspx?recherche=nomecole&nom=&niveau=PR	École au Pied-de-la-Montagne, pavillon Saint-Jean-Baptiste	École primaire	H2W 2J6	 514 350-8860	4265, avenue Laval
Québec	Montréal	http://barclay.csdm.ca	primaire	Commission scolaire de Montréal	French	http://rechercheetab.csdm.qc.ca/Rechercheetablissement.aspx?recherche=nomecole&nom=&niveau=PR	École Barclay	École primaire	H3N 2P2	 514 596-4533	7941, avenue Wiseman
Québec	Montréal	http://baril.csdm.ca/	primaire	Commission scolaire de Montréal	French	http://rechercheetab.csdm.qc.ca/Rechercheetablissement.aspx?recherche=nomecole&nom=&niveau=PR	École Baril	École primaire	H1M 2V4	 514 596-5070	5850, avenue de Carignan
Québec	Montréal	http://barthelemy-vimont.csdm.ca	primaire	Commission scolaire de Montréal	French	http://rechercheetab.csdm.qc.ca/Rechercheetablissement.aspx?recherche=nomecole&nom=&niveau=PR	École Barthélemy-Vimont	École primaire	H3N 1K2	 514 596-4572	415, rue Saint-Roch
Québec	Montréal	http://barthelemy-vimont.csdm.ca	primaire	Commission scolaire de Montréal	French	http://rechercheetab.csdm.qc.ca/Rechercheetablissement.aspx?recherche=nomecole&nom=&niveau=PR	École Barthélemy-Vimont, annexe	École primaire	H3N 1K8	 514 596-5180	630, rue Saint-Roch
Québec	Montréal	http://bedford.csdm.ca	primaire	Commission scolaire de Montréal	French	http://rechercheetab.csdm.qc.ca/Rechercheetablissement.aspx?recherche=nomecole&nom=&niveau=PR	École Bedford	École primaire	H3S 1H7	 514 736-3505	3131, rue Goyer
Québec	Montréal	http://bienville.csdm.ca	primaire	Commission scolaire de Montréal	French	http://rechercheetab.csdm.qc.ca/Rechercheetablissement.aspx?recherche=nomecole&nom=&niveau=PR	École Bienville	École primaire	H1Z 4E2	 514 596-5181	9275, 25e Avenue
Québec	Montréal	http://boucher-delabruere.csdm.ca/	primaire	Commission scolaire de Montréal	French	http://rechercheetab.csdm.qc.ca/Rechercheetablissement.aspx?recherche=nomecole&nom=&niveau=PR	École Boucher-De La Bruère	École primaire	H1L 3H2	 514 596-4889	7760, rue La Fontaine
Québec	Montréal	http://camille-laurin.csdm.ca/	primaire	Commission scolaire de Montréal	French	http://rechercheetab.csdm.qc.ca/Rechercheetablissement.aspx?recherche=nomecole&nom=&niveau=PR	École Camille-Laurin	École primaire	H3N 2E9	 514 596-5175	8000, avenue de l'Épée
Québec	Montréal	http://camille-laurin.csdm.ca/	primaire	Commission scolaire de Montréal	French	http://rechercheetab.csdm.qc.ca/Rechercheetablissement.aspx?recherche=nomecole&nom=&niveau=PR	École Camille-Laurin, annexe	École primaire	H3N 2L9	 514 596-3410	7700, avenue d'Outremont
Québec	Montréal	http://champlain.csdm.ca/	primaire	Commission scolaire de Montréal	French	http://rechercheetab.csdm.qc.ca/Rechercheetablissement.aspx?recherche=nomecole&nom=&niveau=PR	École Champlain	École primaire	H2K 4K7	 514 596-5910	2260, rue Logan
Québec	Montréal	http://charles-bruneau.csdm.ca/	primaire	Commission scolaire de Montréal	French	http://rechercheetab.csdm.qc.ca/Rechercheetablissement.aspx?recherche=nomecole&nom=&niveau=PR	École Charles-Bruneau	École primaire	H1Y 1N4	 514 596-4266	2515, rue Holt
Québec	Montréal	http://charles-lemoyne.csdm.ca/	primaire	Commission scolaire de Montréal	French	http://rechercheetab.csdm.qc.ca/Rechercheetablissement.aspx?recherche=nomecole&nom=&niveau=PR	École Charles-Lemoyne	École primaire	H3K 1N9	 514 596-5684	2001, rue Mullins
Québec	Montréal	http://Chomedey-de-Maisonneuve.csdm.ca/	secondaire	Commission scolaire de Montréal	French	http://rechercheetab.csdm.qc.ca/Rechercheetablissement.aspx?recherche=nomecole&nom=&niveau=PR	École Chomedey-De Maisonneuve	École secondaire	H1V 2R2	 514 596-4844	1860, avenue Morgan
Québec	Montréal	http://christ-roi.csdm.ca	primaire	Commission scolaire de Montréal	French	http://rechercheetab.csdm.qc.ca/Rechercheetablissement.aspx?recherche=nomecole&nom=&niveau=PR	École Christ-Roi	École primaire	H2M 1A1	 514 596-5194	525, rue de Louvain Est
Québec	Montréal	http://coeur-immacule-de-marie.csdm.ca	primaire	Commission scolaire de Montréal	French	http://rechercheetab.csdm.qc.ca/Rechercheetablissement.aspx?recherche=nomecole&nom=&niveau=PR	École Coeur-Immaculé-de-Marie	École primaire	H4E 2B7	 514 732-1425	1845, boulevard Desmarchais
Québec	Montréal		primaire	Commission scolaire de Montréal	French	http://rechercheetab.csdm.qc.ca/Rechercheetablissement.aspx?recherche=nomecole&nom=&niveau=PR	École Coeur-Immaculé-de-Marie, annexe	École primaire	H4E 1X3	 514 732-1432	1825, rue Jolicoeur
Québec	Montréal	http://de-la-lancee.csdm.ca	secondaire	Commission scolaire de Montréal	French	http://rechercheetab.csdm.qc.ca/Rechercheetablissement.aspx?recherche=nomecole&nom=&niveau=PR	École de la Lancée	École secondaire	H1L 1A7	 514 596-4110	8147, rue Sherbrooke Est
Québec	Montréal	http://petite-bourgogne.csdm.ca	primaire	Commission scolaire de Montréal	French	http://rechercheetab.csdm.qc.ca/Rechercheetablissement.aspx?recherche=nomecole&nom=&niveau=PR	École De la Petite-Bourgogne	École primaire	H3J 1Y1	 514 596-5730	555, rue des Seigneurs
Québec	Montréal	http://de-letincelle.csdm.ca/	primaire	Commission scolaire de Montréal	French	http://rechercheetab.csdm.qc.ca/Rechercheetablissement.aspx?recherche=nomecole&nom=&niveau=PR	École de l'Étincelle	École primaire	H2T 3A3	 514 596-4800	6080, avenue de l'Esplanade
Québec	Montréal	http://des-cinq-continents.csdm.ca	primaire	Commission scolaire de Montréal	French	http://rechercheetab.csdm.qc.ca/Rechercheetablissement.aspx?recherche=nomecole&nom=&niveau=PR	École des Cinq-Continents, pavillon Dupuis	École primaire	H3X 1N8	 514 596-5287	5530, avenue Dupuis
Québec	Montréal	http://des-cinq-continents.csdm.ca	primaire	Commission scolaire de Montréal	French	http://rechercheetab.csdm.qc.ca/Rechercheetablissement.aspx?recherche=nomecole&nom=&niveau=PR	École des Cinq-Continents, pavillon Saint-Antonin	École primaire	H3X 2W6	 514 596-5688	5325, avenue MacDonald
Québec	Montréal	http://www.emica.ca		Commission scolaire de Montréal	French	http://rechercheetab.csdm.qc.ca/Rechercheetablissement.aspx?recherche=nomecole&nom=&niveau=PR	École des métiers de l’informatique, du commerce et de l’administration de Montréal (ÉMICA)	Centre FP	H1X 1J6	 514 596-4150	3955, rue de Bellechasse
Québec	Montréal	http://www.emica.ca		Commission scolaire de Montréal	French	http://rechercheetab.csdm.qc.ca/Rechercheetablissement.aspx?recherche=nomecole&nom=&niveau=PR	École des métiers de l’informatique, du commerce et de l’administration de Montréal (ÉMICA), ann. 1	Centre FP	H1X 2Y6	 514 596-7712	6255, 13e Avenue
Québec	Montréal			Commission scolaire de Montréal	French	http://rechercheetab.csdm.qc.ca/Rechercheetablissement.aspx?recherche=nomecole&nom=&niveau=PR	École des métiers de l’informatique, du commerce et de l’administration de Montréal (ÉMICA), ann. 2	Centre FP	H1M 2M4	 514 596-4240	5200, rue Bossuet
Québec	Montréal	http://ecole-metiers-construction.csdm.ca/		Commission scolaire de Montréal	French	http://rechercheetab.csdm.qc.ca/Rechercheetablissement.aspx?recherche=nomecole&nom=&niveau=PR	École des métiers de la construction de Montréal	Centre FP	H2H 2H4	 514 596-4590	5205, rue Parthenais
Québec	Montréal	http://ecole-metiers-construction.csdm.ca/		Commission scolaire de Montréal	French	http://rechercheetab.csdm.qc.ca/Rechercheetablissement.aspx?recherche=nomecole&nom=&niveau=PR	École des métiers de la construction de Montréal, annexe 1	Centre FP	H1W 1H1	 514 596-4590	3320, rue Hochelaga
Québec	Montréal	http://ecole-metiers-restauration-tourisme.csdm.ca		Commission scolaire de Montréal	French	http://rechercheetab.csdm.qc.ca/Rechercheetablissement.aspx?recherche=nomecole&nom=&niveau=PR	École des métiers de la restauration et du tourisme de Montréal	Centre FP	H3H 1J8	 514 350-8049	1822, boul. De Maisonneuve Ouest
Québec	Montréal	http://ecole-metiers-aerospatiale.csdm.ca/		Commission scolaire de Montréal	French	http://rechercheetab.csdm.qc.ca/Rechercheetablissement.aspx?recherche=nomecole&nom=&niveau=PR	École des métiers de l'aérospatiale de Montréal	Centre FP	H1N 3V7	 514 596-2376	5300, rue Chauveau
Québec	Montréal	http://ecole-metiers-motorise.csdm.ca		Commission scolaire de Montréal	French	http://rechercheetab.csdm.qc.ca/Rechercheetablissement.aspx?recherche=nomecole&nom=&niveau=PR	École des métiers de l'équipement motorisé de Montréal	Centre FP	H2J 4B7	 514 596-5855	5455, rue Saint-Denis
Québec	Montréal	http://ecole-metiers-horticulture.csdm.ca/		Commission scolaire de Montréal	French	http://rechercheetab.csdm.qc.ca/Rechercheetablissement.aspx?recherche=nomecole&nom=&niveau=PR	École des métiers de l'horticulture de Montréal	Centre FP	H2K 3S9	 514 596-4600	2000, rue Parthenais
Québec	Montréal	http://www.faubourgs.ca		Commission scolaire de Montréal	French	http://rechercheetab.csdm.qc.ca/Rechercheetablissement.aspx?recherche=nomecole&nom=&niveau=PR	École des métiers des Faubourgs-de-Montréal	Centre FP	H2K 3S9	 514 596-4600	2000, rue Parthenais
Québec	Montréal			Commission scolaire de Montréal	French	http://rechercheetab.csdm.qc.ca/Rechercheetablissement.aspx?recherche=nomecole&nom=&niveau=PR	École des métiers des Faubourgs-de-Montréal, annexe 2 Rosalie-Jetté	Centre FP	H1M 2M4	 514 596-4150	5200, rue Bossuet
Québec	Montréal			Commission scolaire de Montréal	French	http://rechercheetab.csdm.qc.ca/Rechercheetablissement.aspx?recherche=nomecole&nom=&niveau=PR	École des métiers des Faubourgs-de-Montréal, annexe 3 Côte-des-Neiges	Centre FP	H3S 2A8	 514 596-3340	6750, chemin de la Côte-des-Neiges
Québec	Montréal	http://ecole-metiers-meuble.csdm.ca/		Commission scolaire de Montréal	French	http://rechercheetab.csdm.qc.ca/Rechercheetablissement.aspx?recherche=nomecole&nom=&niveau=PR	École des métiers du meuble de Montréal	Centre FP	H2G 2Y2	 514 596-7919	6028, rue Marquette
Québec	Montréal	http://ecole-metiers-sud-ouest.csdm.ca		Commission scolaire de Montréal	French	http://rechercheetab.csdm.qc.ca/Rechercheetablissement.aspx?recherche=nomecole&nom=&niveau=PR	École des métiers du Sud-Ouest-de-Montréal	Centre FP	H4C 3L7	 514 596-5960	717, rue Saint-Ferdinand
Québec	Montréal	http://des-nations.csdm.ca/	primaire	Commission scolaire de Montréal	French	http://rechercheetab.csdm.qc.ca/Rechercheetablissement.aspx?recherche=nomecole&nom=&niveau=PR	École des Nations	École primaire	H3W 1C1	 514 736-1537	4860, rue Vézina
Québec	Montréal	http://dollard-des-ormeaux.csdm.ca	primaire	Commission scolaire de Montréal	French	http://rechercheetab.csdm.qc.ca/Rechercheetablissement.aspx?recherche=nomecole&nom=&niveau=PR	École Dollard-des-Ormeaux	École primaire	H4E 3B4	 514 732-1440	6639, rue D'Aragon
Québec	Montréal	http://dominique-savio.csdm.ca/	primaire	Commission scolaire de Montréal	French	http://rechercheetab.csdm.qc.ca/Rechercheetablissement.aspx?recherche=nomecole&nom=&niveau=PR	École Dominique-Savio	École primaire	H2M 1Y7	 514 858-3999	9335, rue Saint-Hubert
Québec	Montréal	http://dominique-savio.csdm.ca/	secondaire	Commission scolaire de Montréal	French	http://rechercheetab.csdm.qc.ca/Rechercheetablissement.aspx?recherche=nomecole&nom=&niveau=PR	École Dominique-Savio (secondaire)	École secondaire	H2M 1Y7	 514 858-3999	9335, rue Saint-Hubert
Québec	Montréal	http://petit-chapiteau.csdm.ca/	primaire	Commission scolaire de Montréal	French	http://rechercheetab.csdm.qc.ca/Rechercheetablissement.aspx?recherche=nomecole&nom=&niveau=PR	École du Petit-Chapiteau	École primaire	H3W 1G6	 514 736-8192	4890, avenue Carlton
Québec	Montréal	http://Edouard-Montpetit.csdm.ca/	secondaire	Commission scolaire de Montréal	French	http://rechercheetab.csdm.qc.ca/Rechercheetablissement.aspx?recherche=nomecole&nom=&niveau=PR	École Édouard-Montpetit	École secondaire	H1N 1S4	 514 596-4140	6200, avenue Pierre-De Coubertin
Québec	Montréal	http://elan.csdm.ca	primaire	Commission scolaire de Montréal	French	http://rechercheetab.csdm.qc.ca/Rechercheetablissement.aspx?recherche=nomecole&nom=&niveau=PR	École Élan	École primaire	H2K 3X6	 514 596-7299	3450, avenue De Lorimier
Québec	Montréal		primaire	Commission scolaire de Montréal	French	http://rechercheetab.csdm.qc.ca/Rechercheetablissement.aspx?recherche=nomecole&nom=&niveau=PR	École en milieu hospitalier (primaire)	École primaire	H3T 1C5	 514 596-8459	3175, chemin Côte-Sainte-Catherine, local A-827
Québec	Montréal		secondaire	Commission scolaire de Montréal	French	http://rechercheetab.csdm.qc.ca/Rechercheetablissement.aspx?recherche=nomecole&nom=&niveau=PR	École en milieu hospitalier (secondaire)	École secondaire	H3T 1C5	 514 596-8459	3175, chemin Côte-Sainte-Catherine, local A-827
Québec	Montréal	http://espace-jeunesse.csdm.ca/	secondaire	Commission scolaire de Montréal	French	http://rechercheetab.csdm.qc.ca/Rechercheetablissement.aspx?recherche=nomecole&nom=&niveau=PR	École Espace-Jeunesse	École secondaire	H2L 3Z9	 514 596-4288	3655, rue Saint-Hubert
Québec	Montréal	http://etoile-filante.csdm.ca	primaire	Commission scolaire de Montréal	French	http://rechercheetab.csdm.qc.ca/Rechercheetablissement.aspx?recherche=nomecole&nom=&niveau=PR	École Étoile filante	École primaire	H4A 1R5	 514 596-5682	5619, chemin de la Côte-Saint-Antoine
Québec	Montréal	http://Eulalie-Durocher.csdm.ca/	secondaire	Commission scolaire de Montréal	French	http://rechercheetab.csdm.qc.ca/Rechercheetablissement.aspx?recherche=nomecole&nom=&niveau=PR	École Eulalie-Durocher	École secondaire	H1V 2N9	 514 596-4949	2455, avenue Letourneux
Québec	Montréal	http://eureka.csdm.ca	secondaire	Commission scolaire de Montréal	French	http://rechercheetab.csdm.qc.ca/Rechercheetablissement.aspx?recherche=nomecole&nom=&niveau=PR	École Eurêka	École secondaire	H2P 2L8	 514 596-5273	8200, boulevard Saint-Laurent
Québec	Montréal	http://Evangeline.csdm.ca/	secondaire	Commission scolaire de Montréal	French	http://rechercheetab.csdm.qc.ca/Rechercheetablissement.aspx?recherche=nomecole&nom=&niveau=PR	École Évangéline	École secondaire	H3M 2T4	 514 596-5280	11845, boulevard de l'Acadie
Québec	Montréal	http://face.csdm.ca/	secondaire	Commission scolaire de Montréal	French	http://rechercheetab.csdm.qc.ca/Rechercheetablissement.aspx?recherche=nomecole&nom=&niveau=PR	École FACE	École secondaire	H3A 2A8	 514 350-8899	3449, rue University
Québec	Montréal	http://face.csdm.ca/	primaire	Commission scolaire de Montréal	French	http://rechercheetab.csdm.qc.ca/Rechercheetablissement.aspx?recherche=nomecole&nom=&niveau=PR	École FACE	École primaire	H3A 2A8	 514 350-8899	3449, rue University
Québec	Montréal	http://felix-leclerc.csdm.ca	primaire	Commission scolaire de Montréal	French	http://rechercheetab.csdm.qc.ca/Rechercheetablissement.aspx?recherche=nomecole&nom=&niveau=PR	École Félix-Leclerc	École primaire	H3S 2H9	 514 736-8130	6055, avenue Darlington
Québec	Montréal	http://fernand-seguin.csdm.ca/	primaire	Commission scolaire de Montréal	French	http://rechercheetab.csdm.qc.ca/Rechercheetablissement.aspx?recherche=nomecole&nom=&niveau=PR	École Fernand-Seguin, pavillon Hubert-Reeves	École primaire	H2C 2G4	 514 596-5200	10050, avenue Durham
Québec	Montréal	http://fernand-seguin.csdm.ca/	primaire	Commission scolaire de Montréal	French	http://rechercheetab.csdm.qc.ca/Rechercheetablissement.aspx?recherche=nomecole&nom=&niveau=PR	École Fernand-Seguin, pavillon Julie-Payette	École primaire	H2C 2G3	 514 596-5200	10085, avenue Durham
Québec	Montréal	http://francois-de-laval.csdm.ca	primaire	Commission scolaire de Montréal	French	http://rechercheetab.csdm.qc.ca/Rechercheetablissement.aspx?recherche=nomecole&nom=&niveau=PR	École François-de-Laval	École primaire	H3M 2X9	 514 596-5540	12050, avenue Bois-de-Boulogne
Québec	Montréal	http://gadbois.csdm.ca	primaire	Commission scolaire de Montréal	French	http://rechercheetab.csdm.qc.ca/Rechercheetablissement.aspx?recherche=nomecole&nom=&niveau=PR	École Gadbois	École primaire	H2P 1Y7	 514 596-4246	8305, rue Saint-André
Québec	Montréal	http://garneau.csdm.ca/	primaire	Commission scolaire de Montréal	French	http://rechercheetab.csdm.qc.ca/Rechercheetablissement.aspx?recherche=nomecole&nom=&niveau=PR	École Garneau	École primaire	H2K 4J1	 514 596-5808	1808, avenue Papineau
Québec	Montréal	http://georges-vanier.csdm.ca/	secondaire	Commission scolaire de Montréal	French	http://rechercheetab.csdm.qc.ca/Rechercheetablissement.aspx?recherche=nomecole&nom=&niveau=PR	École Georges-Vanier	École secondaire	H2P 1W9	 514 596-4160	1205, rue Jarry Est
Québec	Montréal	http://gilles-vigneault.csdm.ca/	primaire	Commission scolaire de Montréal	French	http://rechercheetab.csdm.qc.ca/Rechercheetablissement.aspx?recherche=nomecole&nom=&niveau=PR	École Gilles-Vigneault	École primaire	H3M 1Z7	 514 596-5298	11400, avenue De Poutrincourt
Québec	Montréal	http://guillaume-couture.csdm.ca	primaire	Commission scolaire de Montréal	French	http://rechercheetab.csdm.qc.ca/Rechercheetablissement.aspx?recherche=nomecole&nom=&niveau=PR	École Guillaume-Couture	École primaire	H1M 2R8	 514 596-4871	6300, avenue Albani
Québec	Montréal	http://helene-boulle.csdm.ca/	primaire	Commission scolaire de Montréal	French	http://rechercheetab.csdm.qc.ca/Rechercheetablissement.aspx?recherche=nomecole&nom=&niveau=PR	École Hélène-Boullé	École primaire	H2R 2A7	 514 596-5275	8050, avenue De Gaspé
Québec	Montréal	http://henri-julien.csdm.ca	secondaire	Commission scolaire de Montréal	French	http://rechercheetab.csdm.qc.ca/Rechercheetablissement.aspx?recherche=nomecole&nom=&niveau=PR	École Henri-Julien	École secondaire	H2E 1Z6	 514 596-4400	8150, rue Rousselot
Québec	Montréal	http://hochelaga.csdm.ca	primaire	Commission scolaire de Montréal	French	http://rechercheetab.csdm.qc.ca/Rechercheetablissement.aspx?recherche=nomecole&nom=&niveau=PR	École Hochelaga	École primaire	H1N 1S4	 514 596-5060	6200, avenue Pierre-De Coubertin
Québec	Montréal	http://honore-mercier.csdm.ca/	secondaire	Commission scolaire de Montréal	French	http://rechercheetab.csdm.qc.ca/Rechercheetablissement.aspx?recherche=nomecole&nom=&niveau=PR	École Honoré-Mercier	École secondaire	H4E 2B9	 514 732-1400	1935, boulevard Desmarchais
Québec	Montréal	http://ecole-internationale.csdm.ca/	secondaire	Commission scolaire de Montréal	French	http://rechercheetab.csdm.qc.ca/Rechercheetablissement.aspx?recherche=nomecole&nom=&niveau=PR	École internationale de Montréal	École secondaire	H3Y 2H7	 514 596-7240	11, chemin de la Côte-Saint-Antoine
Québec	Montréal	http://ecole-internationale-primaire.csdm.ca/	primaire	Commission scolaire de Montréal	French	http://rechercheetab.csdm.qc.ca/Rechercheetablissement.aspx?recherche=nomecole&nom=&niveau=PR	École internationale de Montréal (primaire)	École primaire	H3X 2K9	 514 596-5721	5010, avenue Coolbrook
Québec	Montréal	http://iona.csdm.ca/	primaire	Commission scolaire de Montréal	French	http://rechercheetab.csdm.qc.ca/Rechercheetablissement.aspx?recherche=nomecole&nom=&niveau=PR	École Iona	École primaire	H3W 2A2	 514 736-3535	5000, rue Iona
Québec	Montréal	http://irenee-lussier.csdm.ca	secondaire	Commission scolaire de Montréal	French	http://rechercheetab.csdm.qc.ca/Rechercheetablissement.aspx?recherche=nomecole&nom=&niveau=PR	École Irénée-Lussier	École secondaire	H1V 1B6	 514 596-4250	4100, rue Hochelaga
Québec	Montréal		secondaire	Commission scolaire de Montréal	French	http://rechercheetab.csdm.qc.ca/Rechercheetablissement.aspx?recherche=nomecole&nom=&niveau=PR	École Irénée-Lussier, annexe	École secondaire	H1L 4V2	 514 596-4250	2205, rue Mousseau
Québec	Montréal	http://jean-baptiste-meilleur.csdm.ca	primaire	Commission scolaire de Montréal	French	http://rechercheetab.csdm.qc.ca/Rechercheetablissement.aspx?recherche=nomecole&nom=&niveau=PR	École Jean-Baptiste-Meilleur	École primaire	H2K 3P1	 514 596-5830	2237, rue Fullum
Québec	Montréal	http://jeanne-leber.csdm.ca	primaire	Commission scolaire de Montréal	French	http://rechercheetab.csdm.qc.ca/Rechercheetablissement.aspx?recherche=nomecole&nom=&niveau=PR	École Jeanne-LeBer	École primaire	H3K 1Z7	 514 596-5788	2120, rue Favard
Québec	Montréal	http://jeanne-mance.csdm.ca/	secondaire	Commission scolaire de Montréal	French	http://rechercheetab.csdm.qc.ca/Rechercheetablissement.aspx?recherche=nomecole&nom=&niveau=PR	École Jeanne-Mance	École secondaire	H2H 1Z5	 514 596-5815	4240, rue de Bordeaux
Québec	Montréal	http://joseph-charbonneau.csdm.ca/	secondaire	Commission scolaire de Montréal	French	http://rechercheetab.csdm.qc.ca/Rechercheetablissement.aspx?recherche=nomecole&nom=&niveau=PR	École Joseph-Charbonneau	École secondaire	H2E 1Z6	 514 596-4350	8200, rue Rousselot
Québec	Montréal	http://joseph-francois-perrault.csdm.ca	secondaire	Commission scolaire de Montréal	French	http://rechercheetab.csdm.qc.ca/Rechercheetablissement.aspx?recherche=nomecole&nom=&niveau=PR	École Joseph-François-Perrault	École secondaire	H2A 1L9	 514 596-4620	7450, rue François-Perrault
Québec	Montréal	http://judith-jasmin.csdm.ca/	primaire	Commission scolaire de Montréal	French	http://rechercheetab.csdm.qc.ca/Rechercheetablissement.aspx?recherche=nomecole&nom=&niveau=PR	École Judith-Jasmin	École primaire	H4B 2G3	 514 596-4404	4575, avenue Mariette
Québec	Montréal	http://ladauversiere.csdm.ca/	secondaire	Commission scolaire de Montréal	French	http://rechercheetab.csdm.qc.ca/Rechercheetablissement.aspx?recherche=nomecole&nom=&niveau=PR	École La Dauversière	École secondaire	H3M 2T2	 514 596-5285	11600, boulevard de l'Acadie
Québec	Montréal	http://la-mennais.csdm.ca/	primaire	Commission scolaire de Montréal	French	http://rechercheetab.csdm.qc.ca/Rechercheetablissement.aspx?recherche=nomecole&nom=&niveau=PR	École La Mennais	École primaire	H2S 2S1	 514 596-5288	6521, rue Saint-Denis
Québec	Montréal	http://la-petite-patrie.csdm.ca/	primaire	Commission scolaire de Montréal	French	http://rechercheetab.csdm.qc.ca/Rechercheetablissement.aspx?recherche=nomecole&nom=&niveau=PR	École La Petite-Patrie, pavillon Notre-Dame-de-la-Défense	École primaire	H2S 2V3	 514 596-5480	6841, avenue Henri-Julien
Québec	Montréal	http://la-petite-patrie.csdm.ca/	primaire	Commission scolaire de Montréal	French	http://rechercheetab.csdm.qc.ca/Rechercheetablissement.aspx?recherche=nomecole&nom=&niveau=PR	École La Petite-Patrie, pavillon Saint-Jean-de-la-Croix	École primaire	H2S 1K5	 514 596-5485	35, rue Saint-Zotique Est
Québec	Montréal	http://la-verendrye.csdm.ca	primaire	Commission scolaire de Montréal	French	http://rechercheetab.csdm.qc.ca/Rechercheetablissement.aspx?recherche=nomecole&nom=&niveau=PR	École La Vérendrye	École primaire	H1L 4W1	 514 596-4845	3055, rue Mousseau
Québec	Montréal	http://la-visitation.csdm.ca	primaire	Commission scolaire de Montréal	French	http://rechercheetab.csdm.qc.ca/Rechercheetablissement.aspx?recherche=nomecole&nom=&niveau=PR	École La Visitation	École primaire	H2B 2B8	 514 596-5295	10591, rue Séguin
Québec	Montréal	http://la-voie.csdm.ca/	secondaire	Commission scolaire de Montréal	French	http://rechercheetab.csdm.qc.ca/Rechercheetablissement.aspx?recherche=nomecole&nom=&niveau=PR	École La Voie	École secondaire	H3W 2K8	 514 736-3500	6755, rue Lavoie
Québec	Montréal	http://lambert-closse.csdm.ca	primaire	Commission scolaire de Montréal	French	http://rechercheetab.csdm.qc.ca/Rechercheetablissement.aspx?recherche=nomecole&nom=&niveau=PR	École Lambert-Closse	École primaire	H2T 2X5	 514 596-5890	5840, rue Saint-Urbain
Québec	Montréal	http://lanaudiere.csdm.ca	primaire	Commission scolaire de Montréal	French	http://rechercheetab.csdm.qc.ca/Rechercheetablissement.aspx?recherche=nomecole&nom=&niveau=PR	École Lanaudière	École primaire	H2J 3N9	 514 596-5835	4300, rue De Lanaudière
Québec	Montréal	http://laurier.csdm.ca	primaire	Commission scolaire de Montréal	French	http://rechercheetab.csdm.qc.ca/Rechercheetablissement.aspx?recherche=nomecole&nom=&niveau=PR	École Laurier	École primaire	H2J 1E9	 514 596-5770	505, avenue Laurier Est
Québec	Montréal	http://le-plateau.csdm.ca	primaire	Commission scolaire de Montréal	French	http://rechercheetab.csdm.qc.ca/Rechercheetablissement.aspx?recherche=nomecole&nom=&niveau=PR	École Le Plateau	École primaire	H2L 3A8	 514 596-5950	3700, avenue Calixa-Lavallée
Québec	Montréal	http://le-vitrail.csdm.ca/	secondaire	Commission scolaire de Montréal	French	http://rechercheetab.csdm.qc.ca/Rechercheetablissement.aspx?recherche=nomecole&nom=&niveau=PR	École Le Vitrail	École secondaire	H2S 2H8	 514 596-4650	5927, rue Boyer
Québec	Montréal	http://le-vitrail.csdm.ca/	primaire	Commission scolaire de Montréal	French	http://rechercheetab.csdm.qc.ca/Rechercheetablissement.aspx?recherche=nomecole&nom=&niveau=PR	École Le Vitrail (primaire)	École primaire	H2S 2H8	 514 596-4650	5927, rue Boyer
Québec	Montréal	http://leonard-de-vinci.csdm.ca	primaire	Commission scolaire de Montréal	French	http://rechercheetab.csdm.qc.ca/Rechercheetablissement.aspx?recherche=nomecole&nom=&niveau=PR	École Léonard-De Vinci, pavillon 2e et 3e cycle	École primaire	H2A 2M2	 514 596-4924	7575, 19e Avenue
Québec	Montréal	http://leonard-de-vinci.csdm.ca	primaire	Commission scolaire de Montréal	French	http://rechercheetab.csdm.qc.ca/Rechercheetablissement.aspx?recherche=nomecole&nom=&niveau=PR	École Léonard-De Vinci, pavillon préscolaire et 1er cycle	École primaire	H2A 2H9	 514 596-5512	7630, 22e Avenue
Québec	Montréal	http://les-enfants-du-monde.csdm.ca	primaire	Commission scolaire de Montréal	French	http://rechercheetab.csdm.qc.ca/Rechercheetablissement.aspx?recherche=nomecole&nom=&niveau=PR	École Les-Enfants-du-Monde	École primaire	H4V 2H9	 514 596-5745	5350, avenue Rosedale
Québec	Montréal	http://louisbourg.csdm.ca	primaire	Commission scolaire de Montréal	French	http://rechercheetab.csdm.qc.ca/Rechercheetablissement.aspx?recherche=nomecole&nom=&niveau=PR	École Louisbourg	École primaire	H4J 2G7	 514 596-5359	11880, rue Michel-Sarrazin
Québec	Montréal	http://louis-colin.csdm.ca/	primaire	Commission scolaire de Montréal	French	http://rechercheetab.csdm.qc.ca/Rechercheetablissement.aspx?recherche=nomecole&nom=&niveau=PR	École Louis-Colin	École primaire	H2C 2V9	 514 596-5320	10122, boulevard Olympia
Québec	Montréal	http://louis-dupire.csdm.ca/	primaire	Commission scolaire de Montréal	French	http://rechercheetab.csdm.qc.ca/Rechercheetablissement.aspx?recherche=nomecole&nom=&niveau=PR	École Louis-Dupire	École primaire	H1N 1S4	 514 596-5136	6400, avenue Pierre-De Coubertin
Québec	Montréal	http://louise-trichet.csdm.ca/	secondaire	Commission scolaire de Montréal	French	http://rechercheetab.csdm.qc.ca/Rechercheetablissement.aspx?recherche=nomecole&nom=&niveau=PR	École Louise-Trichet	École secondaire	H1L 5M1	 514 596-5035	2800, boulevard Lapointe
Québec	Montréal	http://louis-hippolyte-lafontaine.csdm.ca/	primaire	Commission scolaire de Montréal	French	http://rechercheetab.csdm.qc.ca/Rechercheetablissement.aspx?recherche=nomecole&nom=&niveau=PR	École Louis-Hippolyte-Lafontaine	École primaire	H2J 2P9	 514 596-5737	4245, rue Berri
Québec	Montréal	http://louis-joseph-papineau.csdm.ca/	secondaire	Commission scolaire de Montréal	French	http://rechercheetab.csdm.qc.ca/Rechercheetablissement.aspx?recherche=nomecole&nom=&niveau=PR	École Louis-Joseph-Papineau	École secondaire	H1Z 1J7	 514 596-5353	2901, rue de Louvain Est
Québec	Montréal	http://louis-riel.csdm.ca/	secondaire	Commission scolaire de Montréal	French	http://rechercheetab.csdm.qc.ca/Rechercheetablissement.aspx?recherche=nomecole&nom=&niveau=PR	École Louis-Riel	École secondaire	H1M 2V4	 514 596-4134	5850, avenue de Carignan
Québec	Montréal	http://lucien-page.csdm.ca/	secondaire	Commission scolaire de Montréal	French	http://rechercheetab.csdm.qc.ca/Rechercheetablissement.aspx?recherche=nomecole&nom=&niveau=PR	École Lucien-Pagé	École secondaire	H2P 2L8	 514 596-5400	8200, boulevard Saint-Laurent
Québec	Montréal	http://lucille-teasdale.csdm.ca/	primaire	Commission scolaire de Montréal	French	http://rechercheetab.csdm.qc.ca/Rechercheetablissement.aspx?recherche=nomecole&nom=&niveau=PR	École Lucille-Teasdale	École primaire	H3S 2X1	 514 736-8900	3975, rue Bouchette
Québec	Montréal	http://ludger-duvernay.csdm.ca/	primaire	Commission scolaire de Montréal	French	http://rechercheetab.csdm.qc.ca/Rechercheetablissement.aspx?recherche=nomecole&nom=&niveau=PR	École Ludger-Duvernay	École primaire	H4C 2R6	 514 596-5666	770, rue du Couvent
Québec	Montréal	http://madeleine-de-vercheres.csdm.ca/	primaire	Commission scolaire de Montréal	French	http://rechercheetab.csdm.qc.ca/Rechercheetablissement.aspx?recherche=nomecole&nom=&niveau=PR	École Madeleine-de-Verchères	École primaire	H2G 2V4	 514 596-4969	6017, rue Cartier
Québec	Montréal	http://maisonneuve.csdm.ca	primaire	Commission scolaire de Montréal	French	http://rechercheetab.csdm.qc.ca/Rechercheetablissement.aspx?recherche=nomecole&nom=&niveau=PR	École Maisonneuve	École primaire	H1V 2P9	 514 596-5442	1680, avenue Morgan
Québec	Montréal	http://marc-favreau.csdm.ca/	primaire	Commission scolaire de Montréal	French	http://rechercheetab.csdm.qc.ca/Rechercheetablissement.aspx?recherche=nomecole&nom=&niveau=PR	École Marc-Favreau	École primaire	H3X 2B8	 514 596-3384	6310, avenue Somerled
Québec	Montréal	http://marguerite-bourgeoys.csdm.ca	primaire	Commission scolaire de Montréal	French	http://rechercheetab.csdm.qc.ca/Rechercheetablissement.aspx?recherche=nomecole&nom=&niveau=PR	École Marguerite-Bourgeoys	École primaire	H2L 2Y3	 514 596-5810	2070, rue Plessis
Québec	Montréal	http://marguerite-de-lajemmerais.csdm.ca/	secondaire	Commission scolaire de Montréal	French	http://rechercheetab.csdm.qc.ca/Rechercheetablissement.aspx?recherche=nomecole&nom=&niveau=PR	École Marguerite-De Lajemmerais	École secondaire	H1N 1A2	 514 596-5100	5555, rue Sherbrooke Est
Québec	Montréal	http://marie-anne.csdm.ca/	secondaire	Commission scolaire de Montréal	French	http://rechercheetab.csdm.qc.ca/Rechercheetablissement.aspx?recherche=nomecole&nom=&niveau=PR	École Marie-Anne	École secondaire	H3L 1H1	 514 596-5460	100, rue Sauvé Est
Québec	Montréal		secondaire	Commission scolaire de Montréal	French	http://rechercheetab.csdm.qc.ca/Rechercheetablissement.aspx?recherche=nomecole&nom=&niveau=PR	École Marie-Anne (soir)	École secondaire	H3L 1H1	 514 596-5460	100, rue Sauvé Est
Québec	Montréal	http://marie-de-lincarnation.csdm.ca	primaire	Commission scolaire de Montréal	French	http://rechercheetab.csdm.qc.ca/Rechercheetablissement.aspx?recherche=nomecole&nom=&niveau=PR	École Marie-de-l'Incarnation	École primaire	H4E 4A3	 514 732-1451	5446, rue Angers
Québec	Montréal	http://marie-favery.csdm.ca	primaire	Commission scolaire de Montréal	French	http://rechercheetab.csdm.qc.ca/Rechercheetablissement.aspx?recherche=nomecole&nom=&niveau=PR	École Marie-Favery	École primaire	H2R 2S9	 514 596-4999	7750, avenue Christophe-Colomb
Québec	Montréal	http://marie-rivier.csdm.ca	primaire	Commission scolaire de Montréal	French	http://rechercheetab.csdm.qc.ca/Rechercheetablissement.aspx?recherche=nomecole&nom=&niveau=PR	École Marie-Rivier, pavillon Legendre	École primaire	H1Z 2Y5	 514 596-5344	9066, 8e Avenue
Québec	Montréal	http://marie-rivier.csdm.ca	primaire	Commission scolaire de Montréal	French	http://rechercheetab.csdm.qc.ca/Rechercheetablissement.aspx?recherche=nomecole&nom=&niveau=PR	École Marie-Rivier, pavillon Louvain	École primaire	H1Z 2Y5	 514 596-5340	9200, 8e Avenue
Québec	Montréal	http://montcalm.csdm.ca/	primaire	Commission scolaire de Montréal	French	http://rechercheetab.csdm.qc.ca/Rechercheetablissement.aspx?recherche=nomecole&nom=&niveau=PR	École Montcalm	École primaire	H1Z 3J3	 514 596-5330	8800, 12e Avenue
Québec	Montréal	http://notre-dame-de-grace.csdm.ca/	primaire	Commission scolaire de Montréal	French	http://rechercheetab.csdm.qc.ca/Rechercheetablissement.aspx?recherche=nomecole&nom=&niveau=PR	École Notre-Dame-de-Grâce	École primaire	H4A 1L2	 514 596-5676	5435, avenue Notre-Dame-de-Grâce
Québec	Montréal		primaire	Commission scolaire de Montréal	French	http://rechercheetab.csdm.qc.ca/Rechercheetablissement.aspx?recherche=nomecole&nom=&niveau=PR	École Notre-Dame-de-Grâce, annexe	École primaire	H4A 1R5	 514 596-5682	5619, chemin de la Côte-Saint-Antoine
Québec	Montréal	http://notre-dame-de-lassomption.csdm.ca	primaire	Commission scolaire de Montréal	French	http://rechercheetab.csdm.qc.ca/Rechercheetablissement.aspx?recherche=nomecole&nom=&niveau=PR	École Notre-Dame-de-l'Assomption	École primaire	H1W 2X1	 514 596-5046	2430, rue Darling
Québec	Montréal	http://notre-dame-des-neiges.csdm.ca	primaire	Commission scolaire de Montréal	French	http://rechercheetab.csdm.qc.ca/Rechercheetablissement.aspx?recherche=nomecole&nom=&niveau=PR	École Notre-Dame-des-Neiges	École primaire	H3T 1Y4	 514 736-8120	5309, chemin de la Côte-des-Neiges
Québec	Montréal	http://notre-dame-des-victoires.csdm.ca	primaire	Commission scolaire de Montréal	French	http://rechercheetab.csdm.qc.ca/Rechercheetablissement.aspx?recherche=nomecole&nom=&niveau=PR	École Notre-Dame-des-Victoires	École primaire	H1N 2S6	 514 596-5111	2720, rue Bossuet
Québec	Montréal	http://notre-dame-des-victoires.csdm.ca	primaire	Commission scolaire de Montréal	French	http://rechercheetab.csdm.qc.ca/Rechercheetablissement.aspx?recherche=nomecole&nom=&niveau=PR	École Notre-Dame-des-Victoires, annexe	École primaire	H1N 2C1	 514 596-5111	6120, rue La Fontaine
Québec	Montréal	http://notre-dame-du-foyer.csdm.ca/	primaire	Commission scolaire de Montréal	French	http://rechercheetab.csdm.qc.ca/Rechercheetablissement.aspx?recherche=nomecole&nom=&niveau=PR	École Notre-Dame-du-Foyer	École primaire	H1T 2T7	 514 596-5133	5955, 41e Avenue
Québec	Montréal	http://notre-dame-du-perpetuel-secours.csdm.ca	primaire	Commission scolaire de Montréal	French	http://rechercheetab.csdm.qc.ca/Rechercheetablissement.aspx?recherche=nomecole&nom=&niveau=PR	École Notre-Dame-du-Perpétuel-Secours	École primaire	H4E 3E7	 514 732-1441	6025, rue Beaulieu
Québec	Montréal	http://paul-bruchesi.csdm.ca/	primaire	Commission scolaire de Montréal	French	http://rechercheetab.csdm.qc.ca/Rechercheetablissement.aspx?recherche=nomecole&nom=&niveau=PR	École Paul-Bruchési	École primaire	H2J 1M2	 514 596-5845	1310, boulevard Saint-Joseph Est
Québec	Montréal	http://pere-marquette.csdm.ca/	secondaire	Commission scolaire de Montréal	French	http://rechercheetab.csdm.qc.ca/Rechercheetablissement.aspx?recherche=nomecole&nom=&niveau=PR	École Père-Marquette	École secondaire	H2G 2Y2	 514 596-4128	6030, rue Marquette
Québec	Montréal	http://philippe-labarre.csdm.ca/	primaire	Commission scolaire de Montréal	French	http://rechercheetab.csdm.qc.ca/Rechercheetablissement.aspx?recherche=nomecole&nom=&niveau=PR	École Philippe-Labarre	École primaire	H1L 4E2	 514 596-4920	3125, avenue Fletcher
Québec	Montréal	http://pierre-dupuy.csdm.ca/	secondaire	Commission scolaire de Montréal	French	http://rechercheetab.csdm.qc.ca/Rechercheetablissement.aspx?recherche=nomecole&nom=&niveau=PR	École Pierre-Dupuy	École secondaire	H2K 3S9	 514 596-5711	2000, rue Parthenais
Québec	Montréal	http://robert-gravel.csdm.ca	secondaire	Commission scolaire de Montréal	French	http://rechercheetab.csdm.qc.ca/Rechercheetablissement.aspx?recherche=nomecole&nom=&niveau=PR	École Robert-Gravel	École secondaire	H2T 1C9	 514 596-5795	38, avenue Fairmount Est
Québec	Montréal	http://rosalie-jette.csdm.ca/	secondaire	Commission scolaire de Montréal	French	http://rechercheetab.csdm.qc.ca/Rechercheetablissement.aspx?recherche=nomecole&nom=&niveau=PR	École Rosalie-Jetté	École secondaire	H1M 2M4	 514 596-4240	5100, rue Bossuet
Québec	Montréal	http://rose-des-vents.csdm.ca	primaire	Commission scolaire de Montréal	French	http://rechercheetab.csdm.qc.ca/Rechercheetablissement.aspx?recherche=nomecole&nom=&niveau=PR	École Rose-des-Vents	École primaire	H1T 1S8	 514 596-6900	4315, rue Beaubien Est
Québec	Montréal	http://marie-rollet.csdm.ca	primaire	Commission scolaire de Montréal	French	http://rechercheetab.csdm.qc.ca/Rechercheetablissement.aspx?recherche=nomecole&nom=&niveau=PR	École Rosemont, annexe Marie-Rollet	École primaire	H1T 3G3	 514 596-4892	6405, 30e Avenue
Québec	Montréal	http://st-jean-vianney.csdm.ca/	primaire	Commission scolaire de Montréal	French	http://rechercheetab.csdm.qc.ca/Rechercheetablissement.aspx?recherche=nomecole&nom=&niveau=PR	École Rosemont, annexe Saint-Jean-Vianney	École primaire	H1T 3J8	 514 596-5055	6455, 27e Avenue
Québec	Montréal	http://st-albert-le-grand.csdm.ca	primaire	Commission scolaire de Montréal	French	http://rechercheetab.csdm.qc.ca/Rechercheetablissement.aspx?recherche=nomecole&nom=&niveau=PR	École Saint-Albert-le-Grand	École primaire	H1X 2N9	 514 596-4008	5050, 18e Avenue
Québec	Montréal	http://st-ambroise.csdm.ca	primaire	Commission scolaire de Montréal	French	http://rechercheetab.csdm.qc.ca/Rechercheetablissement.aspx?recherche=nomecole&nom=&niveau=PR	École Saint-Ambroise	École primaire	H2S 2B8	 514 596-4940	6555, rue De Normanville
Québec	Montréal	http://st-ambroise.csdm.ca	primaire	Commission scolaire de Montréal	French	http://rechercheetab.csdm.qc.ca/Rechercheetablissement.aspx?recherche=nomecole&nom=&niveau=PR	École Saint-Ambroise, annexe	École primaire	H2G 3B9	 514 596-4940	6560, rue Chambord
Québec	Montréal	http://st-andre-apotre.csdm.ca	primaire	Commission scolaire de Montréal	French	http://rechercheetab.csdm.qc.ca/Rechercheetablissement.aspx?recherche=nomecole&nom=&niveau=PR	École Saint-André-Apôtre	École primaire	H3L 1R7	 514 596-5366	215, rue Prieur Ouest
Québec	Montréal	http://st-anselme.csdm.ca	primaire	Commission scolaire de Montréal	French	http://rechercheetab.csdm.qc.ca/Rechercheetablissement.aspx?recherche=nomecole&nom=&niveau=PR	École Saint-Anselme	École primaire	H2K 1N2	 514 596-5820	2743, rue de Rouen
Québec	Montréal	http://st-antoine-marie-claret.csdm.ca	primaire	Commission scolaire de Montréal	French	http://rechercheetab.csdm.qc.ca/Rechercheetablissement.aspx?recherche=nomecole&nom=&niveau=PR	École Saint-Antoine-Marie-Claret	École primaire	H2B 2Z3	 514 596-5435	10600, avenue Larose
Québec	Montréal	http://st-arsene.csdm.ca	primaire	Commission scolaire de Montréal	French	http://rechercheetab.csdm.qc.ca/Rechercheetablissement.aspx?recherche=nomecole&nom=&niveau=PR	École Saint-Arsène	École primaire	H2S 2H5	 514 596-5011	6972, avenue Christophe-Colomb
Québec	Montréal	http://st-barthelemy.csdm.ca/	primaire	Commission scolaire de Montréal	French	http://rechercheetab.csdm.qc.ca/Rechercheetablissement.aspx?recherche=nomecole&nom=&niveau=PR	École Saint-Barthélemy, pavillon des Érables	École primaire	H2E 2R1	 514 596-4877	7081, avenue des Érables
Québec	Montréal	http://st-barthelemy.csdm.ca/	primaire	Commission scolaire de Montréal	French	http://rechercheetab.csdm.qc.ca/Rechercheetablissement.aspx?recherche=nomecole&nom=&niveau=PR	École Saint-Barthélemy, pavillon Sagard	École primaire	H2E 2S9	 514 596-4858	7400, rue Sagard
Québec	Montréal	http://st-benoit.csdm.ca	primaire	Commission scolaire de Montréal	French	http://rechercheetab.csdm.qc.ca/Rechercheetablissement.aspx?recherche=nomecole&nom=&niveau=PR	École Saint-Benoît	École primaire	H3L 1W6	 514 596-5206	500, avenue du Mont-Cassin
Québec	Montréal	http://st-bernardin.csdm.ca	primaire	Commission scolaire de Montréal	French	http://rechercheetab.csdm.qc.ca/Rechercheetablissement.aspx?recherche=nomecole&nom=&niveau=PR	École Saint-Bernardin	École primaire	H1Z 2V9	 514 596-5020	7900, 8e Avenue
Québec	Montréal	http://st-clement.csdm.ca	primaire	Commission scolaire de Montréal	French	http://rechercheetab.csdm.qc.ca/Rechercheetablissement.aspx?recherche=nomecole&nom=&niveau=PR	École Saint-Clément	École primaire	H1V 1R3	 514 596-5080	4770, rue La Fontaine
Québec	Montréal	http://st-donat.csdm.ca	primaire	Commission scolaire de Montréal	French	http://rechercheetab.csdm.qc.ca/Rechercheetablissement.aspx?recherche=nomecole&nom=&niveau=PR	École Saint-Donat	École primaire	H1N 3B8	 514 596-5037	3155, rue Desautels
Québec	Montréal	http://ste-bernadette-soubirous.csdm.ca/	primaire	Commission scolaire de Montréal	French	http://rechercheetab.csdm.qc.ca/Rechercheetablissement.aspx?recherche=nomecole&nom=&niveau=PR	École Sainte-Bernadette-Soubirous	École primaire	H1X 2T5	 514 596-4166	6855, 16e Avenue
Québec	Montréal		primaire	Commission scolaire de Montréal	French	http://rechercheetab.csdm.qc.ca/Rechercheetablissement.aspx?recherche=nomecole&nom=&niveau=PR	École Sainte-Bernadette-Soubirous, annexe	École primaire	H1X 2T5	 514 596-7155	6885, 16e Avenue
Québec	Montréal	http://ste-bibiane.csdm.ca/	primaire	Commission scolaire de Montréal	French	http://rechercheetab.csdm.qc.ca/Rechercheetablissement.aspx?recherche=nomecole&nom=&niveau=PR	École Sainte-Bibiane	École primaire	H1Y 2K4	 514 596-4861	5937, 9e Avenue
Québec	Montréal	http://ste-catherine-de-sienne.csdm.ca	primaire	Commission scolaire de Montréal	French	http://rechercheetab.csdm.qc.ca/Rechercheetablissement.aspx?recherche=nomecole&nom=&niveau=PR	École Sainte-Catherine-de-Sienne	École primaire	H4A 2X6	 514 596-5691	2055, avenue d'Oxford
Québec	Montréal	http://ste-cecile.csdm.ca	primaire	Commission scolaire de Montréal	French	http://rechercheetab.csdm.qc.ca/Rechercheetablissement.aspx?recherche=nomecole&nom=&niveau=PR	École Sainte-Cécile	École primaire	H2R 1Z6	 514 596-5530	7230, avenue De Gaspé
Québec	Montréal	http://ste-claire.csdm.ca	primaire	Commission scolaire de Montréal	French	http://rechercheetab.csdm.qc.ca/Rechercheetablissement.aspx?recherche=nomecole&nom=&niveau=PR	École Sainte-Claire	École primaire	H1L 1X7	 514 596-4944	8500, rue Sainte-Claire
Québec	Montréal	http://ste-jeanne-darc.csdm.ca/	primaire	Commission scolaire de Montréal	French	http://rechercheetab.csdm.qc.ca/Rechercheetablissement.aspx?recherche=nomecole&nom=&niveau=PR	École Sainte-Jeanne-d'Arc	École primaire	H1X 1Z8	 514 596-4848	3700, rue Sherbrooke Est
Québec	Montréal	http://ste-louise-de-marillac.csdm.ca	primaire	Commission scolaire de Montréal	French	http://rechercheetab.csdm.qc.ca/Rechercheetablissement.aspx?recherche=nomecole&nom=&niveau=PR	École Sainte-Louise-de-Marillac	École primaire	H1L 1P3	 514 596-5044	8100, rue de Marseille
Québec	Montréal	http://ste-lucie.csdm.ca	primaire	Commission scolaire de Montréal	French	http://rechercheetab.csdm.qc.ca/Rechercheetablissement.aspx?recherche=nomecole&nom=&niveau=PR	École Sainte-Lucie	École primaire	H1Z 1J7	 514 596-5550	2901, rue de Louvain Est
Québec	Montréal	http://st-emile.csdm.ca/	primaire	Commission scolaire de Montréal	French	http://rechercheetab.csdm.qc.ca/Rechercheetablissement.aspx?recherche=nomecole&nom=&niveau=PR	École Saint-Émile	École primaire	H1W 2Z5	 514 596-5050	3450, rue Davidson
Québec	Montréal	http://st-enfant-jesus.csdm.ca	primaire	Commission scolaire de Montréal	French	http://rechercheetab.csdm.qc.ca/Rechercheetablissement.aspx?recherche=nomecole&nom=&niveau=PR	École Saint-Enfant-Jésus	École primaire	H2T 1L1	 514 350-8846	75, rue Villeneuve Est
Québec	Montréal	http://ste-odile.csdm.ca	primaire	Commission scolaire de Montréal	French	http://rechercheetab.csdm.qc.ca/Rechercheetablissement.aspx?recherche=nomecole&nom=&niveau=PR	École Sainte-Odile	École primaire	H4J 1W9	 514 596-5565	12055, rue Dépatie
Québec	Montréal	http://ste-odile.csdm.ca	primaire	Commission scolaire de Montréal	French	http://rechercheetab.csdm.qc.ca/Rechercheetablissement.aspx?recherche=nomecole&nom=&niveau=PR	École Sainte-Odile, annexe	École primaire	H4J 1Y4	 514 596-5586	12330, rue Lavigne
Québec	Montréal	http://st-etienne.csdm.ca/	primaire	Commission scolaire de Montréal	French	http://rechercheetab.csdm.qc.ca/Rechercheetablissement.aspx?recherche=nomecole&nom=&niveau=PR	École Saint-Étienne	École primaire	H2S 2G3	 514 596-5165	5959, avenue Christophe-Colomb
Québec	Montréal	http://st-fabien.csdm.ca/	primaire	Commission scolaire de Montréal	French	http://rechercheetab.csdm.qc.ca/Rechercheetablissement.aspx?recherche=nomecole&nom=&niveau=PR	École Saint-Fabien	École primaire	H1M 1M4	 514 596-4883	6500, avenue De Renty
Québec	Montréal	http://st-francois-dassise.csdm.ca	primaire	Commission scolaire de Montréal	French	http://rechercheetab.csdm.qc.ca/Rechercheetablissement.aspx?recherche=nomecole&nom=&niveau=PR	École Saint-François-d'Assise	École primaire	H1L 5R1	 514 596-5032	2150, rue Liébert
Québec	Montréal	http://st-francois-solano.csdm.ca/	primaire	Commission scolaire de Montréal	French	http://rechercheetab.csdm.qc.ca/Rechercheetablissement.aspx?recherche=nomecole&nom=&niveau=PR	École Saint-François-Solano	École primaire	H1X 1N6	 514 596-4966	3580, rue Dandurand
Québec	Montréal	http://st-gabriel-lalemant.csdm.ca/	primaire	Commission scolaire de Montréal	French	http://rechercheetab.csdm.qc.ca/Rechercheetablissement.aspx?recherche=nomecole&nom=&niveau=PR	École Saint-Gabriel-Lalemant	École primaire	H2E 2A3	 514 596-4994	7350, rue Garnier
Québec	Montréal		primaire	Commission scolaire de Montréal	French	http://rechercheetab.csdm.qc.ca/Rechercheetablissement.aspx?recherche=nomecole&nom=&niveau=PR	École Saint-Gabriel-Lalemant, annexe	École primaire	H2E 2A1	 514 596-4994	7375-7345 A, rue Garnier
Québec	Montréal	http://st-gerard.csdm.ca	primaire	Commission scolaire de Montréal	French	http://rechercheetab.csdm.qc.ca/Rechercheetablissement.aspx?recherche=nomecole&nom=&niveau=PR	École Saint-Gérard	École primaire	H2P 1W9	 514 596-5450	1205, rue Jarry Est
Québec	Montréal	http://st-gregoire-le-grand.csdm.ca/	primaire	Commission scolaire de Montréal	French	http://rechercheetab.csdm.qc.ca/Rechercheetablissement.aspx?recherche=nomecole&nom=&niveau=PR	École Saint-Grégoire-le-Grand	École primaire	H2E 2K2	 514 596-4916	7950, rue Cartier
Québec	Montréal	http://st-henri.csdm.ca/	secondaire	Commission scolaire de Montréal	French	http://rechercheetab.csdm.qc.ca/Rechercheetablissement.aspx?recherche=nomecole&nom=&niveau=PR	École Saint-Henri	École secondaire	H4C 1J3	 514 596-5970	4115, rue Saint-Jacques
Québec	Montréal	http://st-isaac-jogues.csdm.ca	primaire	Commission scolaire de Montréal	French	http://rechercheetab.csdm.qc.ca/Rechercheetablissement.aspx?recherche=nomecole&nom=&niveau=PR	École Saint-Isaac-Jogues	École primaire	H2M 2A7	 514 596-5454	9355, avenue De Galinée
Québec	Montréal	http://st-jean-baptiste-de-la-salle.csdm.ca	primaire	Commission scolaire de Montréal	French	http://rechercheetab.csdm.qc.ca/Rechercheetablissement.aspx?recherche=nomecole&nom=&niveau=PR	École Saint-Jean-Baptiste-de-la-Salle	École primaire	H1V 2E6	 514 596-5130	2355, boulevard Pie-IX
Québec	Montréal	http://st-jean-de-brebeuf.csdm.ca	primaire	Commission scolaire de Montréal	French	http://rechercheetab.csdm.qc.ca/Rechercheetablissement.aspx?recherche=nomecole&nom=&niveau=PR	École Saint-Jean-de-Brébeuf	École primaire	H1Y 1T5	 514 596-5122	2870, rue Dandurand
Québec	Montréal	http://st-jean-de-la-lande.csdm.ca	primaire	Commission scolaire de Montréal	French	http://rechercheetab.csdm.qc.ca/Rechercheetablissement.aspx?recherche=nomecole&nom=&niveau=PR	École Saint-Jean-de-la-Lande	École primaire	H1Y 1Z6	 514 596-5007	3120, avenue Laurier Est
Québec	Montréal	http://st-jean-de-matha.csdm.ca	primaire	Commission scolaire de Montréal	French	http://rechercheetab.csdm.qc.ca/Rechercheetablissement.aspx?recherche=nomecole&nom=&niveau=PR	École Saint-Jean-de-Matha	École primaire	H4E 3A3	 514 732-1460	6970, rue Dumas
Québec	Montréal	http://st-justin.csdm.ca	primaire	Commission scolaire de Montréal	French	http://rechercheetab.csdm.qc.ca/Rechercheetablissement.aspx?recherche=nomecole&nom=&niveau=PR	École Saint-Justin	École primaire	H1K 2V8	 514 596-5040	5005, rue Mousseau
Québec	Montréal	http://st-justin.csdm.ca	primaire	Commission scolaire de Montréal	French	http://rechercheetab.csdm.qc.ca/Rechercheetablissement.aspx?recherche=nomecole&nom=&niveau=PR	École Saint-Justin, annexe	École primaire	H1K 2K5	 514 596-5040	8805, rue Forbin-Janson
Québec	Montréal	http://st-leon-de-westmount.csdm.ca	primaire	Commission scolaire de Montréal	French	http://rechercheetab.csdm.qc.ca/Rechercheetablissement.aspx?recherche=nomecole&nom=&niveau=PR	École Saint-Léon-de-Westmount	École primaire	H3Z 2E6	 514 596-5720	360, avenue Clarke
Québec	Montréal	http://st-louis-de-gonzague.csdm.ca	primaire	Commission scolaire de Montréal	French	http://rechercheetab.csdm.qc.ca/Rechercheetablissement.aspx?recherche=nomecole&nom=&niveau=PR	École Saint-Louis-de-Gonzague	École primaire	H2H 1P2	 514 596-5880	2430, terrasse Mercure
Québec	Montréal	http://st-louis-de-gonzague.csdm.ca	primaire	Commission scolaire de Montréal	French	http://rechercheetab.csdm.qc.ca/Rechercheetablissement.aspx?recherche=nomecole&nom=&niveau=PR	École Saint-Louis-de-Gonzague, annexe	École primaire	H2H 1R3	 514 596-5871	2175, rue Rachel Est
Québec	Montréal	http://St-Luc.csdm.ca/	secondaire	Commission scolaire de Montréal	French	http://rechercheetab.csdm.qc.ca/Rechercheetablissement.aspx?recherche=nomecole&nom=&niveau=PR	École Saint-Luc	École secondaire	H3X 2H4	 514 596-5920	6300, chemin de la Côte-Saint-Luc
Québec	Montréal	http://st-marc.csdm.ca/	primaire	Commission scolaire de Montréal	French	http://rechercheetab.csdm.qc.ca/Rechercheetablissement.aspx?recherche=nomecole&nom=&niveau=PR	École Saint-Marc	École primaire	H1Y 3A9	 514 596-5022	6365, 1 ère  Avenue
Québec	Montréal	http://st-mathieu.csdm.ca	primaire	Commission scolaire de Montréal	French	http://rechercheetab.csdm.qc.ca/Rechercheetablissement.aspx?recherche=nomecole&nom=&niveau=PR	École Saint-Mathieu	École primaire	H2A 3C7	 514 596-5120	7230, 8e Avenue
Québec	Montréal	http://st-noel-chabanel.csdm.ca	primaire	Commission scolaire de Montréal	French	http://rechercheetab.csdm.qc.ca/Rechercheetablissement.aspx?recherche=nomecole&nom=&niveau=PR	École Saint-Noël-Chabanel, pavillon des Bâtisseurs	École primaire	H1Z 4B4	 514 596-5494	8801, 25e Avenue
Québec	Montréal	http://st-noel-chabanel.csdm.ca	primaire	Commission scolaire de Montréal	French	http://rechercheetab.csdm.qc.ca/Rechercheetablissement.aspx?recherche=nomecole&nom=&niveau=PR	École Saint-Noël-Chabanel, pavillon des Découvreurs	École primaire	H1Z 3Z8	 514 596-6200	8777, 24e Avenue
Québec	Montréal	http://st-nom-de-jesus.csdm.ca	primaire	Commission scolaire de Montréal	French	http://rechercheetab.csdm.qc.ca/Rechercheetablissement.aspx?recherche=nomecole&nom=&niveau=PR	École Saint-Nom-de-Jésus	École primaire	H1N 1S4	 514 596-4929	6200, avenue Pierre-De Coubertin
Québec	Montréal	http://st-pascal-baylon.csdm.ca	primaire	Commission scolaire de Montréal	French	http://rechercheetab.csdm.qc.ca/Rechercheetablissement.aspx?recherche=nomecole&nom=&niveau=PR	École Saint-Pascal-Baylon	École primaire	H3S 2A4	 514 736-8100	6320, chemin de la Côte-des-Neiges
Québec	Montréal	http://st-paul-de-la-croix.csdm.ca	primaire	Commission scolaire de Montréal	French	http://rechercheetab.csdm.qc.ca/Rechercheetablissement.aspx?recherche=nomecole&nom=&niveau=PR	École Saint-Paul-de-la-Croix	École primaire	H2C 2N1	 514 596-5505	10495, avenue Georges-Baril
Québec	Montréal	http://st-pierre-apotre.csdm.ca/	primaire	Commission scolaire de Montréal	French	http://rechercheetab.csdm.qc.ca/Rechercheetablissement.aspx?recherche=nomecole&nom=&niveau=PR	École Saint-Pierre-Apôtre	École primaire	H2P 2N7	 514 596-4318	8550, rue Clark
Québec	Montréal	http://st-pierre-claver.csdm.ca	primaire	Commission scolaire de Montréal	French	http://rechercheetab.csdm.qc.ca/Rechercheetablissement.aspx?recherche=nomecole&nom=&niveau=PR	École Saint-Pierre-Claver	École primaire	H2H 1E7	 514 596-5700	2110, boulevard Saint-Joseph Est
Québec	Montréal	http://st-simon-apotre.csdm.ca/	primaire	Commission scolaire de Montréal	French	http://rechercheetab.csdm.qc.ca/Rechercheetablissement.aspx?recherche=nomecole&nom=&niveau=PR	École Saint-Simon-Apôtre	École primaire	H2N 1K1	 514 596-5520	195, rue De Beauharnois Ouest
Québec	Montréal	http://sts-martyrs-canadiens.csdm.ca	primaire	Commission scolaire de Montréal	French	http://rechercheetab.csdm.qc.ca/Rechercheetablissement.aspx?recherche=nomecole&nom=&niveau=PR	École Saints-Martyrs-Canadiens	École primaire	H2B 2L4	 514 596-5560	9920, rue Parthenais
Québec	Montréal	http://st-zotique.csdm.ca	primaire	Commission scolaire de Montréal	French	http://rechercheetab.csdm.qc.ca/Rechercheetablissement.aspx?recherche=nomecole&nom=&niveau=PR	École Saint-Zotique	École primaire	H4C 1Y1	 514 596-5905	4841, avenue Palm
Québec	Montréal	http://sans-frontieres.csdm.ca	primaire	Commission scolaire de Montréal	French	http://rechercheetab.csdm.qc.ca/Rechercheetablissement.aspx?recherche=nomecole&nom=&niveau=PR	École Sans-Frontières	École primaire	H1Y 2K4	 514 596-5546	5937, 9e Avenue
Québec	Montréal	http://simonne-monet.csdm.ca	primaire	Commission scolaire de Montréal	French	http://rechercheetab.csdm.qc.ca/Rechercheetablissement.aspx?recherche=nomecole&nom=&niveau=PR	École Simonne-Monet	École primaire	H3T 1E6	 514 736-8140	3850, avenue Dupuis
Québec	Montréal	http://sophie-barat.csdm.ca/	secondaire	Commission scolaire de Montréal	French	http://rechercheetab.csdm.qc.ca/Rechercheetablissement.aspx?recherche=nomecole&nom=&niveau=PR	École Sophie-Barat	École secondaire	H2C 1B3	 514 596-5535	1239, boul. Gouin Est
Québec	Montréal		secondaire	Commission scolaire de Montréal	French	http://rechercheetab.csdm.qc.ca/Rechercheetablissement.aspx?recherche=nomecole&nom=&niveau=PR	École Sophie-Barat, annexe	École secondaire	H2C 1A6	 514 596-5538	750, boul. Gouin Est
Québec	Montréal	http://victor-dore.csdm.ca/	primaire	Commission scolaire de Montréal	French	http://rechercheetab.csdm.qc.ca/Rechercheetablissement.aspx?recherche=nomecole&nom=&niveau=PR	École Victor-Doré	École primaire	H2E 1A1	 514 596-4300	1350, boulevard Crémazie Est
Québec	Montréal	http://victor-rousselot.csdm.ca	primaire	Commission scolaire de Montréal	French	http://rechercheetab.csdm.qc.ca/Rechercheetablissement.aspx?recherche=nomecole&nom=&niveau=PR	École Victor-Rousselot	École primaire	H4C 1Z3	 514 596-5750	3525, rue Sainte-Émilie
Québec	Montréal			Commission scolaire de Montréal	French	http://rechercheetab.csdm.qc.ca/Rechercheetablissement.aspx?recherche=nomecole&nom=&niveau=PR	Garderie Bonheur d'Occasion	Garderie	H1Z 3G1	 514 596-7157	8699, boulevard Saint-Michel
Québec	Montréal			Commission scolaire de Montréal	French	http://rechercheetab.csdm.qc.ca/Rechercheetablissement.aspx?recherche=nomecole&nom=&niveau=PR	Garderie La Balancelle	Garderie	H1N 1S4	 514 596-5140	6400, avenue Pierre-De Coubertin
Québec	Montréal			Commission scolaire de Montréal	French	http://rechercheetab.csdm.qc.ca/Rechercheetablissement.aspx?recherche=nomecole&nom=&niveau=PR	Garderie La Fourmilière	Garderie	H2S 2S1	 514 596-5293	6521, rue Saint-Denis
Québec	Montréal			Commission scolaire de Montréal	French	http://rechercheetab.csdm.qc.ca/Rechercheetablissement.aspx?recherche=nomecole&nom=&niveau=PR	Garderie La Sauterelle	Garderie	H1X 1Z8	 514 596-4860	3700, rue Sherbrooke Est
Québec	Montréal			Commission scolaire de Montréal	French	http://rechercheetab.csdm.qc.ca/Rechercheetablissement.aspx?recherche=nomecole&nom=&niveau=PR	Garderie Le Gard'Ecole	Garderie	H2T 1L1	 514 350-8855	75, rue Villeneuve Est
Québec	Montréal			Commission scolaire de Montréal	French	http://rechercheetab.csdm.qc.ca/Rechercheetablissement.aspx?recherche=nomecole&nom=&niveau=PR	Garderie Moussaillon	Garderie	H1Z 3Z8	 514 596-5501	8831, 24e Avenue
Québec	Montréal			Commission scolaire de Montréal	French	http://rechercheetab.csdm.qc.ca/Rechercheetablissement.aspx?recherche=nomecole&nom=&niveau=PR	Garderie Petit Baluchon	Garderie	H1M 1M4	 514 596-4888	6500, rue de Renty
Québec	Montréal		primaire	Commission scolaire de Montréal	French	http://rechercheetab.csdm.qc.ca/Rechercheetablissement.aspx?recherche=nomecole&nom=&niveau=PR	Hôpital de Montréal pour enfants	École primaire	H4A 3J1	 514 596-8459	1001, Boulevard Décarie
Québec	Montréal		secondaire	Commission scolaire de Montréal	French	http://rechercheetab.csdm.qc.ca/Rechercheetablissement.aspx?recherche=nomecole&nom=&niveau=PR	Hôpital de Montréal pour enfants	École secondaire	H3H 1P3	 514 596-8459	1001, Boulevard Décarie
Québec	Montréal		secondaire	Commission scolaire de Montréal	French	http://rechercheetab.csdm.qc.ca/Rechercheetablissement.aspx?recherche=nomecole&nom=&niveau=PR	Hôpital du Sacré-Coeur (Pavillon Albert-Prévost)	École secondaire	H4K 1B3	 514 596-8459	6555, boulevard Gouin Ouest
Québec	Montréal		secondaire	Commission scolaire de Montréal	French	http://rechercheetab.csdm.qc.ca/Rechercheetablissement.aspx?recherche=nomecole&nom=&niveau=PR	Hôpital Général Juif (Sir Mortimer B. Davis)	École secondaire	H3T 1E2	 514 596-8459	3755, chemin de la Côte-Sainte-Catherine
Québec	Montréal		primaire	Commission scolaire de Montréal	French	http://rechercheetab.csdm.qc.ca/Rechercheetablissement.aspx?recherche=nomecole&nom=&niveau=PR	Hôpital Général Juif (Sir Mortimer B. Davis)	École primaire	H3T 1E2	 514 596-8459	3755, chemin de la Côte-Sainte-Catherine
Québec	Montréal		secondaire	Commission scolaire de Montréal	French	http://rechercheetab.csdm.qc.ca/Rechercheetablissement.aspx?recherche=nomecole&nom=&niveau=PR	Institut de réadaptation de Montréal	École secondaire	H3S 2J4	 514 596-4350	6300, avenue Darlington
Québec	Montréal		primaire	Commission scolaire de Montréal	French	http://rechercheetab.csdm.qc.ca/Rechercheetablissement.aspx?recherche=nomecole&nom=&niveau=PR	Maîtrise des petits chanteurs du Mont-Royal	École primaire	H3V 1A6	 514 736-8120	4300, chemin Queen-Mary
