province	city	school_url	school_grades	school_board	school_language	response_url	school_name	school_type	postal_code	phone_number	street_address
Québec	Montreal	http://www3.csmb.qc.ca/ecoles/Default.aspx?alias=www3.csmb.qc.ca/ecoles/academie-saint-clement	primaire	Commission scolaire Marguerite-Bourgeoys	French	http://www.csmb.qc.ca/fr-CA/enseignement/primaire/ecoles/liste/academie-saint-clement.aspx	Académie Saint-Clément	École primaire	Régent Mont-Royal	514739-5070	"1345, ch. Régent
Mont-Royal "
Québec	Montreal	http://levissauve.ecoleverdun.com/	primaire	Commission scolaire Marguerite-Bourgeoys	French	http://www.csmb.qc.ca/fr-CA/enseignement/primaire/ecoles/liste/levis-sauve.aspx	Lévis-Sauvé	École primaire	Willibrord Verdun	514765-7585	"655, rue Willibrord
Verdun "
Québec	Montreal	http://www3.csmb.qc.ca/ecoles/Default.aspx?alias=www3.csmb.qc.ca/ecoles/lalande	primaire	Commission scolaire Marguerite-Bourgeoys	French	http://www.csmb.qc.ca/fr-CA/enseignement/primaire/ecoles/liste/lalande.aspx	Lalande | Territoire en consultation*	École primaire	Sud Roxboro	514855-4238	"50, 3e Avenue Sud
Roxboro "
Québec	Montreal	http://laurentide.ecolesaintlaurent.ca/	primaire	Commission scolaire Marguerite-Bourgeoys	French	http://www.csmb.qc.ca/fr-CA/enseignement/primaire/ecoles/liste/laurentide.aspx	Laurentide	École primaire	Cardinal Saint-Laurent	514744-2101	"465, rue Cardinal
Saint-Laurent "
Québec	Montreal	http://www2.csmb.qc.ca/jhenrico/	primaire	Commission scolaire Marguerite-Bourgeoys	French	http://www.csmb.qc.ca/fr-CA/enseignement/primaire/ecoles/liste/joseph-henrico.aspx	Joseph-Henrico	École primaire	Baie d'Urfé	514855-4213	"20, rue Maughan
Baie d'Urfé "
Québec	Montreal	http://www.leauvive.ecolelasalle.com	primaire	Commission scolaire Marguerite-Bourgeoys	French	http://www.csmb.qc.ca/fr-CA/enseignement/primaire/ecoles/liste/leau-vive.aspx	L'Eau-Vive	École primaire	Orchard LaSalle	514687-7594	"171, av. Orchard
LaSalle "
Québec	Montreal	http://www2.csmb.qc.ca/laurendeau-Dunton/	primaire	Commission scolaire Marguerite-Bourgeoys	French	http://www.csmb.qc.ca/fr-CA/enseignement/primaire/ecoles/liste/laurendeau-dunton.aspx	Laurendeau-Dunton	École primaire	Rancourt LaSalle	514595-2049	"1515, rue Rancourt
LaSalle "
Québec	Montreal	http://jonathanwilson.ecoleouestmtl.com	primaire	Commission scolaire Marguerite-Bourgeoys	French	http://www.csmb.qc.ca/fr-CA/enseignement/primaire/ecoles/liste/jonathan-wilson.aspx	Jonathan-Wilson	École primaire	Chevremont L'Île-Bizard	514855-4242	"3243, bd Chevremont
L'Île-Bizard "
Québec	Montreal	http://lajoie.ecoleoutremont.com/	primaire	Commission scolaire Marguerite-Bourgeoys	French	http://www.csmb.qc.ca/fr-CA/enseignement/primaire/ecoles/liste/lajoie.aspx	Lajoie	École primaire	Lajoie Outremont	514272-5723	"1276, av. Lajoie
Outremont "
Québec	Montreal		primaire	Commission scolaire Marguerite-Bourgeoys	French	http://www.csmb.qc.ca/fr-CA/enseignement/primaire/ecoles/liste/jardin-des-saints-anges.aspx	Jardin-des-Saints-Anges	École primaire	Saint-Louis Lachine	514855-4200	"1225, rue Saint-Louis
Lachine "
Québec	Montreal	http://www3.csmb.qc.ca/ecoles/Default.aspx?alias=www3.csmb.qc.ca/ecoles/katimavik-hebert	primaire	Commission scolaire Marguerite-Bourgeoys	French	http://www.csmb.qc.ca/fr-CA/enseignement/primaire/ecoles/liste/katimavik-hebert.aspx	Katimavik-Hébert	École primaire	Décarie Saint-Laurent	514748-65452	"705, bd Décarie
Saint-Laurent "
Québec	Montreal	http://www3.csmb.qc.ca/ecoles/Default.aspx?alias=www3.csmb.qc.ca/ecoles/jacques-bizard	primaire	Commission scolaire Marguerite-Bourgeoys	French	http://www.csmb.qc.ca/fr-CA/enseignement/primaire/ecoles/liste/jacques-bizard.aspx	Jacques-Bizard	École primaire	l'Église L'Île-Bizard	514855-4214	"515, montée de l'Église
L'Île-Bizard "
Québec	Montreal	http://jonathan.ecolesaintlaurent.ca/	primaire	Commission scolaire Marguerite-Bourgeoys	French	http://www.csmb.qc.ca/fr-CA/enseignement/primaire/ecoles/liste/jonathan.aspx	Jonathan	École primaire	Décarie Saint-Laurent	514748-2460	"705, bd Décarie
Saint-Laurent "
Québec	Montreal	http://www.henriforest.ecolelasalle.com	primaire	Commission scolaire Marguerite-Bourgeoys	French	http://www.csmb.qc.ca/fr-CA/enseignement/primaire/ecoles/liste/henri-forest.aspx	Henri-Forest	École primaire	Trésor-Caché LaSalle	514595-2046	"100, rue Trésor-Caché
LaSalle "
Québec	Montreal	http://www3.csmb.qc.ca/ecoles/Default.aspx?alias=www3.csmb.qc.ca/ecoles/jean-grou	primaire	Commission scolaire Marguerite-Bourgeoys	French	http://www.csmb.qc.ca/fr-CA/enseignement/primaire/ecoles/liste/jean-grou.aspx	Jean-Grou	École primaire	Tassé Saint-Laurent	514747-1260	"805, rue Tassé
Saint-Laurent "
Québec	Montreal	http://tss.ecolelachine.com/	primaire	Commission scolaire Marguerite-Bourgeoys	French	http://www.csmb.qc.ca/fr-CA/enseignement/primaire/ecoles/liste/tres-saint-sacrement.aspx	Très-Saint-Sacrement	École primaire	Avenue Lachine	514855-4234	"704, 5e Avenue
Lachine "
Québec	Montreal	http://victortherien.ecolelachine.com/ 	primaire	Commission scolaire Marguerite-Bourgeoys	French	http://www.csmb.qc.ca/fr-CA/enseignement/primaire/ecoles/liste/victor-therien.aspx	Victor-Thérien	École primaire	Avenue Lachine	514855-4202	"305, 43e Avenue
Lachine "
Québec	Montreal	http://saint-luc.ecoleouestmtl.com	primaire	Commission scolaire Marguerite-Bourgeoys	French	http://www.csmb.qc.ca/fr-CA/enseignement/primaire/ecoles/liste/saint-luc.aspx	Saint-Luc	École primaire	Dollard-Des Ormeaux	514855-4212	"98, rue Fredmir
Dollard-Des Ormeaux "
Québec	Montreal	http://tdj.ecolelasalle.com/	primaire	Commission scolaire Marguerite-Bourgeoys	French	http://www.csmb.qc.ca/fr-CA/enseignement/primaire/ecoles/liste/terre-des-jeunes.aspx	Terre-des-Jeunes | Territoire en consultation*	École primaire	Ménard LaSalle	514595-2056	"2311, rue Ménard
LaSalle "
Québec	Montreal	http://autresorduboise.ecolesaintlaurent.ca/ 	primaire	Commission scolaire Marguerite-Bourgeoys	French	http://www.csmb.qc.ca/fr-CA/enseignement/primaire/ecoles/liste/tresor-du-boise.aspx	au Trésor-du-Boisé	École primaire	Claude-Henri-Grignon Saint-Laurent	514748-4609	"3925, rue Claude-Henri-Grignon
Saint-Laurent "
Québec	Montreal	http://ecolestgo.ca/	primaire	Commission scolaire Marguerite-Bourgeoys	French	http://www.csmb.qc.ca/fr-CA/enseignement/primaire/ecoles/liste/saint-germain-doutremont.aspx	Saint-Germain-d'Outremont	École primaire	Vincent-d'Indy Outremont	514735-6691	"46, av. Vincent-d'Indy
Outremont "
Québec	Montreal	http://saintremi.ecoleouest.com/	primaire	Commission scolaire Marguerite-Bourgeoys	French	http://www.csmb.qc.ca/fr-CA/enseignement/primaire/ecoles/liste/saint-remi.aspx	Saint-Rémi	École primaire	Neveu Beaconsfield	514855-4206	"16, rue Neveu
Beaconsfield "
Québec	Montreal	http://www3.csmb.qc.ca/ecoles/Default.aspx?alias=www3.csmb.qc.ca/ecoles/ile-des-soeurs	primaire	Commission scolaire Marguerite-Bourgeoys	French	http://www.csmb.qc.ca/fr-CA/enseignement/primaire/ecoles/liste/ile-des-soeurs.aspx	Île-des-Soeurs	École primaire	Gaspé Verdun	514765-7695	"530, rue de Gaspé
Verdun "
Québec	Montreal	http://esco.ecolemontroyal.com/	primaire	Commission scolaire Marguerite-Bourgeoys	French	http://www.csmb.qc.ca/fr-CA/enseignement/primaire/ecoles/liste/saint-clement-ouest.aspx	Saint-Clément-Ouest | Territoire en consultation*	École primaire	Mitchell Mont-Royal	514735-0400	"555, avenue Mitchell
Mont-Royal "
Québec	Montreal	http://saintlouis.ecoleouest.com/	primaire	Commission scolaire Marguerite-Bourgeoys	French	http://www.csmb.qc.ca/fr-CA/enseignement/primaire/ecoles/liste/saint-louis.aspx	Saint-Louis | Territoire en consultation*	École primaire	Winthrop Pointe-Claire	514855-4205	"151, rue Winthrop
Pointe-Claire "
Québec	Montreal	http://saint-gerard.ecoleouest.com/	primaire	Commission scolaire Marguerite-Bourgeoys	French	http://www.csmb.qc.ca/fr-CA/enseignement/primaire/ecoles/liste/saint-gerard.aspx	Saint-Gérard	École primaire	Pierrefonds Pierrefonds	514855-4243	"14385, bd Pierrefonds
Pierrefonds "
Québec	Montreal	http://www.ecolesaintlaurent.ca/	secondaire	Commission scolaire Marguerite-Bourgeoys	French	http://www.csmb.qc.ca/fr-CA/enseignement/secondaire/ecoles/liste/saint-laurent.aspx	Saint-Laurent | Territoire en consultation*	École secondaire	Thimens Saint-Laurent	514332-3190	"2395, bd Thimens
Saint-Laurent "
Québec	Montreal	http://saintgeorges.ecoleouest.com/	secondaire	Commission scolaire Marguerite-Bourgeoys	French	http://www.csmb.qc.ca/fr-CA/enseignement/secondaire/ecoles/liste/saint-georges.aspx	Saint-Georges	École secondaire	Sainte-Anne Senneville	514855-4241	"300, rue Sainte-Anne
Senneville "
Québec	Montreal	http://www2.csmb.qc.ca/scl/	primaire	Commission scolaire Marguerite-Bourgeoys	French	http://www.csmb.qc.ca/fr-CA/enseignement/primaire/ecoles/liste/sainte-catherine-laboure.aspx	Sainte-Catherine-Labouré | Territoire en consultation*	École primaire	Trudeau LaSalle	514595-2054	"441, rue Trudeau
LaSalle "
Québec	Montreal	http://www3.csmb.qc.ca/ecoles/Default.aspx?alias=www3.csmb.qc.ca/ecoles/pointe-claire	primaire	Commission scolaire Marguerite-Bourgeoys	French	http://www.csmb.qc.ca/fr-CA/enseignement/primaire/ecoles/liste/pointe-claire.aspx	Pointe-Claire	École primaire	Douglas-Shand Pointe-Claire	514855-4245	"93, av. Douglas-Shand
Pointe-Claire "
Québec	Montreal	http://www3.csmb.qc.ca/ecoles/Default.aspx?alias=www3.csmb.qc.ca/ecoles/saintegenevievesud	primaire	Commission scolaire Marguerite-Bourgeoys	French	http://www.csmb.qc.ca/fr-CA/enseignement/primaire/ecoles/liste/sainte-genevieve-sud.aspx	Sainte-Geneviève (Sud)	École primaire	Édouard LaSalle	514595-2055	"7520, rue Édouard
LaSalle "
Québec	Montreal	http://sgo.ecoleouest.com/	primaire	Commission scolaire Marguerite-Bourgeoys	French	http://www.csmb.qc.ca/fr-CA/enseignement/primaire/ecoles/liste/sainte-genevieve-ouest.aspx	Sainte-Geneviève (Ouest) | Territoire en consultation*	École primaire	Sainte-Anne Sainte-Geneviève	514855-4215	"35, rue Sainte-Anne
Sainte-Geneviève "
Québec	Montreal	http://www.pierreremy.ecolelasalle.com 	primaire	Commission scolaire Marguerite-Bourgeoys	French	http://www.csmb.qc.ca/fr-CA/enseignement/primaire/ecoles/liste/pierre-remy.aspx	Pierre-Rémy	École primaire	Avenue LaSalle	514595-2067	"360, 80e Avenue
LaSalle "
Québec	Montreal	http://pauljarry.ecolelachine.com/	primaire	Commission scolaire Marguerite-Bourgeoys	French	http://www.csmb.qc.ca/fr-CA/enseignement/primaire/ecoles/liste/paul-jarry.aspx	Paul-Jarry	École primaire	Avenue Lachine	514855-4201	"676, 11e  Avenue
Lachine "
Québec	Montreal	http://www2.csmb.qc.ca/perceneige/	primaire	Commission scolaire Marguerite-Bourgeoys	French	http://www.csmb.qc.ca/fr-CA/enseignement/primaire/ecoles/liste/perce-neige.aspx	Perce-Neige	École primaire	Lalande Pierrefonds	514855-4239	"4770, bd Lalande
Pierrefonds "
Québec	Montreal	http://ndl.ecoleverdun.com/	primaire	Commission scolaire Marguerite-Bourgeoys	French	http://www.csmb.qc.ca/fr-CA/enseignement/primaire/ecoles/liste/notre-dame-de-lourdes.aspx	Notre-Dame-de-Lourdes	École primaire	Avenue Verdun	514765-7595	"504, 5e Avenue
Verdun "
Québec	Montreal	http://pierrelaporte.ecolemontroyal.com/	secondaire	Commission scolaire Marguerite-Bourgeoys	French	http://www.csmb.qc.ca/fr-CA/enseignement/secondaire/ecoles/liste/pierre-laporte.aspx	Pierre-Laporte | Territoire en consultation*	École secondaire	Rockland Mont-Royal	514739-6311	"1101, ch. Rockland
Mont-Royal "
Québec	Montreal	http://philippemorin.ecolelachine.com/	primaire	Commission scolaire Marguerite-Bourgeoys	French	http://www.csmb.qc.ca/fr-CA/enseignement/primaire/ecoles/liste/philippe-morin.aspx	Philippe-Morin	École primaire	Provost Lachine	514855-4233	"1825, rue Provost
Lachine "
Québec	Montreal	http://www3.csmb.qc.ca/ecoles/Default.aspx?alias=www3.csmb.qc.ca/ecoles/nouvelle-querbes	primaire	Commission scolaire Marguerite-Bourgeoys	French	http://www.csmb.qc.ca/fr-CA/enseignement/primaire/ecoles/liste/nouvelle-querbes.aspx	Nouvelle-Querbes	École primaire	Bloomfield Outremont	514272-7887	"215, av. Bloomfield
Outremont "
Québec	Montreal	http://www.paul-gerin-lajoie-doutremont.ca/	secondaire	Commission scolaire Marguerite-Bourgeoys	French	http://www.csmb.qc.ca/fr-CA/enseignement/secondaire/ecoles/liste/paul-gerin-lajoie-doutremont.aspx	Paul-Gérin-Lajoie-d'Outremont	École secondaire	Bloomfield Outremont	514276-3746	"475, av. Bloomfield
Outremont "
Québec	Montreal	http://ecolendsd.wix.com/ndsd	primaire	Commission scolaire Marguerite-Bourgeoys	French	http://www.csmb.qc.ca/fr-CA/enseignement/primaire/ecoles/liste/notre-dame-des-sept-douleurs.aspx	Notre-Dame-des-Sept-Douleurs	École primaire	l'Église Verdun	514765-7575	"320, rue de l'Église
Verdun "
Québec	Montreal	http://www3.csmb.qc.ca/ecoles/Default.aspx?alias=www3.csmb.qc.ca/ecoles/notre-dame-de-la-garde	primaire	Commission scolaire Marguerite-Bourgeoys	French	http://www.csmb.qc.ca/fr-CA/enseignement/primaire/ecoles/liste/notre-dame-de-la-garde.aspx	Notre-Dame-de-la-Garde	École primaire	Brault Verdun	514765-7611	"755, rue Brault
Verdun "
Québec	Montreal	http://www3.csmb.qc.ca/ecoles/Default.aspx?alias=www3.csmb.qc.ca/ecoles/martin-belanger	primaire	Commission scolaire Marguerite-Bourgeoys	French	http://www.csmb.qc.ca/fr-CA/enseignement/primaire/ecoles/liste/martin-belanger.aspx	Martin-Bélanger	École primaire	Ouellette Lachine	514595-2057	"29, av. Ouellette
Lachine "
Québec	Montreal	http://www3.csmb.qc.ca/ecoles/Default.aspx?alias=www3.csmb.qc.ca/ecoles/saint-clement	primaire	Commission scolaire Marguerite-Bourgeoys	French	http://www.csmb.qc.ca/fr-CA/enseignement/primaire/ecoles/liste/saint-clement-est.aspx	Saint-Clément Est | Territoire en consultation*	École primaire	Laird Mont-Royal	514739-5322	"1560, bd Laird
Mont-Royal "
Québec	Montreal	http://epmb.ecoleouestmtl.com	primaire	Commission scolaire Marguerite-Bourgeoys	French	http://www.csmb.qc.ca/fr-CA/enseignement/primaire/ecoles/liste/marguerite-bourgeoys.aspx	Marguerite-Bourgeoys	École primaire	Sainte-Anne Pointe-Claire	514855-4236	"3, rue Sainte-Anne
Pointe-Claire "
Québec	Montreal	http://nddlp.ecoleverdun.com/	primaire	Commission scolaire Marguerite-Bourgeoys	French	http://www.csmb.qc.ca/fr-CA/enseignement/primaire/ecoles/liste/notre-dame-de-la-paix.aspx	Notre-Dame-de-la-Paix	École primaire	Caisse Verdun	514765-7565	"454, rue Caisse
Verdun "
Québec	Montreal	http://murielle-dumont.ecoleouestmtl.com/ 	primaire	Commission scolaire Marguerite-Bourgeoys	French	http://www.csmb.qc.ca/fr-CA/enseignement/primaire/ecoles/liste/murielle-dumont.aspx	Murielle-Dumont	École primaire	Valois Pierrefonds	514855-4211	"5005, rue Valois
Pierrefonds "
Québec	Montreal	http://www.nddr.ecolelasalle.com	primaire	Commission scolaire Marguerite-Bourgeoys	French	http://www.csmb.qc.ca/fr-CA/enseignement/primaire/ecoles/liste/notre-dame-des-rapides.aspx	Notre-Dame-des-Rapides	École primaire	George LaSalle	514595-2052	"8585, rue George
LaSalle "
Québec	Montreal	http://henribeaulieu.ecolesaintlaurent.ca/	primaire	Commission scolaire Marguerite-Bourgeoys	French	http://www.csmb.qc.ca/fr-CA/enseignement/primaire/ecoles/liste/henri-beaulieu.aspx	Henri-Beaulieu	École primaire	Bleignier Saint-Laurent	514332-0742	"235, rue Bleignier
Saint-Laurent "
Québec	Montreal	http://gentilly.ecoleouest.com/	primaire	Commission scolaire Marguerite-Bourgeoys	French	http://www.csmb.qc.ca/fr-CA/enseignement/primaire/ecoles/liste/gentilly.aspx	Gentilly	École primaire	Fénelon Dorval	514855-4229	"355, rue Fénelon
Dorval "
Québec	Montreal	http://monseigneur-richard.ecoleverdun.com	secondaire	Commission scolaire Marguerite-Bourgeoys	French	http://www.csmb.qc.ca/fr-CA/enseignement/secondaire/ecoles/liste/monseigneur-richard.aspx	Monseigneur-Richard	École secondaire	Gaétan-Laberge Verdun	514765-7666	"3000, bd Gaétan-Laberge
Verdun "
Québec	Montreal	http://emilenelligan.ecoleouest.com/	primaire	Commission scolaire Marguerite-Bourgeoys	French	http://www.csmb.qc.ca/fr-CA/enseignement/primaire/ecoles/liste/emile-nelligan.aspx	Émile-Nelligan | Territoire en consultation*	École primaire	Charlevoix Kirkland	514855-4235	"101, rue Charlevoix
Kirkland "
Québec	Montreal	http://hdn.ecoleouestmtl.com	primaire	Commission scolaire Marguerite-Bourgeoys	French	http://www.csmb.qc.ca/fr-CA/enseignement/primaire/ecoles/liste/harfang-des-neiges.aspx	Harfang-des-Neiges	École primaire	Ouest Pierrefonds	514855-4226	"9506, bd Gouin Ouest
Pierrefonds "
Québec	Montreal	https://enfantsdumonde.ecolesaintlaurent.ca/	primaire	Commission scolaire Marguerite-Bourgeoys	French	http://www.csmb.qc.ca/fr-CA/enseignement/primaire/ecoles/liste/enfants-du-monde.aspx	Enfants-du-Monde	École primaire	Marcel Saint-Laurent	514855-2274	"2915, rue Marcel
Saint-Laurent "
Québec	Montreal	http://www3.csmb.qc.ca/ecoles/edouard-laurin	primaire	Commission scolaire Marguerite-Bourgeoys	French	http://www.csmb.qc.ca/fr-CA/enseignement/primaire/ecoles/liste/edouard-laurin.aspx	Édouard-Laurin	École primaire	Tassé Saint-Laurent	514744-1422	"1085, rue Tassé
Saint-Laurent "
Québec	Montreal	http://guydrummond.ecoleoutremont.com	primaire	Commission scolaire Marguerite-Bourgeoys	French	http://www.csmb.qc.ca/fr-CA/enseignement/primaire/ecoles/liste/guy-drummond.aspx	Guy-Drummond	École primaire	Lajoie Outremont	514270-4866	"1475, av. Lajoie
Outremont "
Québec	Montreal	http://www3.csmb.qc.ca/ecoles/Default.aspx?alias=www3.csmb.qc.ca/ecoles/rose-virginie-pelletier 		Commission scolaire Marguerite-Bourgeoys	French	http://www.csmb.qc.ca/fr-CA/enseignement/secondaire/ecoles/liste/ecole-speciale-rose-virginie-pelletier.aspx	Rose-Virginie-Pelletier	École spécialisée	Ouest Pierrefonds	514855-4216	"9469, bd Gouin Ouest
Pierrefonds "
Québec	Montreal	http://dupetitcollege.ecolelasalle.com/	primaire	Commission scolaire Marguerite-Bourgeoys	French	http://www.csmb.qc.ca/fr-CA/enseignement/primaire/ecoles/liste/du-petit-college.aspx	du Petit-Collège	École primaire	Jean-Milot LaSalle	514748-4661	"9343, rue Jean-Milot
LaSalle "
Québec	Montreal	http://www3.csmb.qc.ca/ecoles/Default.aspx?alias=www3.csmb.qc.ca/ecoles/enfantsoleil	primaire	Commission scolaire Marguerite-Bourgeoys	French	http://www.csmb.qc.ca/fr-CA/enseignement/primaire/ecoles/liste/enfant-soleil.aspx	Enfant-Soleil	École primaire	Tassé Saint-Laurent	514747-3065	"1615, rue Tassé
Saint-Laurent "
Québec	Montreal	http://www3.csmb.qc.ca/ecoles/Default.aspx?alias=www3.csmb.qc.ca/ecoles/montroyal	secondaire	Commission scolaire Marguerite-Bourgeoys	French	http://www.csmb.qc.ca/fr-CA/enseignement/secondaire/ecoles/liste/mont-royal.aspx	Mont-Royal	École secondaire	Montgomery Mont-Royal	514731-2761	"50, rue Montgomery
Mont-Royal "
Québec	Montreal	http://felixleclerc.ecoleouest.com/  	secondaire	Commission scolaire Marguerite-Bourgeoys	French	http://www.csmb.qc.ca/fr-CA/enseignement/secondaire/ecoles/liste/felix-leclerc.aspx	Félix-Leclerc	École secondaire	Inglewood Pointe-Claire	514855-4225	"311, rue Inglewood
Pointe-Claire "
Québec	Montreal	http://dgc.ecoleouestmtl.com/	primaire	Commission scolaire Marguerite-Bourgeoys	French	http://www.csmb.qc.ca/fr-CA/enseignement/primaire/ecoles/liste/du-grand-chene.aspx	du Grand-Chêne | Territoire en consultation*	École primaire	Savoie Pierrefonds	514855-4210	"5080, rue de Savoie
Pierrefonds "
Québec	Montreal	http://jfk.servicescsmb.com/		Commission scolaire Marguerite-Bourgeoys	French	http://www.csmb.qc.ca/fr-CA/enseignement/secondaire/ecoles/liste/ecole-speciale-john-f-kennedy.aspx	John-F.-Kennedy	École spécialisée	Elm Beaconsfield	514855-4204	"215, rue Elm
Beaconsfield "
Québec	Montreal	http://www3.csmb.qc.ca/ecoles/Default.aspx?alias=www3.csmb.qc.ca/ecoles/du-bout-de-lisle	primaire	Commission scolaire Marguerite-Bourgeoys	French	http://www.csmb.qc.ca/fr-CA/enseignement/primaire/ecoles/liste/du-bout-de-lisle.aspx	du Bout-de-l'Isle	École primaire	Vallée Sainte-Anne-de-Bellevue	514855-4240	"190, rue Vallée
Sainte-Anne-de-Bellevue "
Québec	Montreal	http://duboisdeliesse.ecoleouestmtl.com	primaire	Commission scolaire Marguerite-Bourgeoys	French	http://www.csmb.qc.ca/fr-CA/enseignement/primaire/ecoles/liste/du-bois-de-liesse.aspx	du Bois-de-Liesse | Territoire en consultation*	École primaire	Dollard-Des Ormeaux	514748-4664	"175, rue Sonata
Dollard-Des Ormeaux "
Québec	Montreal	http://dorvaljean23.ecoleouestmtl.com/	secondaire	Commission scolaire Marguerite-Bourgeoys	French	http://www.csmb.qc.ca/fr-CA/enseignement/secondaire/ecoles/liste/dorval-jean-xxiii.aspx	Dorval-Jean-XXIII	École secondaire	Carson Dorval	514855-4244	"1350, rue Carson
Dorval "
Québec	Montreal	http://desmarguerite.ecoleverdun.com/	primaire	Commission scolaire Marguerite-Bourgeoys	French	http://www.csmb.qc.ca/fr-CA/enseignement/primaire/ecoles/liste/des-marguerite.aspx	des Marguerite	École primaire	l'Île-des-Soeurs Verdun	514748-4641	"100, bd de l'Île-des-Soeurs
Verdun "
Québec	Montreal	http://desgrandsetres.ecolesaintlaurent.ca/	primaire	Commission scolaire Marguerite-Bourgeoys	French	http://www.csmb.qc.ca/fr-CA/enseignement/primaire/ecoles/liste/des-grands-etres.aspx	des Grands-Êtres	École primaire	Deguire Saint-Laurent	514748-4663	"1150, rue Deguire
Saint-Laurent "
Québec	Montreal	http://www3.csmb.qc.ca/ecoles/dollard-des-ormeaux	primaire	Commission scolaire Marguerite-Bourgeoys	French	http://www.csmb.qc.ca/fr-CA/enseignement/primaire/ecoles/liste/dollard-des-ormeaux.aspx	Dollard-Des Ormeaux	École primaire	Dollard-Des Ormeaux	514855-4209	"35, rue Anselme-Lavigne
Dollard-Des Ormeaux "
Québec	Montreal	http://www.desdecouvreurs.ecolelasalle.com 	primaire	Commission scolaire Marguerite-Bourgeoys	French	http://www.csmb.qc.ca/fr-CA/enseignement/primaire/ecoles/liste/des-decouvreurs.aspx	des Découvreurs	École primaire	Avenue LaSalle	514366-0028	"845, 39e Avenue
LaSalle "
Québec	Montreal	http://www3.csmb.qc.ca/ecoles/de-la-mosaique	primaire	Commission scolaire Marguerite-Bourgeoys	French	http://www.csmb.qc.ca/fr-CA/enseignement/primaire/ecoles/liste/de-la-mosaique.aspx	de la Mosaïque	École primaire	McMurray Côte-Saint-Luc	514484-5324	"5621, av. McMurray
Côte-Saint-Luc "
Québec	Montreal	http://www2.csmb.qc.ca/csl/	secondaire	Commission scolaire Marguerite-Bourgeoys	French	http://www.csmb.qc.ca/fr-CA/enseignement/secondaire/ecoles/liste/college-saint-louis.aspx	Collège Saint-Louis	École secondaire	Avenue Lachine	514855-4198	"275, 36e Avenue
Lachine "
Québec	Montreal	http://www.cimme.ca/		Commission scolaire Marguerite-Bourgeoys	French	http://www.csmb.qc.ca/fr-CA/enseignement/formationprofessionnelle/centres/liste/cimme.aspx	Centre intégré de mécanique, de métallurgie et d'électricité (CIMME)	Centre de formation professionnelle	Ducas LaSalle	514364-5300	"1100, rue Ducas
LaSalle "
Québec	Montreal	http://www2.csmb.qc.ca/dalbeviau/index.php	secondaire	Commission scolaire Marguerite-Bourgeoys	French	http://www.csmb.qc.ca/fr-CA/enseignement/secondaire/ecoles/liste/dalbe-viau.aspx	Dalbé-Viau	École secondaire	Esther-Blondin Lachine	514855-4232	"740, av. Esther-Blondin
Lachine "
Québec	Montreal	http://ciavl.ca/		Commission scolaire Marguerite-Bourgeoys	French	http://www.csmb.qc.ca/fr-CA/enseignement/formationprofessionnelle/centres/liste/cia-verdun-lasalle.aspx	Collège d’informatique et d’administration Verdun-LaSalle	Centre de formation professionnelle	Moffat Verdun	514761-8022	"1240, rue Moffat
Verdun "
Québec	Montreal	http://www2.csmb.qc.ca/dessources/	secondaire	Commission scolaire Marguerite-Bourgeoys	French	http://www.csmb.qc.ca/fr-CA/enseignement/secondaire/ecoles/liste/des-sources.aspx	des Sources	École secondaire	Dollard-Des Ormeaux	514855-4208	"2900, rue Lake
Dollard-Des Ormeaux "
Québec	Montreal	http://www3.csmb.qc.ca/ecoles/chanoine-joseph-theoret/Accueil/tabid/2178/Default.aspx	primaire	Commission scolaire Marguerite-Bourgeoys	French	http://www.csmb.qc.ca/fr-CA/enseignement/primaire/ecoles/liste/chanoine-joseph-theoret.aspx	Chanoine-Joseph-Théorêt	École primaire	Avenue Verdun	514765-7600	"990, 5e Avenue
Verdun "
Québec	Montreal	http://desamisdumonde.ecoleouestmtl.com	primaire	Commission scolaire Marguerite-Bourgeoys	French	http://www.csmb.qc.ca/fr-CA/enseignement/primaire/ecoles/liste/des-amis-du-monde.aspx	des Amis-du-Monde	École primaire	Mackle Côte-Saint-Luc	514369-6951	"8205, chemin Mackle
Côte-Saint-Luc "
Québec	Montreal	http://www.cfpsante.ca/		Commission scolaire Marguerite-Bourgeoys	French	http://www.csmb.qc.ca/fr-CA/enseignement/formationprofessionnelle/centres/liste/cfp-metiers-sante.aspx	Centre de formation professionnelle des métiers de la santé	Centre de formation professionnelle	Saint-Charles Kirkland	514333-8886	"3501, bd Saint-Charles
Kirkland "
Québec	Montreal	http://www.cfpldevinci.ca/		Commission scolaire Marguerite-Bourgeoys	French	http://www.csmb.qc.ca/fr-CA/enseignement/formationprofessionnelle/centres/liste/cfp-leonard-de-vinci.aspx	Centre de formation professionnelle Léonard-De Vinci	Centre de formation professionnelle	Côte-Vertu Saint-Laurent	514855-2273	"3200, bd de la Côte-Vertu
Saint-Laurent "
Québec	Montreal	http://www.cea-jeanne-sauve.ca		Commission scolaire Marguerite-Bourgeoys	French	http://www.csmb.qc.ca/fr-CA/enseignement/formationprofessionnelle/centres/liste/cea-jeanne-sauve.aspx	Centre d'éducation des adultes Jeanne-Sauvé	Centre d'éducation des adultes	Mimosa Dorval	514855-4195	"305, av. Mimosa
Dorval "
Québec	Montreal	http://www.cea-champlain.ca 		Commission scolaire Marguerite-Bourgeoys	French	http://www.csmb.qc.ca/fr-CA/enseignement/formationprofessionnelle/centres/liste/cea-champlain.aspx	Centre d'éducation des adultes Champlain	Centre d'éducation des adultes	Argyle Verdun	514765-7686	"1201, rue Argyle
Verdun "
Québec	Montreal	http://cavelier.ecolelasalle.com/	secondaire	Commission scolaire Marguerite-Bourgeoys	French	http://www.csmb.qc.ca/fr-CA/enseignement/secondaire/ecoles/liste/cavelier-de-lasalle.aspx	Cavelier-De LaSalle	École secondaire	Centrale LaSalle	514595-2044	"9199, rue Centrale
LaSalle "
Québec	Montreal	http://www3.csmb.qc.ca/ecoles/Default.aspx?alias=www3.csmb.qc.ca/ecoles/grand-heron	primaire	Commission scolaire Marguerite-Bourgeoys	French	http://www.csmb.qc.ca/fr-CA/enseignement/primaire/ecoles/liste/du-grand-heron.aspx	du Grand-Héron	École primaire	Centrale LaSalle	514365-9337	"7676, rue Centrale
LaSalle "
Québec	Montreal	http://desbergesdelachine.ecolelachine.com/	primaire	Commission scolaire Marguerite-Bourgeoys	French	http://www.csmb.qc.ca/fr-CA/enseignement/primaire/ecoles/liste/des-berges-de-lachine.aspx	des Berges-de-Lachine	École primaire	Avenue Lachine	514748-4662	"50, 34e Avenue
Lachine "
Québec	Montreal	http://www.cfpl.ca/		Commission scolaire Marguerite-Bourgeoys	French	http://www.csmb.qc.ca/fr-CA/enseignement/formationprofessionnelle/centres/liste/cfp-lachine.aspx	Centre de formation professionnelle de Lachine	Centre de formation professionnelle	Esther-Blondin Lachine	514855-4185	"750, rue Esther-Blondin
Lachine "
Québec	Montreal	http://outremont.centrecsmb.com/		Commission scolaire Marguerite-Bourgeoys	French	http://www.csmb.qc.ca/fr-CA/enseignement/formationprofessionnelle/centres/liste/cea-outremont.aspx	Centre d’éducation des adultes Outremont	Centre d'éducation des adultes	Dollard Outremont	514273-3353	"500, bd Dollard
Outremont "
Québec	Montreal	http://www.cea-lasalle.ca/		Commission scolaire Marguerite-Bourgeoys	French	http://www.csmb.qc.ca/fr-CA/enseignement/formationprofessionnelle/centres/liste/cea-lasalle.aspx	Centre d'éducation des adultes de LaSalle	Centre d'éducation des adultes	Saint-Antoine Lachine	514855-4197	"1625, rue Saint-Antoine
Lachine "
Québec	Montreal	http://www3.csmb.qc.ca/ecoles/Default.aspx?alias=www3.csmb.qc.ca/ecoles/bois-franc-aquarelle	primaire	Commission scolaire Marguerite-Bourgeoys	French	http://www.csmb.qc.ca/fr-CA/enseignement/primaire/ecoles/liste/bois-franc-aquarelle.aspx	Bois-Franc-Aquarelle	École primaire	Londres Saint-Laurent	514855-4227	"2080, rue de Londres
Saint-Laurent "
Québec	Montreal	http://beausejour.ecolesaintlaurent.ca/	primaire	Commission scolaire Marguerite-Bourgeoys	French	http://www.csmb.qc.ca/fr-CA/enseignement/primaire/ecoles/liste/beau-sejour.aspx	Beau-Séjour	École primaire	Beauséjour Saint-Laurent	514334-7350	"3600, rue Beauséjour
Saint-Laurent "
Québec	Montreal	http://cardinalleger.ecolesaintlaurent.ca/	primaire	Commission scolaire Marguerite-Bourgeoys	French	http://www.csmb.qc.ca/fr-CA/enseignement/primaire/ecoles/liste/cardinal-leger.aspx	Cardinal-Léger	École primaire	Decelles Saint-Laurent	514744-0763	"2000, rue Decelles
Saint-Laurent "
Québec	Montreal	http://catherinesoumillard.ecolelachine.com/	primaire	Commission scolaire Marguerite-Bourgeoys	French	http://www.csmb.qc.ca/fr-CA/enseignement/primaire/ecoles/liste/catherine-soumillard.aspx	Catherine-Soumillard	École primaire	Avenue Lachine	514855-4231	"250, 48e Avenue
Lachine "
Québec	Montreal	http://www3.csmb.qc.ca/ecoles/beaconsfield	primaire	Commission scolaire Marguerite-Bourgeoys	French	http://www.csmb.qc.ca/fr-CA/enseignement/primaire/ecoles/liste/beaconsfield.aspx	Beaconsfield	École primaire	Sweetbriar Beaconsfield	514855-4203	"91, pr. Sweetbriar
Beaconsfield "
