province	city	school_url	school_grades	school_board	school_language	response_url	school_name	school_type	postal_code	phone_number	street_address
ON	Kleinburg 	http://csviamonde.ca/ecoles/lafontaine	Elementary	Conseil scolaire Viamonde	French	http://csviamonde.ca/nosecoles/Pages/School-Detail.aspx?GroupGUID=110&CategoryCode=ELEM&city=Kleinburg	École élémentaire La Fontaine	Elementary	L0J 1C0	905 893-1280	10110, avenue Islington C.P. 279
ON	Barrie 	http://csviamonde.ca/ecoles/lasource	Elementary	Conseil scolaire Viamonde	French	http://csviamonde.ca/nosecoles/Pages/School-Detail.aspx?GroupGUID=102&CategoryCode=ELEM&city=Barrie	École élémentaire La Source	Elementary	L4N 9T2	705 730-6625	70, promenade Madelaine
ON	London 	www.facebook.com/EELaPommeraie	Elementary	Conseil scolaire Viamonde	French	http://csviamonde.ca/nosecoles/Pages/School-Detail.aspx?GroupGUID=138&CategoryCode=ELEM&city=London	École élémentaire La Pommeraie	Elementary	N6P 0C3	226 213-4515	3500, Settlement Trail
ON	Toronto 	http://csviamonde.ca/ecoles/alexandredumas	Elementary	Conseil scolaire Viamonde	French	http://csviamonde.ca/nosecoles/Pages/School-Detail.aspx?GroupGUID=151&CategoryCode=ELEM&city=Toronto	Académie Alexandre-Dumas	Elementary	M1E 2J3	416 283-7749	255, promenade Coronation
ON	Toronto 	http://csviamonde.ca/ecoles/lamosaique	Elementary	Conseil scolaire Viamonde	French	http://csviamonde.ca/nosecoles/Pages/School-Detail.aspx?GroupGUID=117&CategoryCode=ELEM&city=Toronto	École élémentaire La Mosaïque	Elementary	M4J 1Y3	416 465-5757	80 avenue Queensdale
ON	St. Catharines 	http://csviamonde.ca/ecoles/lheritage	Elementary	Conseil scolaire Viamonde	French	http://csviamonde.ca/nosecoles/Pages/School-Detail.aspx?GroupGUID=135&CategoryCode=ELEM&city=St.%20Catharines	École élémentaire L’Héritage	Elementary	L2N 3Y8	905 937-4608	35, promenade Prince Charles
ON	Guelph 	http://csviamonde.ca/ecoles/lodyssee	Elementary	Conseil scolaire Viamonde	French	http://csviamonde.ca/nosecoles/Pages/School-Detail.aspx?GroupGUID=127&CategoryCode=ELEM&city=Guelph	École élémentaire L’Odyssée	Elementary	N1E 3S9	519 837-4420	30, rue Brighton
ON	Waterloo 	http://csviamonde.ca/ecoles/lharmonie	Elementary	Conseil scolaire Viamonde	French	http://csviamonde.ca/nosecoles/Pages/School-Detail.aspx?GroupGUID=126&CategoryCode=ELEM&city=Waterloo	École élémentaire L’Harmonie	Elementary	N2J 2K4	519 746-7224	158, Bridgeport Est
ON	Windsor 	http://csviamonde.ca/ecoles/lenvolee	Elementary	Conseil scolaire Viamonde	French	http://csviamonde.ca/nosecoles/Pages/School-Detail.aspx?GroupGUID=160&CategoryCode=ELEM&city=Windsor	École élémentaire L’Envolée	Elementary	N8Y 1R4	519 259-4860	1799, rue Ottawa
ON	Toronto 	http://csviamonde.ca/ecoles/jeannelajoie	Elementary	Conseil scolaire Viamonde	French	http://csviamonde.ca/nosecoles/Pages/School-Detail.aspx?GroupGUID=112&CategoryCode=ELEM&city=Toronto	École élémentaire Jeanne-Lajoie	Elementary	M4A 2K7	416 397-2080	150, rue Carnforth
ON	Toronto 	http://csviamonde.ca/ecoles/gabrielleroy	Elementary	Conseil scolaire Viamonde	French	http://csviamonde.ca/nosecoles/Pages/School-Detail.aspx?GroupGUID=113&CategoryCode=ELEM&city=Toronto	École élémentaire Gabrielle-Roy	Elementary	M5A 2N7	416 393-1360	14, rue Pembroke
ON	Mississauga 	http://csviamonde.ca/ecoles/horizonjeunesse	Elementary	Conseil scolaire Viamonde	French	http://csviamonde.ca/nosecoles/Pages/School-Detail.aspx?GroupGUID=120&CategoryCode=ELEM&city=Mississauga	École élémentaire Horizon Jeunesse	Elementary	L5J 3R2	905 403-0950	1445, promenade Lewisham
ON	Toronto 	http://csviamonde.ca/ecoles/felixleclerc	Elementary	Conseil scolaire Viamonde	French	http://csviamonde.ca/nosecoles/Pages/School-Detail.aspx?GroupGUID=115&CategoryCode=ELEM&city=Toronto	École élémentaire Félix-Leclerc	Elementary	M9R 3N3	416 397-2075	50, chemin Celestine
ON	Orangeville 	http://csviamonde.ca/ecoles/quatrerivieres	Elementary	Conseil scolaire Viamonde	French	http://csviamonde.ca/nosecoles/Pages/School-Detail.aspx?GroupGUID=106&CategoryCode=ELEM&city=Orangeville	École élémentaire des Quatre-Rivières	Elementary	L9W 3K4	519 940-5145	60, promenade Century
ON	Oakville 	http://csviamonde.ca/ecoles/duchene	Elementary	Conseil scolaire Viamonde	French	http://csviamonde.ca/nosecoles/Pages/School-Detail.aspx?GroupGUID=168&CategoryCode=ELEM&city=Oakville	École élémentaire du Chêne	Elementary	L6H 1B8	905 815-8900	150, promenade Ridge
ON	Barrie 	http://csviamonde.ca/ecoles/romeodallaire	Secondary	Conseil scolaire Viamonde	French	http://csviamonde.ca/nosecoles/Pages/School-Detail.aspx?GroupGUID=279&CategoryCode=SEC&city=Barrie	École secondaire Roméo-Dallaire	Secondary	L4N 9E9	705 792-2341	736, chemin Essa
ON	Penetanguishene 	http://csviamonde.ca/ecoles/lecaron	Secondary	Conseil scolaire Viamonde	French	http://csviamonde.ca/nosecoles/Pages/School-Detail.aspx?GroupGUID=299&CategoryCode=SEC&city=Penetanguishene	École secondaire Le Caron	Secondary	L9M 1N8	705 549-3202	22, rue John
ON	Hamilton 	http://csviamonde.ca/ecoles/georgespvanier	Secondary	Conseil scolaire Viamonde	French	http://csviamonde.ca/nosecoles/Pages/School-Detail.aspx?GroupGUID=229&CategoryCode=SEC&city=Hamilton	École secondaire Georges-P.-Vanier	Secondary	L8S 3S1	905 528-0301	100, rue Macklin Nord
ON	Brampton 	http://csviamonde.ca/ecoles/jeunessansfrontieres	Secondary	Conseil scolaire Viamonde	French	http://csviamonde.ca/nosecoles/Pages/School-Detail.aspx?GroupGUID=208&CategoryCode=SEC&city=Brampton	École secondaire Jeunes sans frontières	Secondary	L6Y 5P4	905 450-1106	7585, promenade Financial
ON	Oakville 	http://csviamonde.ca/ecoles/gaetangervais	Secondary	Conseil scolaire Viamonde	French	http://csviamonde.ca/nosecoles/Pages/School-Detail.aspx?GroupGUID=263&CategoryCode=SEC&city=Oakville	École secondaire Gaétan-Gervais	Secondary	L6H 1B8	905 815-8900	150, promenade Ridge
ON	London 	http://csviamonde.ca/ecoles/gabrieldumont	Secondary	Conseil scolaire Viamonde	French	http://csviamonde.ca/nosecoles/Pages/School-Detail.aspx?GroupGUID=249&CategoryCode=SEC&city=London	École secondaire Gabriel-Dumont	Secondary	N6M 0B1	519 673-4552	2463, boulevard Evans
ON	Sarnia 	http://csviamonde.ca/ecoles/francojeunesse	Secondary	Conseil scolaire Viamonde	French	http://csviamonde.ca/nosecoles/Pages/School-Detail.aspx?GroupGUID=259&CategoryCode=SEC&city=Sarnia	École secondaire Franco-Jeunesse	Secondary	N7S 6K2	519 542-5970	901, Promenade Rapids
ON	Windsor 	http://csviamonde.ca/ecoles/lamothecadillac	Secondary	Conseil scolaire Viamonde	French	http://csviamonde.ca/nosecoles/Pages/School-Detail.aspx?GroupGUID=269&CategoryCode=SEC&city=Windsor	École secondaire de Lamothe-Cadillac	Secondary	N9B 1X4	519 253-0929	1775, rue Totten
ON	Toronto 	http://csviamonde.ca/ecoles/etiennebrule	Secondary	Conseil scolaire Viamonde	French	http://csviamonde.ca/nosecoles/Pages/School-Detail.aspx?GroupGUID=218&CategoryCode=SEC&city=Toronto	École secondaire Étienne-Brûlé	Secondary	M2L 2V3	416 397-2085	300, chemin Banbury
ON	Welland 	http://csviamonde.ca/ecoles/confederation	Secondary	Conseil scolaire Viamonde	French	http://csviamonde.ca/nosecoles/Pages/School-Detail.aspx?GroupGUID=239&CategoryCode=SEC&city=Welland	École secondaire Confédération	Secondary	L3B 4G2	905 732-1361	670, avenue Tanguay
ON	Pickering 	http://csviamonde.ca/ecoles/ronaldmarion	Secondary	Conseil scolaire Viamonde	French	http://csviamonde.ca/nosecoles/Pages/School-Detail.aspx?GroupGUID=223&CategoryCode=SEC&city=Pickering	École Ronald-Marion	Secondary	L1V 2P8	905 683-9730	2235, chemin Brock
ON	Toronto 	http://csviamonde.ca/ecoles/collegefrancais	Secondary	Conseil scolaire Viamonde	French	http://csviamonde.ca/nosecoles/Pages/School-Detail.aspx?GroupGUID=219&CategoryCode=SEC&city=Toronto	Collège français	Secondary	M5B 1M3	416 393-0175	100, rue Carlton
ON	Pickering 	http://csviamonde.ca/ecoles/ronaldmarion	Elementary	Conseil scolaire Viamonde	French	http://csviamonde.ca/nosecoles/Pages/School-Detail.aspx?GroupGUID=123&CategoryCode=ELEM&city=Pickering	École Ronald-Marion	Elementary	L1V 2P8	905 683-9730	2235, chemin Brock
ON	Burlington 	http://csviamonde.ca/ecoles/renaissance	Elementary	Conseil scolaire Viamonde	French	http://csviamonde.ca/nosecoles/Pages/School-Detail.aspx?GroupGUID=122&CategoryCode=ELEM&city=Burlington	École élémentaire Renaissance	Elementary	L7S 1H1	905 637-3852	1226, chemin Lockhart
ON	Penetanguishene 	http://csviamonde.ca/ecoles/saintjoseph	Elementary	Conseil scolaire Viamonde	French	http://csviamonde.ca/nosecoles/Pages/School-Detail.aspx?GroupGUID=101&CategoryCode=ELEM&city=Penetanguishene	École publique Saint-Joseph	Elementary	L9M 1N4	705 549-3124	30, rue Poyntz
ON	Toronto 	http://csviamonde.ca/ecoles/pierreelliotttrudeau	Elementary	Conseil scolaire Viamonde	French	http://csviamonde.ca/nosecoles/Pages/School-Detail.aspx?GroupGUID=109&CategoryCode=ELEM&city=Toronto	École élémentaire Pierre-Elliott-Trudeau	Elementary	M6J 2S4	416 397-2097	65, rue Grace
ON	Hamilton 	http://csviamonde.ca/ecoles/pavillondelajeunesse	Elementary	Conseil scolaire Viamonde	French	http://csviamonde.ca/nosecoles/Pages/School-Detail.aspx?GroupGUID=128&CategoryCode=ELEM&city=Hamilton	École élémentaire Pavillon de la jeunesse	Elementary	L8T 3Z4	905 318-3816	105, rue High
ON	Oakville 	http://csviamonde.ca/ecoles/patriciapicknell	Elementary	Conseil scolaire Viamonde	French	http://csviamonde.ca/nosecoles/Pages/School-Detail.aspx?GroupGUID=121&CategoryCode=ELEM&city=Oakville	École élémentaire Patricia-Picknell	Elementary	L6L 1X5	905 465-0512	1257, croissant Sedgewick
ON	Welland 	http://csviamonde.ca/ecoles/nouvelhorizon	Elementary	Conseil scolaire Viamonde	French	http://csviamonde.ca/nosecoles/Pages/School-Detail.aspx?GroupGUID=133&CategoryCode=ELEM&city=Welland	École élémentaire Nouvel Horizon	Elementary	L3C 3H1	905 734-7693	621, chemin Quaker
ON	Toronto 	http://csviamonde.ca/ecoles/mathieudacosta	Elementary	Conseil scolaire Viamonde	French	http://csviamonde.ca/nosecoles/Pages/School-Detail.aspx?GroupGUID=114&CategoryCode=ELEM&city=Toronto	École élémentaire Mathieu-Da-Costa	Elementary	M6L 2K5	416 397-2000	116, Cornelius Parkway
ON	London 	http://csviamonde.ca/ecoles/mariecurie	Elementary	Conseil scolaire Viamonde	French	http://csviamonde.ca/nosecoles/Pages/School-Detail.aspx?GroupGUID=140&CategoryCode=ELEM&city=London	École élémentaire Marie-Curie	Elementary	N6H 3Y3	519 471-5677	40, promenade Hunt Club
ON	Windsor 	www.facebook.com/EELouiseCharron	Elementary	Conseil scolaire Viamonde	French	http://csviamonde.ca/nosecoles/Pages/School-Detail.aspx?GroupGUID=137&CategoryCode=ELEM&city=Windsor	École élémentaire Louise-Charron	Elementary	N9G 1E5	226 315-1878	2520 Chemin Cabana Ouest
ON	Sarnia 	http://csviamonde.ca/ecoles/lesrapides	Elementary	Conseil scolaire Viamonde	French	http://csviamonde.ca/nosecoles/Pages/School-Detail.aspx?GroupGUID=150&CategoryCode=ELEM&city=Sarnia	École élémentaire Les Rapides	Elementary	N7S 2B5	519 542-6015	1103, avenue Michigan
ON	Toronto 	http://csviamonde.ca/ecoles/laureriese	Elementary	Conseil scolaire Viamonde	French	http://csviamonde.ca/nosecoles/Pages/School-Detail.aspx?GroupGUID=111&CategoryCode=ELEM&city=Toronto	École élémentaire Laure-Rièse	Elementary	M1V 4L3	416 397-2014	339, Alton Towers circle
ON	Niagara Falls 	http://csviamonde.ca/ecoles/lamarsh	Elementary	Conseil scolaire Viamonde	French	http://csviamonde.ca/nosecoles/Pages/School-Detail.aspx?GroupGUID=134&CategoryCode=ELEM&city=Niagara%20Falls	École élémentaire LaMarsh	Elementary	L2E 6C8	905 374-6777	4751, chemin Drummond
ON	Welland 	http://csviamonde.ca/ecoles/champlain	Elementary	Conseil scolaire Viamonde	French	http://csviamonde.ca/nosecoles/Pages/School-Detail.aspx?GroupGUID=130&CategoryCode=ELEM&city=Welland	École élémentaire Champlain	Elementary	L3B 1W1	905 732-3113	101, avenue Afton
ON	Brampton 	http://csviamonde.ca/ecoles/carrefourdesjeunes	Elementary	Conseil scolaire Viamonde	French	http://csviamonde.ca/nosecoles/Pages/School-Detail.aspx?GroupGUID=107&CategoryCode=ELEM&city=Brampton	École élémentaire Carrefour des jeunes	Elementary	L6V 4N4	905 455-7038	375, rue Centre Nord
ON	Oshawa 	http://csviamonde.ca/ecoles/antoninemaillet	Elementary	Conseil scolaire Viamonde	French	http://csviamonde.ca/nosecoles/Pages/School-Detail.aspx?GroupGUID=104&CategoryCode=ELEM&city=Oshawa	École élémentaire Antonine-Maillet	Elementary	L1J 2W3	905 720-0057	615, avenue Ridgeway
ON	London 	http://csviamonde.ca/ecoles/latamise	Elementary	Conseil scolaire Viamonde	French	http://csviamonde.ca/nosecoles/Pages/School-Detail.aspx?GroupGUID=141&CategoryCode=ELEM&city=London	Académie de la Tamise	Elementary	N5W 5P2	519 659-8174	1260, rue Dundas Est
ON	Borden 	http://csviamonde.ca/ecoles/lapinede	Elementary	Conseil scolaire Viamonde	French	http://csviamonde.ca/nosecoles/Pages/School-Detail.aspx?GroupGUID=103&CategoryCode=ELEM&city=Borden	Académie La Pinède	Elementary	L0M 1C0	705 424-5664	116, chemin Waterloo Est
ON	Aurora 	http://csviamonde.ca/ecoles/lamoraine	Elementary	Conseil scolaire Viamonde	French	http://csviamonde.ca/nosecoles/Pages/School-Detail.aspx?GroupGUID=105&CategoryCode=ELEM&city=Aurora	Académie de la Moraine	Elementary	L4G 2S3	905 773-7616	115, rue George
