province	city	school_url	school_grades	school_board	school_language	response_url	school_name	school_type	postal_code	phone_number	street_address
Ontario	Mississauga	http://www.dpcdsb.org/ALLST		Dufferin-Peel Catholic District School Board		http://www3.dpcdsb.org/schools/school-directory	All Saints Separate School		L5L 4E8	905-8286348	4105 Colonial Drive,
Ontario	Mississauga	http://www.dpcdsb.org/ROMER		Dufferin-Peel Catholic District School Board		http://www3.dpcdsb.org/schools/school-directory	Archbishop Romero Catholic SS		L5M4G8	905-4121000	2495 Credit Valley Road,
Ontario	Mississauga	http://www.dpcdsb.org/ASCEN		Dufferin-Peel Catholic District School Board		http://www3.dpcdsb.org/schools/school-directory	Ascension of Our Lord Secondary School		L4T 3H7	905-6761287	7640 Anaka Drive,
Ontario	Brampton	http://www.dpcdsb.org/BFALN		Dufferin-Peel Catholic District School Board		http://www3.dpcdsb.org/schools/school-directory	Bishop Francis Allen School		L6Y 1Z4	905-4574677	325 McMurchy Avenue South,
Ontario	Mississauga	http://www.dpcdsb.org/BSCAL		Dufferin-Peel Catholic District School Board		http://www3.dpcdsb.org/schools/school-directory	Bishop Scalabrini Separate School		L5B 3J5	905-8963665	225 Central Parkway West,
Ontario	Mississauga	http://www.dpcdsb.org/CMART		Dufferin-Peel Catholic District School Board		http://www3.dpcdsb.org/schools/school-directory	Canadian Martyrs Catholic School		L5A 3R7	905-2750094	1185 Mississauga Valley Blvd.,
Ontario	Brampton	http://www.dpcdsb.org/AMBRO		Dufferin-Peel Catholic District School Board		http://www3.dpcdsb.org/schools/school-directory	Cardinal Ambrozic CSS		L6P3A2	905-9132989	10 Castle Oaks Crossing,
Ontario	Brampton	http://www.dpcdsb.org/LEGER		Dufferin-Peel Catholic District School Board		http://www3.dpcdsb.org/schools/school-directory	Cardinal Leger Secondary School		L6W 3K5	905-4532232	75 Mary Street,
Ontario	Brampton	http://www.dpcdsb.org/CNEWM		Dufferin-Peel Catholic District School Board		http://www3.dpcdsb.org/schools/school-directory	Cardinal Newman Catholic School		L6T 1X1	905-7922268	698 Balmoral Drive,
Ontario	Mississauga	http://www.dpcdsb.org/CKING		Dufferin-Peel Catholic District School Board		http://www3.dpcdsb.org/schools/school-directory	Christ the King Catholic School		L5L 5A3	905-5690220	3240 Garthwood Road,
Ontario	Mississauga	http://www.dpcdsb.org/CORPC		Dufferin-Peel Catholic District School Board		http://www3.dpcdsb.org/schools/school-directory	Corpus Christi Separate School		L5B 3N4	905-8977037	4155 Elora Drive,
Ontario	Mississauga	http://www.dpcdsb.org/DMRCY		Dufferin-Peel Catholic District School Board		http://www3.dpcdsb.org/schools/school-directory	Divine Mercy Elementary School		L5M 5C6	905-8125445	2840 Duncairn Drive,
Ontario	Brampton	http://www.dpcdsb.org/CWSUL		Dufferin-Peel Catholic District School Board		http://www3.dpcdsb.org/schools/school-directory	Father C.W. Sullivan School		L6V 2C1	905-4535020	62 Seaborn Road,
Ontario	Brampton	http://www.dpcdsb.org/FCTIP		Dufferin-Peel Catholic District School Board		http://www3.dpcdsb.org/schools/school-directory	Father Clair Tipping School		L6R 1J3	905-7891741	25 Mountainberry Rd.,
Ontario	Mississauga	http://www.dpcdsb.org/ZANON		Dufferin-Peel Catholic District School Board		http://www3.dpcdsb.org/schools/school-directory	Father Daniel Zanon		L5B 4J3	905-2793722	450 Hillcrest Ave.,
Ontario	Brampton	http://www.dpcdsb.org/MCSPI		Dufferin-Peel Catholic District School Board		http://www3.dpcdsb.org/schools/school-directory	Father Francis McSpiritt Catholic Elementary School		L6P 2B1	905-7945031	55 Lexington Road,
Ontario	Mississauga	http://www.dpcdsb.org/GOETZ		Dufferin-Peel Catholic District School Board		http://www3.dpcdsb.org/schools/school-directory	Father Michael Goetz Secondary School		L5B 3K6	905-2770326	330 Central Parkway West,
Ontario	Brampton	http://www.dpcdsb.org/GVANI		Dufferin-Peel Catholic District School Board		http://www3.dpcdsb.org/schools/school-directory	Georges Vanier Catholic School		L6T 3H9	905-7922251	28 Finchgate Boulevard,
Ontario	Brampton	http://www.dpcdsb.org/GSHEP		Dufferin-Peel Catholic District School Board		http://www3.dpcdsb.org/schools/school-directory	Good Shepherd Elementary School		L6R 2H9	905-7911039	28 Red River Drive,
Ontario	Brampton	http://www.dpcdsb.org/GANGL		Dufferin-Peel Catholic District School Board		http://www3.dpcdsb.org/schools/school-directory	Guardian Angels Elementary School		L7A 2H4	905-5950909	62 Heatherdale Dr.,
Ontario	Mississauga	http://www.dpcdsb.org/HCROS		Dufferin-Peel Catholic District School Board		http://www3.dpcdsb.org/schools/school-directory	Holy Cross Separate School		L4T 1Y4	905-6775660	3615 Morning Star Drive,
Ontario	Bolton	http://www.dpcdsb.org/HOFAM		Dufferin-Peel Catholic District School Board		http://www3.dpcdsb.org/schools/school-directory	Holy Family Elementary School		L7E 1P7	905-8571300	61 Allan Drive,
Ontario	Brampton	http://www.dpcdsb.org/HNMRY		Dufferin-Peel Catholic District School Board		http://www3.dpcdsb.org/schools/school-directory	Holy Name of Mary Catholic Secondary School		L6S 3J7	905-4585541	115 Glenvale Blvd.,
Ontario	Brampton	http://www.dpcdsb.org/SPRIT		Dufferin-Peel Catholic District School Board		http://www3.dpcdsb.org/schools/school-directory	Holy Spirit Elementary School		L6P1W9	905-7948039	25 Bloomsbury Avenue,
Ontario	Mississauga	http://www.dpcdsb.org/IONAS		Dufferin-Peel Catholic District School Board		http://www3.dpcdsb.org/schools/school-directory	Iona Catholic Secondary School		L5J 2M4	905-8230136	2170 South Sheridan Way,
Ontario	Mississauga	http://www.dpcdsb.org/CABOT		Dufferin-Peel Catholic District School Board		http://www3.dpcdsb.org/schools/school-directory	John Cabot Catholic Secondary School		L4W 3L6	905-2791554	635 Willowbank Trail,
Ontario	Brampton	http://www.dpcdsb.org/LBPEA		Dufferin-Peel Catholic District School Board		http://www3.dpcdsb.org/schools/school-directory	Lester B. Pearson Catholic School		L6S 2G1	905-7934861	140 Howden Boulevard,
Ontario	Mississauga	http://www.dpcdsb.org/LOYOL		Dufferin-Peel Catholic District School Board		http://www3.dpcdsb.org/schools/school-directory	Loyola Catholic Secondary School		L5L6B1	905-8209822	4010 Sladeview Cres.,
Ontario	Mississauga	http://www.dpcdsb.org/MAFIX		Dufferin-Peel Catholic District School Board		http://www3.dpcdsb.org/schools/school-directory	Mary Fix Catholic School		L5B 2M4	905-2703140	486 Paisley Boulevard West,
Ontario	Mississauga	http://www.dpcdsb.org/ANDRE		Dufferin-Peel Catholic District School Board		http://www3.dpcdsb.org/schools/school-directory	Metropolitan Andrei Separate School		L5A 3G6	905-2704151	515 Mississauga Valley Blvd,
Ontario	Brampton	http://www.dpcdsb.org/NDAME		Dufferin-Peel Catholic District School Board		http://www3.dpcdsb.org/schools/school-directory	Notre Dame Secondary School		L6Z 4L5	905-8402802	2 Notre Dame Avenue,
Ontario	Brampton	http://www.dpcdsb.org/OLFAT		Dufferin-Peel Catholic District School Board		http://www3.dpcdsb.org/schools/school-directory	Our Lady of Fatima		L6X 1X1	905-4594737	39 Sunset Boulevard,
Ontario	Mississauga	http://www.dpcdsb.org/OLGDV		Dufferin-Peel Catholic District School Board		http://www3.dpcdsb.org/schools/school-directory	Our Lady of Good Voyage		L5M 4W2	905-5678422	5850 River Grove Avenue,
Ontario	Brampton	http://www.dpcdsb.org/LOURD		Dufferin-Peel Catholic District School Board		http://www3.dpcdsb.org/schools/school-directory	Our Lady of Lourdes Catholic Elementary School		L6P1W3	905-9131703	25 Mount Royal Circle,
Ontario	Mississauga	http://www.dpcdsb.org/OLMCY		Dufferin-Peel Catholic District School Board		http://www3.dpcdsb.org/schools/school-directory	Our Lady of Mercy Elementary School		L5M 5J9	905-8149216	5820 Glen Erin Dr.,
Ontario	Mississauga	http://www.dpcdsb.org/CARMS		Dufferin-Peel Catholic District School Board		http://www3.dpcdsb.org/schools/school-directory	Our Lady of Mt. Carmel Secondary School		L5N 5J7	905-8241025	3700 Trelawny Circle,
Ontario	Brampton	http://www.dpcdsb.org/OLPCE		Dufferin-Peel Catholic District School Board		http://www3.dpcdsb.org/schools/school-directory	Our Lady of Peace Separate School		L6X 3V2	905-4527010	15 Fincham Avenue,
Ontario	Brampton	http://www.dpcdsb.org/PROVI		Dufferin-Peel Catholic District School Board		http://www3.dpcdsb.org/schools/school-directory	Our Lady of Providence		L6R 1B9	905-4587080	35 Black Oak Drive,
Ontario	Brampton	http://www.dpcdsb.org/PVANI		Dufferin-Peel Catholic District School Board		http://www3.dpcdsb.org/schools/school-directory	Pauline Vanier Catholic E S		L6Y4W7	905-4551001	56 Oaklea Blvd,
Ontario	Mississauga	http://www.dpcdsb.org/POCOK		Dufferin-Peel Catholic District School Board		http://www3.dpcdsb.org/schools/school-directory	Philip Pocock Catholic Secondary School		L4W 1J9	905-6026172	4555 Tomken Road,
Ontario	Mississauga	http://www.dpcdsb.org/QHEAV		Dufferin-Peel Catholic District School Board		http://www3.dpcdsb.org/schools/school-directory	Queen of Heaven Elementary School		L5E 2A5	905-2789771	1198 Alexandra Avenue,
Ontario	Caledon East	http://www.dpcdsb.org/RFHAL		Dufferin-Peel Catholic District School Board		http://www3.dpcdsb.org/schools/school-directory	Robert F. Hall Catholic Secondary School		L7C 0H3	905-5841670	6500 Old Church Rd.,
Ontario	Brampton	http://www.dpcdsb.org/HEART		Dufferin-Peel Catholic District School Board		http://www3.dpcdsb.org/schools/school-directory	Sacred Heart Elementary School		L6Z 1Y1	905-8460802	24 Kerwood Place,
Ontario	Mississauga	http://www.dpcdsb.org/LRUIZ		Dufferin-Peel Catholic District School Board		http://www3.dpcdsb.org/schools/school-directory	San Lorenzo Ruiz Elementary School		L4Z 3R1	905-5010400	100 Barondale Dr.,
Ontario	Brampton	http://www.dpcdsb.org/AGNES		Dufferin-Peel Catholic District School Board		http://www3.dpcdsb.org/schools/school-directory	St. Agnes Elementary School		L6Z 4G6	905-8405020	103 Richvale Drive South,
Ontario	Brampton	http://www.dpcdsb.org/AIDAN		Dufferin-Peel Catholic District School Board		http://www3.dpcdsb.org/schools/school-directory	St. Aidan Catholic Elementary School		L7A 3B9	905-8403042	34 Buick Blvd.,
Ontario	Mississauga	http://www.dpcdsb.org/ALBER		Dufferin-Peel Catholic District School Board		http://www3.dpcdsb.org/schools/school-directory	St. Albert of Jerusalem Elementary School		L5N 7G6	905-7859298	7185 Rosehurst Drive,
Ontario	Mississauga	http://www.dpcdsb.org/ALFRD		Dufferin-Peel Catholic District School Board		http://www3.dpcdsb.org/schools/school-directory	St. Alfred Separate School		L4X 2M2	905-6250584	3341 Havenwood Drive,
Ontario	Mississauga	http://www.dpcdsb.org/GONZA		Dufferin-Peel Catholic District School Board		http://www3.dpcdsb.org/schools/school-directory	St. Aloysius Gonzaga Secondary School		L5M 6R5	905-8203900	2800 Erin Centre Blvd.,
Ontario	Brampton	http://www.dpcdsb.org/ALPHO		Dufferin-Peel Catholic District School Board		http://www3.dpcdsb.org/schools/school-directory	St. Alphonsa Catholic Elementary School		L6Y0M4	905-4561403	60 Olivia Marie Road,
Ontario	Brampton	http://www.dpcdsb.org/BESST		Dufferin-Peel Catholic District School Board		http://www3.dpcdsb.org/schools/school-directory	St. Andr√© Bessette Catholic Elementary School		L6P2V7	905-9132567	25 Riverstone Drive,
Ontario	Orangeville	http://www.dpcdsb.org/ANDRW		Dufferin-Peel Catholic District School Board		http://www3.dpcdsb.org/schools/school-directory	St. Andrew Elementary School		L9W 4C8	519-9420262	50 Meadow Drive,
Ontario	Brampton	http://www.dpcdsb.org/MERIC		Dufferin-Peel Catholic District School Board		http://www3.dpcdsb.org/schools/school-directory	St. Angela Merici Catholic Elementary		L7A 2N7	905-8401505	83 Edenbrook Hill Drive,
Ontario	Brampton	http://www.dpcdsb.org/ANNEE		Dufferin-Peel Catholic District School Board		http://www3.dpcdsb.org/schools/school-directory	St. Anne Elementary School		L6V 1M5	905-4597621	124 Vodden Street,
Ontario	Brampton	http://www.dpcdsb.org/ANTHY		Dufferin-Peel Catholic District School Board		http://www3.dpcdsb.org/schools/school-directory	St. Anthony Elementary School		L6S 3L5	905-7922282	950 North Park Drive,
Ontario	Brampton	http://www.dpcdsb.org/AUGST		Dufferin-Peel Catholic District School Board		http://www3.dpcdsb.org/schools/school-directory	St. Augustine Secondary School		L6Y 4T6	905-4509993	27 Drinkwater  Road,
Ontario	Mississauga	http://www.dpcdsb.org/BARBA		Dufferin-Peel Catholic District School Board		http://www3.dpcdsb.org/schools/school-directory	St. Barbara Elementary School		L5N 7Z2	905-6968860	1455 Samuelson Circle,
Ontario	Mississauga	http://www.dpcdsb.org/BASIL		Dufferin-Peel Catholic District School Board		http://www3.dpcdsb.org/schools/school-directory	St. Basil Elementary School		L4W 3G1	905-6244529	4235 Golden Orchard Drive,
Ontario	Orangeville	http://www.dpcdsb.org/BENED		Dufferin-Peel Catholic District School Board		http://www3.dpcdsb.org/schools/school-directory	St. Benedict Elementary School		L9W 4X1	519-9425980	345 Blind Line,
Ontario	Mississauga	http://www.dpcdsb.org/BERNA		Dufferin-Peel Catholic District School Board		http://www3.dpcdsb.org/schools/school-directory	St. Bernadette Elementary School		L5V 1G7	905-5019498	1060 White Clover Way,
Ontario	Mississauga	http://www.dpcdsb.org/BRNRD		Dufferin-Peel Catholic District School Board		http://www3.dpcdsb.org/schools/school-directory	St. Bernard of Clairvaux Catholic Elementary School		L5M 7V5	905-5429203	3345 Escada Drive,
Ontario	Brampton	http://www.dpcdsb.org/BONAV		Dufferin-Peel Catholic District School Board		http://www3.dpcdsb.org/schools/school-directory	St. Bonaventure Catholic Elementary School		L7A 2Z5	905-9709069	35 McCrimmon Drive,
Ontario	Brampton	http://www.dpcdsb.org/BRIGD		Dufferin-Peel Catholic District School Board		http://www3.dpcdsb.org/schools/school-directory	St. Brigid Elementary School		L6Y 2X4	905-4540316	81 Torrance Woods,
Ontario	Mississauga	http://www.dpcdsb.org/SIENA		Dufferin-Peel Catholic District School Board		http://www3.dpcdsb.org/schools/school-directory	St. Catherine of Siena Separate School		L5B 1N1	905-2772448	2350 Hurontario Street South,
Ontario	Brampton	http://www.dpcdsb.org/CCILA		Dufferin-Peel Catholic District School Board		http://www3.dpcdsb.org/schools/school-directory	St. Cecilia Elementary School		L6V 4L5	905-4590575	10 Brickyard Way,
Ontario	Mississauga	http://www.dpcdsb.org/CGARN		Dufferin-Peel Catholic District School Board		http://www3.dpcdsb.org/schools/school-directory	St. Charles Garnier		L4Z 1M7	905-2750509	4233 Central Parkway East,
Ontario	Mississauga	http://www.dpcdsb.org/CHRIS		Dufferin-Peel Catholic District School Board		http://www3.dpcdsb.org/schools/school-directory	St. Christopher Separate School		L5J 2W1	905-8220721	1195 Clarkson Road North,
Ontario	Mississauga	http://www.dpcdsb.org/CLARE		Dufferin-Peel Catholic District School Board		http://www3.dpcdsb.org/schools/school-directory	St. Clare Separate School		L5L 2Z3	905-8202227	4140 Glen Erin Drive,
Ontario	Caledon East	http://www.dpcdsb.org/CORNE		Dufferin-Peel Catholic District School Board		http://www3.dpcdsb.org/schools/school-directory	St. Cornelius Elementary School		L7C2Z2	905-5842245	16066 Innis Lake Road,
Ontario	Mississauga	http://www.dpcdsb.org/DWALE		Dufferin-Peel Catholic District School Board		http://www3.dpcdsb.org/schools/school-directory	St. David of Wales Separate School		L5C 3V9	905-8484200	4200 Beacon Lane,
Ontario	Mississauga	http://www.dpcdsb.org/DOMNC		Dufferin-Peel Catholic District School Board		http://www3.dpcdsb.org/schools/school-directory	St. Dominic Separate School		L5G 2G7	905-2789821	515 Hartsdale Avenue,
Ontario	Mississauga	http://www.dpcdsb.org/DUNST		Dufferin-Peel Catholic District School Board		http://www3.dpcdsb.org/schools/school-directory	St. Dunstan Elementary School		L5M 3R6	905-5675050	1525 Cuthbert Avenue,
Ontario	Mississauga	http://www.dpcdsb.org/STEIN		Dufferin-Peel Catholic District School Board		http://www3.dpcdsb.org/schools/school-directory	St. Edith Stein Elementary School		L5N 5V5	905-8245777	6234 Osprey Boulevard,
Ontario	Brampton	http://www.dpcdsb.org/CAMPI		Dufferin-Peel Catholic District School Board		http://www3.dpcdsb.org/schools/school-directory	St. Edmund Campion Secondary School		L7A 3C7	905-8467124	275 Brisdale Drive,
Ontario	Mississauga	http://www.dpcdsb.org/EDMUN		Dufferin-Peel Catholic District School Board		http://www3.dpcdsb.org/schools/school-directory	St. Edmund Separate School		L4Y 1L5	905-2778962	1250 Melton Drive,
Ontario	Mississauga	http://www.dpcdsb.org/SETON		Dufferin-Peel Catholic District School Board		http://www3.dpcdsb.org/schools/school-directory	St. Elizabeth Seton School		L5N 2T7	905-8212277	6133 Glen Erin Drive,
Ontario	Mississauga	http://www.dpcdsb.org/FAUST		Dufferin-Peel Catholic District School Board		http://www3.dpcdsb.org/schools/school-directory	St. Faustina Elementary School		L5M 6R7	905-8212607	3420 McDowell Drive,
Ontario	Mississauga	http://www.dpcdsb.org/ASSIS		Dufferin-Peel Catholic District School Board		http://www3.dpcdsb.org/schools/school-directory	St. Francis of Assisi Catholic School		L5K 1K5	905-8223183	2480 Thornlodge Drive,
Ontario	Brampton	http://www.dpcdsb.org/STFXE		Dufferin-Peel Catholic District School Board		http://www3.dpcdsb.org/schools/school-directory	St. Francis Xavier Elementary School		L6W 2J8	905-4590646	111 Bartley Bull Parkway,
Ontario	Mississauga	http://www.dpcdsb.org/STFXS		Dufferin-Peel Catholic District School Board		http://www3.dpcdsb.org/schools/school-directory	St. Francis Xavier Secondary School		L5R 3K3	905-5076666	50 Bristol Road West,
Ontario	Mississauga	http://www.dpcdsb.org/GERAR		Dufferin-Peel Catholic District School Board		http://www3.dpcdsb.org/schools/school-directory	St. Gerard Separate School		L5C 1M8	905-2774512	1300 McBride Avenue,
Ontario	Mississauga	http://www.dpcdsb.org/GERTR		Dufferin-Peel Catholic District School Board		http://www3.dpcdsb.org/schools/school-directory	St. Gertrude Separate School		L5R 3S2	905-5687660	815 Ceremonial Dr.,
Ontario	Mississauga	http://www.dpcdsb.org/GREGO		Dufferin-Peel Catholic District School Board		http://www3.dpcdsb.org/schools/school-directory	St. Gregory Elementary School		L5V 1B9	905-8145237	1075 Swinbourne Drive,
Ontario	Mississauga	http://www.dpcdsb.org/HELEN		Dufferin-Peel Catholic District School Board		http://www3.dpcdsb.org/schools/school-directory	St. Helen Separate School		L5J 3X1	905-8224564	1325 Bodley Road,
Ontario	Mississauga	http://www.dpcdsb.org/HERBT		Dufferin-Peel Catholic District School Board		http://www3.dpcdsb.org/schools/school-directory	St. Herbert Elementary School		L5V 2C6	905-8581171	5180 Fallingbrook Dr,
Ontario	Mississauga	http://www.dpcdsb.org/HILRY		Dufferin-Peel Catholic District School Board		http://www3.dpcdsb.org/schools/school-directory	St. Hilary Elementary School		L5R 2N4	905-5680056	5070 Fairwind Drive,
Ontario	Brampton	http://www.dpcdsb.org/JOGUE		Dufferin-Peel Catholic District School Board		http://www3.dpcdsb.org/schools/school-directory	St. Isaac Jogues Elementary School		L6R 2W7	905-7992558	300 Great Lakes Drive,
Ontario	Mississauga	http://www.dpcdsb.org/JAMEE		Dufferin-Peel Catholic District School Board		http://www3.dpcdsb.org/schools/school-directory	St. James Catholic Global Learning Centre		L5G 1B8	905-8917619	98 Wanita Road,
Ontario	Brampton	http://www.dpcdsb.org/JBREB		Dufferin-Peel Catholic District School Board		http://www3.dpcdsb.org/schools/school-directory	St. Jean Brebeuf Elementary School		L6S 1L8	905-7918529	63 Glenforest Road,
Ontario	Brampton	http://www.dpcdsb.org/VIANN		Dufferin-Peel Catholic District School Board		http://www3.dpcdsb.org/schools/school-directory	St. Jean-Marie Vianney Catholic Elementary School		L6X0S6	905-4976888	75 Jordensen Drive,
Ontario	Mississauga	http://www.dpcdsb.org/JEROM		Dufferin-Peel Catholic District School Board		http://www3.dpcdsb.org/schools/school-directory	St. Jerome Separate School		L5C 3P5	905-2733836	790 Paisley Boulevard West,
Ontario	Brampton	http://www.dpcdsb.org/JOACH		Dufferin-Peel Catholic District School Board		http://www3.dpcdsb.org/schools/school-directory	St. Joachim Elementary School		L6V 3V9	905-4534472	435 Rutherford Road North,
Ontario	Mississauga	http://www.dpcdsb.org/JOANA		Dufferin-Peel Catholic District School Board		http://www3.dpcdsb.org/schools/school-directory	St. Joan of Arc Catholic Secondary School		L5M 7G2	905-2850050	3801 Thomas Street,
Ontario	Brampton	http://www.dpcdsb.org/BOSCO		Dufferin-Peel Catholic District School Board		http://www3.dpcdsb.org/schools/school-directory	St. John Bosco School		L6S 4E1	905-7920890	1025 North Park Drive,
Ontario	Brampton	http://www.dpcdsb.org/JFISH		Dufferin-Peel Catholic District School Board		http://www3.dpcdsb.org/schools/school-directory	St. John Fisher Elementary School		L6T 1V6	905-7938900	330 Balmoral Drive,
Ontario	Mississauga	http://www.dpcdsb.org/JCROS		Dufferin-Peel Catholic District School Board		http://www3.dpcdsb.org/schools/school-directory	St. John of the Cross Catholic School		L5N 3S5	905-8243058	3180 Aquitaine Avenue,
Ontario	Bolton	http://www.dpcdsb.org/PPJP2		Dufferin-Peel Catholic District School Board		http://www3.dpcdsb.org/schools/school-directory	St. John Paul II Catholic Elementary School		L7E5R8	905-8574241	9094 Bolton Heights Rd,
Ontario	Bolton	http://www.dpcdsb.org/JBAPT		Dufferin-Peel Catholic District School Board		http://www3.dpcdsb.org/schools/school-directory	St. John the Baptist Elementary School		L7E 2K4	905-9518788	299 Landsbridge Street,
Ontario	Mississauga	http://www.dpcdsb.org/JHN23		Dufferin-Peel Catholic District School Board		http://www3.dpcdsb.org/schools/school-directory	St. John XXIII Catholic Elementary School		L5C 1M1	905-2799478	915 McBride Avenue,
Ontario	Brampton	http://www.dpcdsb.org/JOEBR		Dufferin-Peel Catholic District School Board		http://www3.dpcdsb.org/schools/school-directory	St. Joseph Brampton Elementary School		L6X 2G4	905-4518501	8 Parkway Avenue,
Ontario	Mississauga	http://www.dpcdsb.org/JOEST		Dufferin-Peel Catholic District School Board		http://www3.dpcdsb.org/schools/school-directory	St. Joseph Elem (Mississauga)		L5M 1N1	905-8264422	249 Church Street,
Ontario	Mississauga	http://www.dpcdsb.org/JOESS		Dufferin-Peel Catholic District School Board		http://www3.dpcdsb.org/schools/school-directory	St. Joseph Secondary School		L5V 2B9	905-8121376	5555 Creditview Road,
Ontario	Brampton	http://www.dpcdsb.org/BAKHI		Dufferin-Peel Catholic District School Board		http://www3.dpcdsb.org/schools/school-directory	St. Josephine Bakhita Catholic Elementary School		L7A 0J2	905-8460078	430 Van Kirk Drive,
Ontario	Mississauga	http://www.dpcdsb.org/JUDEE		Dufferin-Peel Catholic District School Board		http://www3.dpcdsb.org/schools/school-directory	St. Jude Separate School		L4Z 3J6	905-5683720	175 Nahani Way,
Ontario	Mississauga	http://www.dpcdsb.org/JULIA		Dufferin-Peel Catholic District School Board		http://www3.dpcdsb.org/schools/school-directory	St. Julia Catholic Elementary School		L5W 1J3	905-7952706	6770 Historic Trail,
Ontario	Brampton	http://www.dpcdsb.org/KEVIN		Dufferin-Peel Catholic District School Board		http://www3.dpcdsb.org/schools/school-directory	St. Kevin Separate School		L6Y 4C8	905-4500571	103 Malta Avenue,
Ontario	Brampton	http://www.dpcdsb.org/LENRD		Dufferin-Peel Catholic District School Board		http://www3.dpcdsb.org/schools/school-directory	St. Leonard Elementary School		L6Z 2Z7	905-8462086	185 Conestoga Drive,
Ontario	Mississauga	http://www.dpcdsb.org/LOUIS		Dufferin-Peel Catholic District School Board		http://www3.dpcdsb.org/schools/school-directory	St. Louis Separate School		L5J 3R3	905-8228251	1450 Lewisham Drive,
Ontario	Brampton	http://www.dpcdsb.org/LUCYE		Dufferin-Peel Catholic District School Board		http://www3.dpcdsb.org/schools/school-directory	St. Lucy Catholic Elementary School		L7A 3R2	905-8403121	25 Kanata Road,
Ontario	Mississauga	http://www.dpcdsb.org/LUKEE		Dufferin-Peel Catholic District School Board		http://www3.dpcdsb.org/schools/school-directory	St. Luke Elementary School		L5H 4L8	905-2742760	1280 Cobalt Street,
Ontario	Mississauga	http://www.dpcdsb.org/MARCL		Dufferin-Peel Catholic District School Board		http://www3.dpcdsb.org/schools/school-directory	St. Marcellinus Secondary School		L5W 1L9	905-5646614	730 Courtneypark Drive West,
Ontario	Mississauga	http://www.dpcdsb.org/SCOTL		Dufferin-Peel Catholic District School Board		http://www3.dpcdsb.org/schools/school-directory	St. Margaret of Scotland		L5L 1C1	905-8205115	2266 Council Ring Rd,
Ontario	Brampton	http://www.dpcdsb.org/MBOUR		Dufferin-Peel Catholic District School Board		http://www3.dpcdsb.org/schools/school-directory	St. Marguerite Bourgeoys Separate School		L6S 4J8	905-4543979	550 North Park Drive,
Ontario	Brampton	http://www.dpcdsb.org/DYOUV		Dufferin-Peel Catholic District School Board		http://www3.dpcdsb.org/schools/school-directory	St. Marguerite d'Youville Secondary School		L6R 2W5	905-7895560	10815 Dixie Road,
Ontario	Brampton	http://www.dpcdsb.org/GORET		Dufferin-Peel Catholic District School Board		http://www3.dpcdsb.org/schools/school-directory	St. Maria Goretti		L6X 4K9	905-4544458	121 Royal Orchard Dr.,
Ontario	Mississauga	http://www.dpcdsb.org/MARKE		Dufferin-Peel Catholic District School Board		http://www3.dpcdsb.org/schools/school-directory	St. Mark Separate School		L5L 2Z5	905-8209477	3675 Sawmill Valley Drive,
Ontario	Mississauga	http://www.dpcdsb.org/MARTN		Dufferin-Peel Catholic District School Board		http://www3.dpcdsb.org/schools/school-directory	St. Martin Secondary School		L5C 1X2	905-2793171	2470 Rosemary Drive,
Ontario	Brampton	http://www.dpcdsb.org/MRYBR		Dufferin-Peel Catholic District School Board		http://www3.dpcdsb.org/schools/school-directory	St. Mary Elementary School		L6W 2C6	905-4511020	66 Main Street South,
Ontario	Mississauga	http://www.dpcdsb.org/MATHW		Dufferin-Peel Catholic District School Board		http://www3.dpcdsb.org/schools/school-directory	St. Matthew Catholic School		L5R 1L3	905-8906898	280 Kingsbridge Garden Circle,
Ontario	Bolton	http://www.dpcdsb.org/MICHS		Dufferin-Peel Catholic District School Board		http://www3.dpcdsb.org/schools/school-directory	St. Michael Catholic Secondary School		L7E4G6	905-9518935	9130 Columbia Way,
Ontario	Brampton	http://www.dpcdsb.org/MONIC		Dufferin-Peel Catholic District School Board		http://www3.dpcdsb.org/schools/school-directory	St. Monica Elementary School		L6Y 5B6	905-4546346	60 Sterritt Drive,
Ontario	Bolton	http://www.dpcdsb.org/NICHO		Dufferin-Peel Catholic District School Board		http://www3.dpcdsb.org/schools/school-directory	St. Nicholas Elementary School		L7E 2W1	905-8577582	120 Harvest Moon Dr.,
Ontario	Brampton	http://www.dpcdsb.org/PATRK		Dufferin-Peel Catholic District School Board		http://www3.dpcdsb.org/schools/school-directory	St. Patrick Separate School		L6P 0A2	905-7940411	11948 The Gore Road,
Ontario	Mississauga	http://www.dpcdsb.org/PAULS		Dufferin-Peel Catholic District School Board		http://www3.dpcdsb.org/schools/school-directory	St. Paul Secondary School		L5E 1L8	905-2783994	815 Atwater Avenue,
Ontario	Orangeville	http://www.dpcdsb.org/PETER		Dufferin-Peel Catholic District School Board		http://www3.dpcdsb.org/schools/school-directory	St. Peter Elementary School		L9W 2W3	519-9412741	46 Dawson Road,
Ontario	Mississauga	http://www.dpcdsb.org/PHILP		Dufferin-Peel Catholic District School Board		http://www3.dpcdsb.org/schools/school-directory	St. Philip Elementary School		L5B 3W5	905-3068420	345 Fairview Rd. W.,
Ontario	Mississauga	http://www.dpcdsb.org/PIOPI		Dufferin-Peel Catholic District School Board		http://www3.dpcdsb.org/schools/school-directory	St. Pio of Pietrelcina Elementary School		L4Z 4G9	905-3611327	4765 Huron Heights Dr.,
Ontario	Mississauga	http://www.dpcdsb.org/RAPHL		Dufferin-Peel Catholic District School Board		http://www3.dpcdsb.org/schools/school-directory	St. Raphael Elementary School		L4T 2C7	905-6771038	3470 Clara Drive,
Ontario	Mississauga	http://www.dpcdsb.org/RAYMO		Dufferin-Peel Catholic District School Board		http://www3.dpcdsb.org/schools/school-directory	St. Raymond Elementary School		L5V 2A9	905-2861010	5735 Whitehorn Avenue,
Ontario	Mississauga	http://www.dpcdsb.org/RICHA		Dufferin-Peel Catholic District School Board		http://www3.dpcdsb.org/schools/school-directory	St. Richard Catholic Elementary School		L5N 2C3	905-8265572	7270 Copenhagen Road,
Ontario	Brampton	http://www.dpcdsb.org/RITAE		Dufferin-Peel Catholic District School Board		http://www3.dpcdsb.org/schools/school-directory	St. Rita Elementary School		L6Z 4V6	905-5950911	30 Summer Valley Dr.,
Ontario	Brampton	http://www.dpcdsb.org/ROCHS		Dufferin-Peel Catholic District School Board		http://www3.dpcdsb.org/schools/school-directory	St. Roch Catholic S.S.		L6X0N3	905-4568543	200 Valleyway Dr.,
Ontario	Mississauga	http://www.dpcdsb.org/RLIMA		Dufferin-Peel Catholic District School Board		http://www3.dpcdsb.org/schools/school-directory	St. Rose of Lima Separate School		L5M3A9	905-8284076	4590 The Gallops,
Ontario	Mississauga	http://www.dpcdsb.org/SEBAS		Dufferin-Peel Catholic District School Board		http://www3.dpcdsb.org/schools/school-directory	St. Sebastian Catholic Elementary School		L5M 7L2	905-6070107	3460 Aquinas Avenue,
Ontario	Mississauga	http://www.dpcdsb.org/STOCK		Dufferin-Peel Catholic District School Board		http://www3.dpcdsb.org/schools/school-directory	St. Simon Stock Elementary School		L5N 6X3	905-7857434	6440 Lisgar Drive,
Ontario	Mississauga	http://www.dpcdsb.org/SOFIA		Dufferin-Peel Catholic District School Board		http://www3.dpcdsb.org/schools/school-directory	St. Sofia Separate School		L4X2M9	905-6250823	3540 Havenwood Drive,
Ontario	Brampton	http://www.dpcdsb.org/STEPH		Dufferin-Peel Catholic District School Board		http://www3.dpcdsb.org/schools/school-directory	St. Stephen Elementary School		L6Z 4N8	905-8403921	17 Colonel Bertram Road,
Ontario	Mississauga	http://www.dpcdsb.org/AVILA		Dufferin-Peel Catholic District School Board		http://www3.dpcdsb.org/schools/school-directory	St. Teresa of Avila Separate School		L5N 4E8	905-8583462	6675 Montevideo Road,
Ontario	Mississauga	http://www.dpcdsb.org/MTRSA		Dufferin-Peel Catholic District School Board		http://www3.dpcdsb.org/schools/school-directory	St. Teresa of Calcutta Catholic Elementary School		L4Y 2T2	905-2733937	1120 Runningbrook Drive,
Ontario	Mississauga	http://www.dpcdsb.org/TCHLD		Dufferin-Peel Catholic District School Board		http://www3.dpcdsb.org/schools/school-directory	St. Therese of the Child Jesus		L5N 6X7	905-7850066	6930 Forest Park Drive,
Ontario	Brampton	http://www.dpcdsb.org/AQUIN		Dufferin-Peel Catholic District School Board		http://www3.dpcdsb.org/schools/school-directory	St. Thomas Aquinas Secondary School		L6S 6A2	905-7911195	25 Corporation Drive,
Ontario	Mississauga	http://www.dpcdsb.org/TMORE		Dufferin-Peel Catholic District School Board		http://www3.dpcdsb.org/schools/school-directory	St. Thomas More Separate School		L4Y 2Y7	905-2796472	3270 Tomken Road,
Ontario	Mississauga	http://www.dpcdsb.org/TMTHY		Dufferin-Peel Catholic District School Board		http://www3.dpcdsb.org/schools/school-directory	St. Timothy Separate School		L5A 2N9	905-2770990	2214 Cliff Road,
Ontario	Brampton	http://www.dpcdsb.org/URSUL		Dufferin-Peel Catholic District School Board		http://www3.dpcdsb.org/schools/school-directory	St. Ursula Elementary School		L6X 5C1	905-4545213	11 Dwellers Road,
Ontario	Mississauga	http://www.dpcdsb.org/VALEN		Dufferin-Peel Catholic District School Board		http://www3.dpcdsb.org/schools/school-directory	St. Valentine Elementary School		L5V 2V7	905-8900909	5610 Heatherleigh Ave.,
Ontario	Mississauga	http://www.dpcdsb.org/VERON		Dufferin-Peel Catholic District School Board		http://www3.dpcdsb.org/schools/school-directory	St. Veronica Elementary School		L5W 1C7	905-6966980	680 Novo Star Dr.,
Ontario	Mississauga	http://www.dpcdsb.org/VPAUL		Dufferin-Peel Catholic District School Board		http://www3.dpcdsb.org/schools/school-directory	St. Vincent de Paul Separate School		L4W 3L6	905-8485397	665 Willowbank Trail,
Ontario	Mississauga	http://www.dpcdsb.org/MMARY		Dufferin-Peel Catholic District School Board		http://www3.dpcdsb.org/schools/school-directory	Sts. Martha and Mary Catholic School		L4W 2B9	905-6249625	1760 Bough Beeches Boulevard,
Ontario	Mississauga	http://www.dpcdsb.org/PPAUL		Dufferin-Peel Catholic District School Board		http://www3.dpcdsb.org/schools/school-directory	Sts. Peter and Paul Catholic School		L4Z 1K2	905-2761888	4205 Woodington Drive,
Ontario	Brampton	http://www.dpcdsb.org/GIVNY		Dufferin-Peel Catholic District School Board		http://www3.dpcdsb.org/schools/school-directory	Venerable Michael J. McGivney Catholic School		L6R 2P7	905-7920630	450 Fernforest Drive,
