province	city	school_url	school_grades	school_board	school_language	response_url	school_name	school_type	postal_code	phone_number	street_address
ON	Brampton			Peel District School Board		http://www.peelschools.org/schools/Pages/profile.aspx?sid=2382	AEC - Brampton Campus	Brampton Campus	L6Y4M3	905-270-6000	7700 Hurontario St., Suite 300
ON	Caledon	http://schools.peelschools.org/1459	Kindergarten Grade 1 Grade 2 Grade 3 Grade 4 Grade 5 Grade 6 Grade 7 Grade 8	Peel District School Board		http://www.peelschools.org/schools/Pages/profile.aspx?sid=1459	Caledon Central Public School	Public School	L7K1Y7	519-927-5231	18357 Kennedy Rd.
ON	Mississauga	http://schools.peelschools.org/1548	Kindergarten Grade 1 Grade 2 Grade 3 Grade 4 Grade 5	Peel District School Board		http://www.peelschools.org/schools/Pages/profile.aspx?sid=1548	Willow Way Public School	Public School	L5M3W5	905-567-0237	1715 Willow Way
ON	Brampton	http://schools.peelschools.org/1480	Kindergarten Grade 1 Grade 2 Grade 3 Grade 4 Grade 5	Peel District School Board		http://www.peelschools.org/schools/Pages/profile.aspx?sid=1480	Worthington Public School	Public School	L7A1N9	905-495-8336	71 Worthington Avenue
ON	Mississauga	http://schools.peelschools.org/1314	Kindergarten Grade 1 Grade 2 Grade 3 Grade 4 Grade 5	Peel District School Board		http://www.peelschools.org/schools/Pages/profile.aspx?sid=1314	Churchill Meadows Public School	Public School	L5M6R8	905-363-2338	3310 McDowell Drive
ON	Brampton	http://schools.peelschools.org/1429	Kindergarten Grade 1 Grade 2 Grade 3 Grade 4 Grade 5	Peel District School Board		http://www.peelschools.org/schools/Pages/profile.aspx?sid=1429	Grenoble Public School	Public School	L6S1V8	905-791-2333	33 Greenbriar Rd.
ON	Mississauga	http://schools.peelschools.org/1173	Kindergarten Grade 6 Grade 7 Grade 8	Peel District School Board		http://www.peelschools.org/schools/Pages/profile.aspx?sid=1173	Glenhaven Sr. Public School	Public School	L4X2M9	905-625-5250	3570 Havenwood Dr.
ON	Brampton	http://schools.peelschools.org/1427	Kindergarten Grade 1 Grade 2 Grade 3 Grade 4 Grade 5	Peel District School Board		http://www.peelschools.org/schools/Pages/profile.aspx?sid=1427	Goldcrest Public School	Public School	L6S1G3	905-791-8558	24 Goldcrest Rd.
ON	Mississauga	http://schools.peelschools.org/1231	Kindergarten Grade 1 Grade 2 Grade 3 Grade 4 Grade 5	Peel District School Board		http://www.peelschools.org/schools/Pages/profile.aspx?sid=1231	Westacres Public School	Public School	L4Y1N3	905-277-0912	2165 Breezy Brae Drive
ON	Caledon	http://schools.peelschools.org/1460	Kindergarten Grade 1 Grade 2 Grade 3 Grade 4 Grade 5 Grade 6 Grade 7 Grade 8	Peel District School Board		http://www.peelschools.org/schools/Pages/profile.aspx?sid=1460	Caledon East Public School	Public School	L7C1P6	905-584-2701	15 Jean Street
ON	Brampton	http://schools.peelschools.org/1424	Kindergarten Grade 6 Grade 7 Grade 8	Peel District School Board		http://www.peelschools.org/schools/Pages/profile.aspx?sid=1424	Williams Parkway Sr. Public School	Public School	L6S3J8	905-791-4324	1285 Williams Pkwy.
ON	Mississauga	http://schools.peelschools.org/1569	Kindergarten Grade 6 Grade 7 Grade 8	Peel District School Board		http://www.peelschools.org/schools/Pages/profile.aspx?sid=1569	Lisgar Middle School	Middle School	L5N6S9	905-785-0105	6755 Lisgar Drive
ON	Mississauga	http://schools.peelschools.org/1259	Kindergarten Grade 1 Grade 2 Grade 3 Grade 4 Grade 5	Peel District School Board		http://www.peelschools.org/schools/Pages/profile.aspx?sid=1259	Whiteoaks Public School	Public School	L5J1Y8	905-822-0451	1690 Mazo Crescent
ON	Brampton	http://schools.peelschools.org/1573	Kindergarten Grade 6 Grade 7 Grade 8	Peel District School Board		http://www.peelschools.org/schools/Pages/profile.aspx?sid=1573	William G. Davis Sr. Public School	Public School	L6W2M7	905-459-3661	491 Bartley Bull Pkwy.
ON	Brampton	http://schools.peelschools.org/1578	Kindergarten Grade 1 Grade 2 Grade 3 Grade 4 Grade 5	Peel District School Board		http://www.peelschools.org/schools/Pages/profile.aspx?sid=1578	Sir Wilfrid Laurier Public School	Public School	L6W2L8	905-451-1415	364 Bartley Bull Pkwy.
ON	Mississauga	http://schools.peelschools.org/1335	Kindergarten Grade 1 Grade 2 Grade 3 Grade 4 Grade 5	Peel District School Board		http://www.peelschools.org/schools/Pages/profile.aspx?sid=1335	Whitehorn Public School	Public School	L5V2A9	905-819-9807	5785 Whitehorn Avenue
ON	Mississauga	http://meadowvaless.peelschools.org	Grade 9 Grade 10 Grade 11 Grade 12	Peel District School Board		http://www.peelschools.org/schools/Pages/profile.aspx?sid=2562	Meadowvale Secondary School	Secondary School	L5N3B2	905-824-1790	6700 Edenwood Dr.
ON	Brampton	http://schools.peelschools.org/1521	Kindergarten Grade 1 Grade 2 Grade 3 Grade 4 Grade 5	Peel District School Board		http://www.peelschools.org/schools/Pages/profile.aspx?sid=1521	Westervelts Corners Public School	Public School	L6V4L5	905-459-3456	20 Brickyard Way
ON	Mississauga	http://westcreditss.peelschools.org	Grade 9 Grade 10 Grade 11 Grade 12	Peel District School Board		http://www.peelschools.org/schools/Pages/profile.aspx?sid=2582	West Credit Secondary School	Secondary School	L5N4G7	905-858-3087	6325 Montevideo Rd.
ON	Brampton	http://louisearbourss.peelschools.org	Grade 9 Grade 10 Grade 11 Grade 12	Peel District School Board		http://www.peelschools.org/schools/Pages/profile.aspx?sid=2642	Louise Arbour Secondary School	Secondary School	L6R0R4	905-793-5451	365 Father Tobin Road
ON	Brampton	http://schools.peelschools.org/1416	Kindergarten Grade 1 Grade 2 Grade 3 Grade 4 Grade 5 Grade 6 Grade 7 Grade 8	Peel District School Board		http://www.peelschools.org/schools/Pages/profile.aspx?sid=1416	Walnut Grove Public School	Public School	L6P3X8	905-796-4572	10 Pinestaff Road
ON	Mississauga	http://schools.peelschools.org/1560	Kindergarten Grade 1 Grade 2 Grade 3 Grade 4 Grade 5	Peel District School Board		http://www.peelschools.org/schools/Pages/profile.aspx?sid=1560	Vista Heights Public School	Public School	L5M1V8	905-826-1581	89 Vista Blvd.
ON	Brampton	http://schools.peelschools.org/1439	Kindergarten Grade 6 Grade 7 Grade 8	Peel District School Board		http://www.peelschools.org/schools/Pages/profile.aspx?sid=1439	Sunny View Middle School	Middle School	L6R3C4	905-789-1707	30 Chapparal Drive
ON	Brampton	http://schools.peelschools.org/1423	Kindergarten Grade 6 Grade 7 Grade 8	Peel District School Board		http://www.peelschools.org/schools/Pages/profile.aspx?sid=1423	Greenbriar Middle School	Middle School	L6S2C9	905-791-2332	1140 Central Park Dr.
ON	Mississauga	http://schools.peelschools.org/sec/gordongraydon/	Grade 9 Grade 10 Grade 11 Grade 12	Peel District School Board		http://www.peelschools.org/schools/Pages/profile.aspx?sid=2222	Gordon Graydon Memorial Secondary School	Secondary School	L5E2H8	905-274-2391	1490 Ogden Avenue
ON	Brampton	http://schools.peelschools.org/1440	Kindergarten Grade 1 Grade 2 Grade 3 Grade 4 Grade 5 Grade 6	Peel District School Board		http://www.peelschools.org/schools/Pages/profile.aspx?sid=1440	Thorndale Public School	Public School	L6P1K5	905-913-1490	133 Thorndale Road
ON	Brampton	http://schools.peelschools.org/1479	Kindergarten Grade 1 Grade 2 Grade 3 Grade 4 Grade 5 Grade 6 Grade 7 Grade 8	Peel District School Board		http://www.peelschools.org/schools/Pages/profile.aspx?sid=1479	Treeline Public School	Public School	L6P1E7	905-794-1459	145  Treeline Blvd
ON	Mississauga	http://schools.peelschools.org/1567	Kindergarten Grade 1 Grade 2 Grade 3 Grade 4 Grade 5	Peel District School Board		http://www.peelschools.org/schools/Pages/profile.aspx?sid=1567	Trelawny Public School	Public School	L5N6N6	905-824-0360	3420 Trelawny Circle
ON	Mississauga	http://schools.peelschools.org/1654	Kindergarten Grade 6 Grade 7 Grade 8	Peel District School Board		http://www.peelschools.org/schools/Pages/profile.aspx?sid=1654	Thomas Street Middle School	Middle School	L5M5G8	905-812-3725	2640 Thomas Street
ON	Mississauga	http://schools.peelschools.org/1380	Kindergarten Grade 7 Grade 8	Peel District School Board		http://www.peelschools.org/schools/Pages/profile.aspx?sid=1380	The Woodlands Elementary School	Elementary School	L5C1Y5	905-279-0575	3225 Erindale Station Road
ON	Mississauga	http://schools.peelschools.org/1153	Kindergarten Grade 6 Grade 7 Grade 8	Peel District School Board		http://www.peelschools.org/schools/Pages/profile.aspx?sid=1153	Tomken Road Middle School	Middle School	L4Y2Y6	905-277-0321	3200 Tomken Road
ON	Mississauga	http://schools.peelschools.org/1354	Kindergarten Grade 6 Grade 7 Grade 8	Peel District School Board		http://www.peelschools.org/schools/Pages/profile.aspx?sid=1354	The Valleys Sr. Public School	Public School	L5A3R8	905-275-5125	1235 Mississauga Valley Blvd.
ON	Brampton	http://schools.peelschools.org/1471	Kindergarten Grade 1 Grade 2 Grade 3 Grade 4 Grade 5	Peel District School Board		http://www.peelschools.org/schools/Pages/profile.aspx?sid=1471	Terry Fox Public School	Public School	L6Z1Y6	905-846-1262	95 Richvale Drive North
ON	Mississauga	http://schools.peelschools.org/1329	Kindergarten Grade 1 Grade 2 Grade 3 Grade 4 Grade 5	Peel District School Board		http://www.peelschools.org/schools/Pages/profile.aspx?sid=1329	Thorn Lodge Public School	Public School	L5K1L2	905-822-5481	2730 Thorn Lodge Drive
ON	Mississauga	http://schools.peelschools.org/1363	Kindergarten Grade 1 Grade 2 Grade 3 Grade 4 Grade 5	Peel District School Board		http://www.peelschools.org/schools/Pages/profile.aspx?sid=1363	Thornwood Public School	Public School	L5A1Y6	905-275-4077	277 Mississauga Valley Blvd
ON	Mississauga	http://schools.peelschools.org/1258	Kindergarten Grade 1 Grade 2 Grade 3 Grade 4 Grade 5 Grade 6 Grade 7 Grade 8	Peel District School Board		http://www.peelschools.org/schools/Pages/profile.aspx?sid=1258	Tecumseh Public School	Public School	L5H1V4	905-278-5594	1480 Chriseden Drive
ON	Brampton	http://schools.peelschools.org/1540	Kindergarten Grade 6 Grade 7 Grade 8	Peel District School Board		http://www.peelschools.org/schools/Pages/profile.aspx?sid=1540	Sir John A. Macdonald Sr. Public School	Public School	L6V2R4	905-457-5535	250 Centre Street North
ON	Mississauga	http://schools.peelschools.org/1160	Kindergarten Grade 1 Grade 2 Grade 3 Grade 4 Grade 5	Peel District School Board		http://www.peelschools.org/schools/Pages/profile.aspx?sid=1160	Silverthorn Public School	Public School	L4Y2Y4	905-279-1651	3535 Cedar Creek Dr.
ON	Brampton	http://schools.peelschools.org/1487	Kindergarten Grade 1 Grade 2 Grade 3 Grade 4 Grade 5	Peel District School Board		http://www.peelschools.org/schools/Pages/profile.aspx?sid=1487	Stanley Mills Public School	Public School	L6R3C3	905-789-0925	286 Sunny Meadow Blvd
ON	Brampton	http://schools.peelschools.org/1417	Kindergarten Grade 1 Grade 2 Grade 3 Grade 4 Grade 5 Grade 6 Grade 7 Grade 8	Peel District School Board		http://www.peelschools.org/schools/Pages/profile.aspx?sid=1417	Sir Isaac Brock Public School	Public School	L6P3V8	905-791-6025	45 Meltwater Crescent
ON	Brampton	http://turnerfentonss.peelschools.org	Grade 9 Grade 10 Grade 11 Grade 12	Peel District School Board		http://www.peelschools.org/schools/Pages/profile.aspx?sid=2572	Turner Fenton Secondary School	Secondary School	L6W0A2	905-453-9220	7935 Kennedy Rd. S.
ON	Mississauga	http://schools.peelschools.org/1362	Kindergarten Grade 1 Grade 2 Grade 3 Grade 4 Grade 5	Peel District School Board		http://www.peelschools.org/schools/Pages/profile.aspx?sid=1362	Silver Creek Public School	Public School	L5A2B3	905-270-4455	460 Silver Creek Blvd.
ON	Mississauga	http://schools.peelschools.org/1379	Kindergarten Grade 1 Grade 2 Grade 3 Grade 4 Grade 5 Grade 6	Peel District School Board		http://www.peelschools.org/schools/Pages/profile.aspx?sid=1379	Springfield Public School	Public School	L5C2J7	905-279-7950	3251 The Credit Woodlands
ON	Mississauga	http://schools.peelschools.org/1334	Kindergarten Grade 1 Grade 2 Grade 3 Grade 4 Grade 5	Peel District School Board		http://www.peelschools.org/schools/Pages/profile.aspx?sid=1334	Sherwood Mills Public School	Public School	L5V2B8	905-812-8265	1385 Sherwood Mills Blvd
ON	Brampton	http://schools.peelschools.org/1438	Kindergarten Grade 1 Grade 2 Grade 3 Grade 4 Grade 5	Peel District School Board		http://www.peelschools.org/schools/Pages/profile.aspx?sid=1438	Springdale Public School	Public School	L6R3B6	905-791-5081	100 Dewside Drive
ON	Mississauga	http://www.thewoodlandsschool.com	Grade 9 Grade 10 Grade 11 Grade 12	Peel District School Board		http://www.peelschools.org/schools/Pages/profile.aspx?sid=2372	The Woodlands Secondary School	Secondary School	L5C1Y5	905-279-0575	3225 Erindale Station Road
ON	Mississauga	http://schools.peelschools.org/1328	Kindergarten Grade 1 Grade 2 Grade 3 Grade 4 Grade 5	Peel District School Board		http://www.peelschools.org/schools/Pages/profile.aspx?sid=1328	Sheridan Park Public School	Public School	L5K1M1	905-822-2401	2280 Perran Dr.
ON	Brampton	http://schools.peelschools.org/1445	Kindergarten Grade 1 Grade 2 Grade 3 Grade 4 Grade 5 Grade 6 Grade 7 Grade 8	Peel District School Board		http://www.peelschools.org/schools/Pages/profile.aspx?sid=1445	Springbrook Public School	Public School	L6X0S1	905-796-4447	145 Jordensen Drive
ON	Mississauga	http://schools.peelschools.org/1561	Kindergarten Grade 1 Grade 2 Grade 3 Grade 4 Grade 5 Grade 6	Peel District School Board		http://www.peelschools.org/schools/Pages/profile.aspx?sid=1561	Shelter Bay Public School	Public School	L5N2C5	905-826-5516	6735 Shelter Bay Rd.
ON	Brampton	http://schools.peelschools.org/1489	Kindergarten Grade 1 Grade 2 Grade 3 Grade 4 Grade 5 Grade 6 Grade 7 Grade 8	Peel District School Board		http://www.peelschools.org/schools/Pages/profile.aspx?sid=1489	Shaw Public School	Public School	L6R3K2	905-790-6095	10 Father Tobin Road
ON	Caledon	http://schools.peelschools.org/1454	Kindergarten Grade 1 Grade 2 Grade 3 Grade 4 Grade 5 Grade 6 Grade 7 Grade 8	Peel District School Board		http://www.peelschools.org/schools/Pages/profile.aspx?sid=1454	SouthFields Village Public School	Public School	L7C3R1	905-843-3281	110 Learmont Avenue
ON	Mississauga	http://streetsvilless.peelschools.org	Grade 9 Grade 10 Grade 11 Grade 12	Peel District School Board		http://www.peelschools.org/schools/Pages/profile.aspx?sid=2552	Streetsville Secondary School	Secondary School	L5M1G3	905-826-1195	72 Joymar Dr.
ON	Mississauga	http://tlkennedyss.peelschools.org	Grade 9 Grade 10 Grade 11 Grade 12	Peel District School Board		http://www.peelschools.org/schools/Pages/profile.aspx?sid=2352	TL Kennedy Secondary School	Secondary School	L5B1N7	905-279-6540	3100 Hurontario St.
ON	Mississauga	http://schools.peelschools.org/1331	Kindergarten Grade 1 Grade 2 Grade 3 Grade 4 Grade 5	Peel District School Board		http://www.peelschools.org/schools/Pages/profile.aspx?sid=1331	Sawmill Valley Public School	Public School	L5L2Z5	905-820-2500	3625 Sawmill Valley Dr.
ON	Brampton	http://schools.peelschools.org/1519	Kindergarten Grade 6 Grade 7 Grade 8	Peel District School Board		http://www.peelschools.org/schools/Pages/profile.aspx?sid=1519	Sir William Gage Middle School	Middle School	L6Y5L6	905-456-3394	625 Queen Street
ON	Brampton	http://schools.peelschools.org/1470	Kindergarten Grade 1 Grade 2 Grade 3 Grade 4 Grade 5	Peel District School Board		http://www.peelschools.org/schools/Pages/profile.aspx?sid=1470	Somerset Drive Public School	Public School	L6Z1C7	905-846-2500	50 Somerset Dr.
ON	Brampton	http://schools.peelschools.org/1555	Kindergarten Grade 1 Grade 2 Grade 3 Grade 4 Grade 5 Grade 6 Grade 7 Grade 8	Peel District School Board		http://www.peelschools.org/schools/Pages/profile.aspx?sid=1555	Sir Winston Churchill Public School	Public School	L6W1V1	905-459-2320	89 Ardglen Dr.
ON	Mississauga	http://schools.peelschools.org/1563	Kindergarten Grade 1 Grade 2 Grade 3 Grade 4 Grade 5 Grade 6	Peel District School Board		http://www.peelschools.org/schools/Pages/profile.aspx?sid=1563	Settler's Green Public School	Public School	L5N2S1	905-826-4947	5800 Montevideo Road
ON	Mississauga	http://stephenlewis.peelschools.org	Grade 9 Grade 10 Grade 11 Grade 12	Peel District School Board		http://www.peelschools.org/schools/Pages/profile.aspx?sid=2682	Stephen Lewis Secondary School	Secondary School	L5M7E6	905-363-0289	3675 Thomas Street
ON	Mississauga	http://schools.peelschools.org/1315	Kindergarten Grade 6 Grade 7 Grade 8	Peel District School Board		http://www.peelschools.org/schools/Pages/profile.aspx?sid=1315	Ruth Thompson Middle School	Middle School	L5M7M8	905-814-1729	5605 Freshwater Drive
ON	Brampton	http://schools.peelschools.org/1434	Kindergarten Grade 1 Grade 2 Grade 3 Grade 4 Grade 5	Peel District School Board		http://www.peelschools.org/schools/Pages/profile.aspx?sid=1434	Russell D. Barber Public School	Public School	L6S6A5	905-455-7177	255 North Park Drive
ON	Mississauga	http://schools.peelschools.org/sec/pas		Peel District School Board		http://www.peelschools.org/schools/Pages/profile.aspx?sid=2095	Peel Alternative School South	School South	L5E2H8	905-278-3396	1500 Ogden Ave.
ON	Mississauga	http://schools.peelschools.org/1111	Kindergarten Grade 1 Grade 2 Grade 3 Grade 4 Grade 5	Peel District School Board		http://www.peelschools.org/schools/Pages/profile.aspx?sid=1111	Ridgewood Public School	Public School	L4T2R3	905-677-1350	7207 Cambrett Dr.
ON	Brampton	http://schools.peelschools.org/1483	Kindergarten Grade 6 Grade 7 Grade 8	Peel District School Board		http://www.peelschools.org/schools/Pages/profile.aspx?sid=1483	Royal Orchard Middle School	Middle School	L6X4M4	905-455-3760	77 Royal Orchard Drive
ON	Mississauga	http://schools.peelschools.org/1281	Kindergarten Grade 1 Grade 2 Grade 3 Grade 4 Grade 5 Grade 6 Grade 7 Grade 8	Peel District School Board		http://www.peelschools.org/schools/Pages/profile.aspx?sid=1281	Riverside Public School	Public School	L5H2E8	905-274-1515	30 John St. N.
ON	Brampton	http://schools.peelschools.org/1493	Kindergarten Grade 1 Grade 2 Grade 3 Grade 4 Grade 5	Peel District School Board		http://www.peelschools.org/schools/Pages/profile.aspx?sid=1493	Rowntree Public School	Public School	L7A3L6	905-840-4601	254 Queen Mary Drive
ON	Brampton	http://schools.peelschools.org/1419/	Kindergarten Grade 1 Grade 2 Grade 3 Grade 4 Grade 5 Grade 6 Grade 7 Grade 8	Peel District School Board		http://www.peelschools.org/schools/Pages/profile.aspx?sid=1419	Ross Drive Public School	Public School	L6R3S7	905-796-4563	40 Ross Drive
ON	Brampton	http://schools.peelschools.org/1433	Kindergarten Grade 1 Grade 2 Grade 3 Grade 4 Grade 5	Peel District School Board		http://www.peelschools.org/schools/Pages/profile.aspx?sid=1433	Red Willow Public School	Public School	L6P2B1	905-794-4728	80 Redwillow Road
ON	Brampton	http://schools.peelschools.org/sec/pas		Peel District School Board		http://www.peelschools.org/schools/Pages/profile.aspx?sid=2096	Peel Alternative School North	School North	L6W2L4	905-455-1225	315 Bartley Bull Parkway
ON	Brampton	http://schools.peelschools.org/1516	Kindergarten Grade 1 Grade 2 Grade 3 Grade 4 Grade 5 Grade 6 Grade 7 Grade 8	Peel District School Board		http://www.peelschools.org/schools/Pages/profile.aspx?sid=1516	Roberta Bondar Public School	Public School	L6Y5N2	905-457-1799	30 Pantomine Blvd
ON	Brampton	http://schools.peelschools.org/1509	Kindergarten Grade 1 Grade 2 Grade 3 Grade 4 Grade 5	Peel District School Board		http://www.peelschools.org/schools/Pages/profile.aspx?sid=1509	Ridgeview Public School	Public School	L6Y2A1	905-451-6332	25 Brenda Ave.
ON	Brampton	http://sandalwoodheights.peelschools.org	Grade 9 Grade 10 Grade 11 Grade 12	Peel District School Board		http://www.peelschools.org/schools/Pages/profile.aspx?sid=2442	Sandalwood Heights SS	Heights SS	L6R0K7	905-494-0023	2671 Sandalwood Pkwy East
ON	Brampton	http://schools.peelschools.org/1405	Kindergarten Grade 1 Grade 2 Grade 3 Grade 4 Grade 5 Grade 6 Grade 7 Grade 8	Peel District School Board		http://www.peelschools.org/schools/Pages/profile.aspx?sid=1405	Robert J. Lee Public School	Public School	L6R1J1	905-792-2195	160 Mountainash Road
ON	Mississauga	http://schools.peelschools.org/1558	Kindergarten Grade 1 Grade 2 Grade 3 Grade 4 Grade 5	Peel District School Board		http://www.peelschools.org/schools/Pages/profile.aspx?sid=1558	Ray Underhill Public School	Public School	L5N1G6	905-826-1742	32 Suburban Dr.
ON	Brampton	http://schools.peelschools.org/1473	Kindergarten Grade 6 Grade 7 Grade 8	Peel District School Board		http://www.peelschools.org/schools/Pages/profile.aspx?sid=1473	Robert H. Lagerquist Sr. Public School	Public School	L6Z1Y6	905-846-0576	105 Richvale Drive North
ON	Brampton	http://schools.peelschools.org/1535	Kindergarten Grade 1 Grade 2 Grade 3 Grade 4 Grade 5 Grade 6	Peel District School Board		http://www.peelschools.org/schools/Pages/profile.aspx?sid=1535	Ray Lawson Public School	Public School	L6Y0T8	905-451-3819	725 Ray Lawson Blvd
ON	Brampton	http://schools.peelschools.org/1514	Kindergarten Grade 1 Grade 2 Grade 3 Grade 4 Grade 5	Peel District School Board		http://www.peelschools.org/schools/Pages/profile.aspx?sid=1514	Queen Street Public School	Public School	L6Y0R7	905-455-6144	20 Academic Drive
ON	Brampton	http://schools.peelschools.org/1576	Kindergarten Grade 1 Grade 2 Grade 3 Grade 4 Grade 5	Peel District School Board		http://www.peelschools.org/schools/Pages/profile.aspx?sid=1576	Parkway Public School	Public School	L6W1H4	905-451-8440	24 Duncan Bull Dr.
ON	Mississauga	http://schools.peelschools.org/1556	Kindergarten Grade 1 Grade 2 Grade 3 Grade 4 Grade 5 Grade 6	Peel District School Board		http://www.peelschools.org/schools/Pages/profile.aspx?sid=1556	Plowman's Park Public School	Public School	L5N3J5	905-821-4973	5940  Montevideo Road
ON	Mississauga	http://schools.peelschools.org/1378	Kindergarten Grade 1 Grade 2 Grade 3 Grade 4 Grade 5 Grade 6 Grade 7 Grade 8	Peel District School Board		http://www.peelschools.org/schools/Pages/profile.aspx?sid=1378	Queenston Drive Public School	Public School	L5C2G6	905-277-9523	3520 Queenston Dr.
ON	Mississauga	http://schools.peelschools.org/1565	Kindergarten Grade 1 Grade 2 Grade 3 Grade 4 Grade 5 Grade 6	Peel District School Board		http://www.peelschools.org/schools/Pages/profile.aspx?sid=1565	Plum Tree Park Public School	Public School	L5N5R2	905-824-0155	6855 Tenth Line W.
ON	Mississauga	http://schools.peelschools.org/1309	Kindergarten Grade 1 Grade 2 Grade 3 Grade 4 Grade 5	Peel District School Board		http://www.peelschools.org/schools/Pages/profile.aspx?sid=1309	Owenwood Public School	Public School	L5H3J2	905-822-0311	930 Owenwood Drive
ON	Caledon	http://schools.peelschools.org/1467	Kindergarten Grade 1 Grade 2 Grade 3 Grade 4 Grade 5 Grade 6 Grade 7 Grade 8	Peel District School Board		http://www.peelschools.org/schools/Pages/profile.aspx?sid=1467	Palgrave Public School	Public School	L7E0L2	905-880-0361	8962 Patterson Sideroad
ON	Mississauga	http://schools.peelschools.org/1273	Kindergarten Grade 6 Grade 7 Grade 8	Peel District School Board		http://www.peelschools.org/schools/Pages/profile.aspx?sid=1273	Queen Elizabeth Sr. Public School	Public School	L5G2R9	905-278-7287	60 South Service Rd.
ON	Brampton	http://parkholme.peelschools.org	Grade 9 Grade 10 Grade 11 Grade 12	Peel District School Board		http://www.peelschools.org/schools/Pages/profile.aspx?sid=2593	Parkholme School	Parkholme School	L7A2Z7	905-451-1263	10750 Chinguacousy Road
ON	Mississauga	http://schools.peelschools.org/1327	Kindergarten Grade 1 Grade 2 Grade 3 Grade 4 Grade 5	Peel District School Board		http://www.peelschools.org/schools/Pages/profile.aspx?sid=1327	Oakridge Public School	Public School	L5H3J1	905-274-3601	2060 Stonehouse Cres.
ON	Brampton	http://schools.peelschools.org/1533	Kindergarten Grade 1 Grade 2 Grade 3 Grade 4 Grade 5	Peel District School Board		http://www.peelschools.org/schools/Pages/profile.aspx?sid=1533	Northwood Public School	Public School	L6X2E9	905-451-6464	70 Gretna Dr.
ON	Mississauga	http://rickhansenss.peelschools.org	Grade 9 Grade 10 Grade 11 Grade 12	Peel District School Board		http://www.peelschools.org/schools/Pages/profile.aspx?sid=2542	Rick Hansen Secondary School	Secondary School	L5V1N6	905-567-4260	1150 Dream Crest Road
ON	Mississauga	http://schools.peelschools.org/1317	Kindergarten Grade 1 Grade 2 Grade 3 Grade 4 Grade 5	Peel District School Board		http://www.peelschools.org/schools/Pages/profile.aspx?sid=1317	Oscar Peterson Public School	Public School	L5M7T6	905-569-6261	5120 Perennial Drive
ON	Brampton	http://schools.peelschools.org/1418/	Kindergarten Grade 1 Grade 2 Grade 3 Grade 4 Grade 5	Peel District School Board		http://www.peelschools.org/schools/Pages/profile.aspx?sid=1418	Nelson Mandela Public School	Public School	L7A3Z6	905-595-1655	10125 Chinguacousy Road
ON	Mississauga	http://schools.peelschools.org/1583	Kindergarten Grade 1 Grade 2 Grade 3 Grade 4 Grade 5	Peel District School Board		http://www.peelschools.org/schools/Pages/profile.aspx?sid=1583	Osprey Woods Public School	Public School	L5N7V2	905-785-9687	6135 Lisgar Drive
ON	Mississauga	http://schools.peelschools.org/1318	Kindergarten Grade 1 Grade 2 Grade 3 Grade 4 Grade 5	Peel District School Board		http://www.peelschools.org/schools/Pages/profile.aspx?sid=1318	McKinnon Public School	Public School	L5M0H3	905-812-2544	3270 Tacc Drive
ON	Mississauga	http://schools.peelschools.org/1161	Kindergarten Grade 1 Grade 2 Grade 3 Grade 4 Grade 5	Peel District School Board		http://www.peelschools.org/schools/Pages/profile.aspx?sid=1161	Nahani Way Public School	Public School	L4Z3J6	905-507-4044	235 Nahani Way
ON	Mississauga	http://schools.peelschools.org/1361	Kindergarten Grade 1 Grade 2 Grade 3 Grade 4 Grade 5	Peel District School Board		http://www.peelschools.org/schools/Pages/profile.aspx?sid=1361	Munden Park Public School	Public School	L5A1J8	905-279-9251	515 Tedwyn Drive
ON	Brampton	http://schools.peelschools.org/1421	Kindergarten Grade 1 Grade 2 Grade 3 Grade 4 Grade 5 Grade 6 Grade 7 Grade 8	Peel District School Board		http://www.peelschools.org/schools/Pages/profile.aspx?sid=1421	Mountain Ash Public School	Public School	L6R3G2	905-793-7595	280 Mountainash Road
ON	Brampton	http://schools.peelschools.org/1507	Kindergarten Grade 1 Grade 2 Grade 3 Grade 4 Grade 5	Peel District School Board		http://www.peelschools.org/schools/Pages/profile.aspx?sid=1507	McHugh Public School	Public School	L6Y1J2	905-451-2515	31 Craig St.
ON	Brampton	http://schools.peelschools.org/1485	Kindergarten Grade 1 Grade 2 Grade 3 Grade 4 Grade 5 Grade 6 Grade 7 Grade 8	Peel District School Board		http://www.peelschools.org/schools/Pages/profile.aspx?sid=1485	Mount Royal Public School	Public School	L6P2K4	905-794-4733	65 Mount Royal Circle
ON	Brampton	http://schools.peelschools.org/1481	Kindergarten Grade 6 Grade 7 Grade 8	Peel District School Board		http://www.peelschools.org/schools/Pages/profile.aspx?sid=1481	McCrimmon Middle School	Middle School	L7A2Z3	905-495-3229	83 McCrimmon Drive
ON	Mississauga	http://portcreditss.peelschools.org	Grade 9 Grade 10 Grade 11 Grade 12	Peel District School Board		http://www.peelschools.org/schools/Pages/profile.aspx?sid=2272	Port Credit Secondary School	Secondary School	L5G2E5	905-278-3382	70 Mineola Road E.
ON	Brampton	http://schools.peelschools.org/1448	Kindergarten Grade 1 Grade 2 Grade 3 Grade 4 Grade 5 Grade 6 Grade 7	Peel District School Board		http://www.peelschools.org/schools/Pages/profile.aspx?sid=1448	McClure Public School	Public School	L6X5M8	905-796-4460	50 Parity Road
ON	Brampton	http://schools.peelschools.org/1534/Pages/default.aspx	Kindergarten Grade 1 Grade 2 Grade 3 Grade 4 Grade 5 Grade 6 Grade 7 Grade 8	Peel District School Board		http://www.peelschools.org/schools/Pages/profile.aspx?sid=1534	Mount Pleasant Village Public School	Public School	L7A0P7	905-495-8778	100 Commuter Drive
ON	Mississauga	http://schools.peelschools.org/1377	Kindergarten Grade 1 Grade 2 Grade 3 Grade 4 Grade 5 Grade 6	Peel District School Board		http://www.peelschools.org/schools/Pages/profile.aspx?sid=1377	McBride Public School	Public School	L5C1L6	905-270-6414	974 McBride Ave.
ON	Brampton	http://schools.peelschools.org/1510	Kindergarten Grade 1 Grade 2 Grade 3 Grade 4 Grade 5	Peel District School Board		http://www.peelschools.org/schools/Pages/profile.aspx?sid=1510	Morton Way Public School	Public School	L6Y2P8	905-452-6116	200 Morton Way
ON	Brampton	http://schools.peelschools.org/1437	Kindergarten Grade 1 Grade 2 Grade 3 Grade 4 Grade 5	Peel District School Board		http://www.peelschools.org/schools/Pages/profile.aspx?sid=1437	Massey Street Public School	Public School	L6S3A3	905-791-9392	95 Massey St.
ON	Mississauga	http://schools.peelschools.org/1114	Kindergarten Grade 6 Grade 7 Grade 8	Peel District School Board		http://www.peelschools.org/schools/Pages/profile.aspx?sid=1114	Morning Star Middle School	Middle School	L4T1X3	905-677-0300	3131 Morning Star Drive
ON	Mississauga	http://schools.peelschools.org/1280	Kindergarten Grade 1 Grade 2 Grade 3 Grade 4 Grade 5 Grade 6	Peel District School Board		http://www.peelschools.org/schools/Pages/profile.aspx?sid=1280	Mineola Public School	Public School	L5G1Z4	905-278-3144	145 Windy Oaks
ON	Mississauga	http://schools.peelschools.org/1110	Kindergarten Grade 1 Grade 2 Grade 3 Grade 4 Grade 5	Peel District School Board		http://www.peelschools.org/schools/Pages/profile.aspx?sid=1110	Marvin Heights Public School	Public School	L4T2B3	905-677-1526	7455 Redstone Road
ON	Mississauga	http://schools.peelschools.org/1566	Kindergarten Grade 1 Grade 2 Grade 3 Grade 4 Grade 5 Grade 6	Peel District School Board		http://www.peelschools.org/schools/Pages/profile.aspx?sid=1566	Miller's Grove Public School	Public School	L5N3K2	905-824-3275	6325 Miller's Grove
ON	Mississauga	http://schools.peelschools.org/1656	Kindergarten Grade 1 Grade 2 Grade 3 Grade 4 Grade 5	Peel District School Board		http://www.peelschools.org/schools/Pages/profile.aspx?sid=1656	Middlebury Public School	Public School	L5M5G7	905-821-8585	5482 Middlebury Drive
ON	Brampton	http://www.northparkss.ca	Grade 9 Grade 10 Grade 11 Grade 12	Peel District School Board		http://www.peelschools.org/schools/Pages/profile.aspx?sid=2432	North Park Secondary School	Secondary School	L6S3M1	905-456-1906	10 North Park Drive
ON	Mississauga	http://schools.peelschools.org/1554	Kindergarten Grade 1 Grade 2 Grade 3 Grade 4 Grade 5 Grade 6	Peel District School Board		http://www.peelschools.org/schools/Pages/profile.aspx?sid=1554	Maple Wood Public School	Public School	L5N2R2	905-826-3902	2650 Gananoque Drive
ON	Brampton	http://schools.peelschools.org/1532	Kindergarten Grade 1 Grade 2 Grade 3 Grade 4 Grade 5	Peel District School Board		http://www.peelschools.org/schools/Pages/profile.aspx?sid=1532	Madoc Drive Public School	Public School	L6V2A1	905-457-3440	49 Madoc Dr.
ON	Mississauga	http://schools.peelschools.org/1557	Kindergarten Grade 1 Grade 2 Grade 3 Grade 4 Grade 5	Peel District School Board		http://www.peelschools.org/schools/Pages/profile.aspx?sid=1557	Meadowvale Village Public School	Public School	L5W1A1	905-564-5735	890 Old Derry Rd. W.
ON	Brampton	http://schools.peelschools.org/1486	Kindergarten Grade 6 Grade 7 Grade 8	Peel District School Board		http://www.peelschools.org/schools/Pages/profile.aspx?sid=1486	Lougheed Middle School	Middle School	L6R0J9	905-789-8751	475 Father Tobin Road
ON	Mississauga	http://schools.peelschools.org/1546	Kindergarten Grade 1 Grade 2 Grade 3 Grade 4 Grade 5	Peel District School Board		http://www.peelschools.org/schools/Pages/profile.aspx?sid=1546	Levi Creek Public School	Public School	L5N7Z1	905-564-9879	1525 Samuelson Circle
ON	Caledon	http://schools.peelschools.org/1466	Kindergarten Grade 1 Grade 2 Grade 3 Grade 4 Grade 5 Grade 6 Grade 7 Grade 8	Peel District School Board		http://www.peelschools.org/schools/Pages/profile.aspx?sid=1466	Macville Public School	Public School	L7C0S3	905-857-3448	7280 King St.
ON	Mississauga	http://schools.peelschools.org/1257	Kindergarten Grade 1 Grade 2 Grade 3 Grade 4 Grade 5	Peel District School Board		http://www.peelschools.org/schools/Pages/profile.aspx?sid=1257	Lorne Park Public School	Public School	L5H1S3	905-278-8771	1325 Indian Rd.
ON	Mississauga	http://mississaugass.peelschools.org	Grade 9 Grade 10 Grade 11 Grade 12	Peel District School Board		http://www.peelschools.org/schools/Pages/profile.aspx?sid=2672	Mississauga Secondary School	Secondary School	L5W1L9	905-564-1033	550 Courtneypark Drive West
ON	Brampton	http://schools.peelschools.org/1477	Kindergarten Grade 1 Grade 2 Grade 3 Grade 4 Grade 5	Peel District School Board		http://www.peelschools.org/schools/Pages/profile.aspx?sid=1477	Larkspur Public School	Public School	L6R1X2	905-799-2952	111 Larkspur Road
ON	Brampton	http://schools.peelschools.org/1508	Kindergarten Grade 1 Grade 2 Grade 3 Grade 4 Grade 5 Grade 6 Grade 7 Grade 8	Peel District School Board		http://www.peelschools.org/schools/Pages/profile.aspx?sid=1508	Lorenville Public School	Public School	L6X2Z9	905-453-7091	10 Lorenville Drive
ON	Mississauga	http://schools.peelschools.org/1105	Kindergarten Grade 1 Grade 2 Grade 3 Grade 4 Grade 5	Peel District School Board		http://www.peelschools.org/schools/Pages/profile.aspx?sid=1105	Lancaster Public School	Public School	L4T2N7	905-677-5844	7425 Netherwood Road
ON	Caledon	http://mayfieldss.peelschools.org	Grade 9 Grade 10 Grade 11 Grade 12	Peel District School Board		http://www.peelschools.org/schools/Pages/profile.aspx?sid=2452	Mayfield Secondary School	Secondary School	L7C0Z5	905-846-6060	5000 Mayfield Road
ON	Brampton	http://schools.peelschools.org/1529	Kindergarten Grade 1 Grade 2 Grade 3 Grade 4 Grade 5	Peel District School Board		http://www.peelschools.org/schools/Pages/profile.aspx?sid=1529	Glendale Public School	Public School	L6X1X1	905-451-2463	35 Sunset Blvd.
ON	Brampton	http://schools.peelschools.org/1476	Kindergarten Grade 1 Grade 2 Grade 3 Grade 4 Grade 5 Grade 6 Grade 7 Grade 8	Peel District School Board		http://www.peelschools.org/schools/Pages/profile.aspx?sid=1476	Great Lakes Public School	Public School	L6R2R8	905-793-8532	285 Great Lakes Drive
ON	Brampton	http://schools.peelschools.org/1523	Kindergarten Grade 6 Grade 7 Grade 8	Peel District School Board		http://www.peelschools.org/schools/Pages/profile.aspx?sid=1523	Gordon Graydon Sr. Public School	Public School	L6V2X9	905-453-1775	170 Rutherford Road North
ON	Mississauga	http://schools.peelschools.org/1310	Kindergarten Grade 1 Grade 2 Grade 3 Grade 4 Grade 5	Peel District School Board		http://www.peelschools.org/schools/Pages/profile.aspx?sid=1310	Garthwood Park Public School	Public School	L5L5G2	905-607-0800	3245 Colonial Drive
ON	Mississauga	http://schools.peelschools.org/1570	Kindergarten Grade 1 Grade 2 Grade 3 Grade 4 Grade 5	Peel District School Board		http://www.peelschools.org/schools/Pages/profile.aspx?sid=1570	Kindree Public School	Public School	L5N7L8	905-824-8371	7370 Terragar Blvd.
ON	Brampton	http://schools.peelschools.org/1536	Kindergarten Grade 1 Grade 2 Grade 3 Grade 4 Grade 5	Peel District School Board		http://www.peelschools.org/schools/Pages/profile.aspx?sid=1536	Kingswood Drive Public School	Public School	L6V3B3	905-457-9971	235 Kingswood Dr.
ON	Mississauga	http://schools.peelschools.org/1206	Kindergarten Grade 1 Grade 2 Grade 3 Grade 4 Grade 5	Peel District School Board		http://www.peelschools.org/schools/Pages/profile.aspx?sid=1206	Janet I. McDougald Public School	Public School	L5G2G6	905-278-1010	498 Hartsdale Avenue
ON	Mississauga	http://schools.peelschools.org/1279	Kindergarten Grade 1 Grade 2 Grade 3 Grade 4 Grade 5 Grade 6	Peel District School Board		http://www.peelschools.org/schools/Pages/profile.aspx?sid=1279	Kenollie Public School	Public School	L5G2X1	905-278-8991	1376 Glenwood Drive
ON	Mississauga	http://lincolnmalexanderss.peelschools.org/	Grade 9 Grade 10 Grade 11 Grade 12	Peel District School Board		http://www.peelschools.org/schools/Pages/profile.aspx?sid=2132	Lincoln M. Alexander Secondary School	Secondary School	L4T1Y3	905-676-1191	3545 Morning Star Drive
ON	Brampton	http://schools.peelschools.org/1431	Kindergarten Grade 1 Grade 2 Grade 3 Grade 4 Grade 5	Peel District School Board		http://www.peelschools.org/schools/Pages/profile.aspx?sid=1431	Jefferson Public School	Public School	L6S2N9	905-791-2818	48 Jefferson Road
ON	Brampton	http://schools.peelschools.org/1517	Kindergarten Grade 5 Grade 1 Grade 2 Grade 3 Grade 4	Peel District School Board		http://www.peelschools.org/schools/Pages/profile.aspx?sid=1517	James Potter Public School	Public School	L6X0H7	905-595-1495	9775 Creditview Road
ON	Caledon	http://schools.peelschools.org/1495	Kindergarten Grade 1 Grade 2 Grade 3 Grade 4 Grade 5 Grade 6 Grade 7 Grade 8	Peel District School Board		http://www.peelschools.org/schools/Pages/profile.aspx?sid=1495	James Grieve Public School	Public School	L7C2P9	905-843-2927	12175 Bramalea Rd
ON	Brampton	http://schools.peelschools.org/1491	Kindergarten Grade 1 Grade 2 Grade 3 Grade 4 Grade 5 Grade 6 Grade 7 Grade 8	Peel District School Board		http://www.peelschools.org/schools/Pages/profile.aspx?sid=1491	Ingleborough Public School	Public School	L6X0X5	905-451-4430	60 Ingleborough Drive
ON	Caledon	http://schools.peelschools.org/1465	Kindergarten Grade 1 Grade 2 Grade 3 Grade 4 Grade 5	Peel District School Board		http://www.peelschools.org/schools/Pages/profile.aspx?sid=1465	James Bolton Public School	Public School	L7E3X8	905-857-2666	225 Kingsview Drive
ON	Brampton	http://schools.peelschools.org/1488	Kindergarten Grade 1 Grade 2 Grade 3 Grade 4 Grade 5	Peel District School Board		http://www.peelschools.org/schools/Pages/profile.aspx?sid=1488	Hewson Public School	Public School	L6R0G2	905-595-1386	235 Father Tobin Road
ON	Mississauga	http://lorneparkss.peelschools.org/	Grade 9 Grade 10 Grade 11 Grade 12	Peel District School Board		http://www.peelschools.org/schools/Pages/profile.aspx?sid=2252	Lorne Park Secondary School	Secondary School	L5H3B1	905-278-6177	1324 Lorne Park Road
ON	Mississauga	http://schools.peelschools.org/1308	Kindergarten Grade 6 Grade 7 Grade 8	Peel District School Board		http://www.peelschools.org/schools/Pages/profile.aspx?sid=1308	Green Glade Sr. Public School	Public School	L5J1B5	905-822-8386	1550 Green Glade
ON	Brampton	http://www.judithnymanss.com	Grade 9 Grade 10 Grade 11 Grade 12	Peel District School Board		http://www.peelschools.org/schools/Pages/profile.aspx?sid=2404	Judith Nyman Secondary School	Secondary School	L6S3J8	905-791-6770	1305 Williams Pkwy.
ON	Caledon	http://schools.peelschools.org/1530	Kindergarten Grade 1 Grade 2 Grade 3 Grade 4 Grade 5 Grade 6 Grade 7 Grade 8	Peel District School Board		http://www.peelschools.org/schools/Pages/profile.aspx?sid=1530	Huttonville Public School	Public School	L7C0Y7	905-455-8480	1248 Mayfield Road West
ON	Brampton	http://schools.peelschools.org/1579	Kindergarten Grade 1 Grade 2 Grade 3 Grade 4 Grade 5	Peel District School Board		http://www.peelschools.org/schools/Pages/profile.aspx?sid=1579	Helen Wilson Public School	Public School	L6W2T7	905-451-1165	9 Abbey Rd.
ON	Mississauga	http://glenforest.peelschools.org	Grade 9 Grade 10 Grade 11 Grade 12	Peel District School Board		http://www.peelschools.org/schools/Pages/profile.aspx?sid=2172	Glenforest Secondary School	Secondary School	L4X2J6	905-625-7731	3575 Fieldgate Drive
ON	Brampton	http://schools.peelschools.org/1511	Kindergarten Grade 1 Grade 2 Grade 3 Grade 4 Grade 5	Peel District School Board		http://www.peelschools.org/schools/Pages/profile.aspx?sid=1511	Homestead Public School	Public School	L6X4T7	905-874-4142	99 Fletcher's Creek Blvd
ON	Mississauga	http://schools.peelschools.org/1323	Kindergarten Grade 6 Grade 7 Grade 8	Peel District School Board		http://www.peelschools.org/schools/Pages/profile.aspx?sid=1323	Homelands Sr. Public School	Public School	L5K1H2	905-822-2031	2420 Homelands Dr.
ON	Brampton	http://schools.peelschools.org/sec/jeanaugustine	Grade 9 Grade 10	Peel District School Board		http://www.peelschools.org/schools/Pages/profile.aspx?sid=2612	Jean Augustine Secondary School	Secondary School	L6X5L3	905-796-4562	500 Elbern Markell Drive
ON	Mississauga	http://johnfraserss.peelschools.org	Grade 9 Grade 10 Grade 11 Grade 12	Peel District School Board		http://www.peelschools.org/schools/Pages/profile.aspx?sid=2652	John Fraser Secondary School	Secondary School	L5M5H6	905-858-5910	2665 Erin Centre Blvd.
ON	Caledon	http://schools.peelschools.org/1464	Kindergarten Grade 1 Grade 2 Grade 3 Grade 4 Grade 5 Grade 6 Grade 7 Grade 8	Peel District School Board		http://www.peelschools.org/schools/Pages/profile.aspx?sid=1464	Herb Campbell Public School	Public School	L7C0T6	905-838-3952	3749 King Street
ON	Mississauga	http://schools.peelschools.org/1303	Kindergarten Grade 1 Grade 2 Grade 3 Grade 4 Grade 5 Grade 6 Grade 7 Grade 8	Peel District School Board		http://www.peelschools.org/schools/Pages/profile.aspx?sid=1303	Hillside Public School	Public School	L5J3V1	905-822-0122	1290 Kelly Road
ON	Mississauga	http://schools.peelschools.org/1375	Kindergarten Grade 1 Grade 2 Grade 3 Grade 4 Grade 5 Grade 6 Grade 7 Grade 8	Peel District School Board		http://www.peelschools.org/schools/Pages/profile.aspx?sid=1375	Hawthorn Public School	Public School	L5C1X1	905-277-4321	2473 Rosemary Drive
ON	Mississauga	http://schools.peelschools.org/1549	Kindergarten Grade 6 Grade 7 Grade 8	Peel District School Board		http://www.peelschools.org/schools/Pages/profile.aspx?sid=1549	Hazel McCallion Senior Public School	Public School	L5M4R5	905-858-1133	5750 River Grove Avenue
ON	Brampton	http://schools.peelschools.org/1430	Kindergarten Grade 1 Grade 2 Grade 3 Grade 4 Grade 5	Peel District School Board		http://www.peelschools.org/schools/Pages/profile.aspx?sid=1430	Hilldale Public School	Public School	L6S2N3	905-793-4452	100 Hilldale Cres.
ON	Brampton	http://schools.peelschools.org/1531	Kindergarten Grade 1 Grade 2 Grade 3 Grade 4 Grade 5	Peel District School Board		http://www.peelschools.org/schools/Pages/profile.aspx?sid=1531	Harold F. Loughin Public School	Public School	L6V2E7	905-457-6812	39 Herkley Dr.
ON	Brampton	http://schools.peelschools.org/1575	Kindergarten Grade 1 Grade 2 Grade 3 Grade 4 Grade 5	Peel District School Board		http://www.peelschools.org/schools/Pages/profile.aspx?sid=1575	Hickory Wood Public School	Public School	L6Y4W8	905-451-3444	630 Ray Lawson Blvd.
ON	Mississauga	http://schools.peelschools.org/1176	Kindergarten Grade 1 Grade 2 Grade 3 Grade 4 Grade 5	Peel District School Board		http://www.peelschools.org/schools/Pages/profile.aspx?sid=1176	Forest Glen Public School	Public School	L4X1V5	905-625-1462	3400 Ponytrail Drive
ON	Mississauga	http://schools.peelschools.org/1276	Kindergarten Grade 1 Grade 2 Grade 3 Grade 4 Grade 5 Grade 6	Peel District School Board		http://www.peelschools.org/schools/Pages/profile.aspx?sid=1276	Forest Avenue Public School	Public School	L5G1K7	905-278-2472	20 Forest Ave.
ON	Caledon	http://www.humberviewss.ca	Grade 9 Grade 10 Grade 11 Grade 12	Peel District School Board		http://www.peelschools.org/schools/Pages/profile.aspx?sid=2472	Humberview Secondary School	Secondary School	L7E3V8	905-857-0771	135 Kingsview Drive
ON	Mississauga	http://schools.peelschools.org/1256	Kindergarten Grade 6 Grade 7 Grade 8	Peel District School Board		http://www.peelschools.org/schools/Pages/profile.aspx?sid=1256	Hillcrest Middle School	Middle School	L5J3H6	905-822-1657	1530 Springwell Ave.
ON	Brampton	http://schools.peelschools.org/1414	Kindergarten Grade 1 Grade 2 Grade 3 Grade 4 Grade 5	Peel District School Board		http://www.peelschools.org/schools/Pages/profile.aspx?sid=1414	Fernforest Public School	Public School	L6R1L9	905-793-6157	275 Fernforest Drive
ON	Brampton	http://schools.peelschools.org/1412	Kindergarten Grade 1 Grade 2 Grade 3 Grade 4 Grade 5	Peel District School Board		http://www.peelschools.org/schools/Pages/profile.aspx?sid=1412	Fallingdale Public School	Public School	L6T2E4	905-791-8543	510 Clark Blvd.
ON	Brampton	http://schools.peelschools.org/1413	Kindergarten Grade 1 Grade 2 Grade 3 Grade 4 Grade 5	Peel District School Board		http://www.peelschools.org/schools/Pages/profile.aspx?sid=1413	Folkstone Public School	Public School	L6T3M5	905-792-2266	104 Folkstone Cres.
ON	Mississauga	http://schools.peelschools.org/1547	Kindergarten Grade 6 Grade 7 Grade 8	Peel District School Board		http://www.peelschools.org/schools/Pages/profile.aspx?sid=1547	Fallingbrook Middle School	Middle School	L5V1N7	905-812-7470	5187 Fallingbrook Drive
ON	Brampton	http://www.heartlakess.ca	Grade 9 Grade 10 Grade 11 Grade 12	Peel District School Board		http://www.peelschools.org/schools/Pages/profile.aspx?sid=2462	Heart Lake Secondary School	Secondary School	L6Z3M1	905-840-2328	296 Conestoga Dr.
ON	Mississauga	http://schools.peelschools.org/1277	Kindergarten Grade 1 Grade 2 Grade 3 Grade 4 Grade 5 Grade 6	Peel District School Board		http://www.peelschools.org/schools/Pages/profile.aspx?sid=1277	Floradale Public School	Public School	L5B2A4	905-275-1090	210 Paisley Blvd. W.
ON	Mississauga	http://schools.peelschools.org/1360	Kindergarten Grade 1 Grade 2 Grade 3 Grade 4 Grade 5	Peel District School Board		http://www.peelschools.org/schools/Pages/profile.aspx?sid=1360	Fairview Public School	Public School	L5B1T8	905-277-0281	3590 Joan Dr.
ON	Mississauga	http://schools.peelschools.org/1159	Kindergarten Grade 6 Grade 7 Grade 8	Peel District School Board		http://www.peelschools.org/schools/Pages/profile.aspx?sid=1159	Fairwind Sr. Public School	Public School	L5R3L2	905-507-3877	5235 Fairwind Drive
ON	Brampton	http://schools.peelschools.org/1574	Kindergarten Grade 6 Grade 7 Grade 8	Peel District School Board		http://www.peelschools.org/schools/Pages/profile.aspx?sid=1574	Fletcher's Creek Sr. Public School	Public School	L6Y4C8	905-796-8226	92 Malta Avenue
ON	Brampton	http://schools.peelschools.org/1443/	Kindergarten Grade 1 Grade 2 Grade 3 Grade 4 Grade 5 Grade 6 Grade 7 Grade 8	Peel District School Board		http://www.peelschools.org/schools/Pages/profile.aspx?sid=1443	Fairlawn Public School	Public School	L6P2X4	905-794-6063	40 Fairlawn Blvd
ON	Brampton	http://schools.peelschools.org/1505	Kindergarten Grade 1 Grade 2 Grade 3 Grade 4 Grade 5 Grade 6 Grade 7 Grade 8	Peel District School Board		http://www.peelschools.org/schools/Pages/profile.aspx?sid=1505	Eldorado Public School	Public School	L6Y0T7	905-456-7690	25 Wardsville Drive
ON	Brampton	http://schools.peelschools.org/1475	Kindergarten Grade 1 Grade 2 Grade 3 Grade 4 Grade 5	Peel District School Board		http://www.peelschools.org/schools/Pages/profile.aspx?sid=1475	Esker Lake Public School	Public School	L6Z4S2	905-840-5442	10420 Heart Lake Road
ON	Mississauga	http://schools.peelschools.org/1564	Kindergarten Grade 7 Grade 8	Peel District School Board		http://www.peelschools.org/schools/Pages/profile.aspx?sid=1564	Edenwood Middle School	Middle School	L5N3B2	905-824-1020	6770 Edenwood Drive
ON	Brampton	http://schools.peelschools.org/1428	Kindergarten Grade 1 Grade 2 Grade 3 Grade 4 Grade 5	Peel District School Board		http://www.peelschools.org/schools/Pages/profile.aspx?sid=1428	Hanover Public School	Public School	L6S1B6	905-793-4237	215 Hanover Rd.
ON	Brampton	http://haroldmbrathwaitess.peelschools.org	Grade 9 Grade 10 Grade 11 Grade 12	Peel District School Board		http://www.peelschools.org/schools/Pages/profile.aspx?sid=2482	Harold M. Brathwaite Secondary School	Secondary School	L6R2Z4	905-793-2155	415 Great Lakes Drive
ON	Mississauga	http://schools.peelschools.org/1568	Kindergarten Grade 1 Grade 2 Grade 3 Grade 4 Grade 5	Peel District School Board		http://www.peelschools.org/schools/Pages/profile.aspx?sid=1568	Edenrose Public School	Public School	L5V1K9	905-567-4296	1342 Edenrose Street
ON	Mississauga	http://schools.peelschools.org/1324	Kindergarten Grade 6 Grade 7 Grade 8	Peel District School Board		http://www.peelschools.org/schools/Pages/profile.aspx?sid=1324	Erin Mills Middle School	Middle School	L5L2B1	905-820-9777	3546 South Common Court
ON	Brampton	http://schools.peelschools.org/1469	Kindergarten Grade 1 Grade 2 Grade 3 Grade 4 Grade 5	Peel District School Board		http://www.peelschools.org/schools/Pages/profile.aspx?sid=1469	Edenbrook Hill Public School	Public School	L7A1X6	905-452-8296	61 Edenbrook Hill Drive
ON	Mississauga	http://schools.peelschools.org/1319	Kindergarten Grade 6 Grade 7 Grade 8	Peel District School Board		http://www.peelschools.org/schools/Pages/profile.aspx?sid=1319	Erin Centre Middle School	Middle School	L5M7T9	905-820-5720	3240 Erin Centre Blvd.
ON	Caledon	http://schools.peelschools.org/1463	Kindergarten Grade 1 Grade 2 Grade 3 Grade 4 Grade 5	Peel District School Board		http://www.peelschools.org/schools/Pages/profile.aspx?sid=1463	Ellwood Memorial Public School	Public School	L7E2A7	905-857-3021	35 Ellwood Dr. E.
ON	Brampton	http://schools.peelschools.org/1411	Kindergarten Grade 1 Grade 2 Grade 3 Grade 4 Grade 5	Peel District School Board		http://www.peelschools.org/schools/Pages/profile.aspx?sid=1411	Eastbourne Drive Public School	Public School	L6T1X3	905-792-2264	702 Balmoral Dr.
ON	Brampton	http://fletchersmeadowss.peelschools.org	Grade 9 Grade 10 Grade 11 Grade 12	Peel District School Board		http://www.peelschools.org/schools/Pages/profile.aspx?sid=2492	Fletcher's Meadow Secondary School	Secondary School	L7A2Z7	905-495-2675	10750 Chinguacousy Road
ON	Brampton	http://schools.peelschools.org/1410	Kindergarten Grade 6 Grade 7 Grade 8	Peel District School Board		http://www.peelschools.org/schools/Pages/profile.aspx?sid=1410	Earnscliffe Sr. Public School	Public School	L6T2B2	905-793-2903	50 Earnscliffe Circle
ON	Mississauga	http://schools.peelschools.org/1158	Kindergarten Grade 1 Grade 2 Grade 3 Grade 4 Grade 5	Peel District School Board		http://www.peelschools.org/schools/Pages/profile.aspx?sid=1158	Dixie Public School	Public School	L4Y2K1	905-277-9505	1120 Flagship Dr.
ON	Brampton	http://schools.peelschools.org/1441	Kindergarten Grade 1 Grade 2 Grade 3 Grade 4 Grade 5 Grade 6 Grade 7 Grade 8	Peel District School Board		http://www.peelschools.org/schools/Pages/profile.aspx?sid=1441	Eagle Plains Public School	Public School	L6R2X8	905-793-4969	40 Eagle Plains Drive
ON	Mississauga	http://schools.peelschools.org/1376	Kindergarten Grade 1 Grade 2 Grade 3 Grade 4 Grade 5 Grade 6	Peel District School Board		http://www.peelschools.org/schools/Pages/profile.aspx?sid=1376	Ellengale Public School	Public School	L5C1Z7	905-279-1555	3480 Ellengale Dr.
ON	Brampton	http://schools.peelschools.org/1409	Kindergarten Grade 1 Grade 2 Grade 3 Grade 4 Grade 5	Peel District School Board		http://www.peelschools.org/schools/Pages/profile.aspx?sid=1409	Dorset Drive Public School	Public School	L6T2Y9	905-793-5210	100 Dorset Drive
ON	Mississauga	http://schools.peelschools.org/1108	Kindergarten Grade 1 Grade 2 Grade 3 Grade 4 Grade 5	Peel District School Board		http://www.peelschools.org/schools/Pages/profile.aspx?sid=1108	Dunrankin Dr. Public School	Public School	L4T1V9	905-677-2202	3700 Dunrankin Dr.
ON	Mississauga	http://schools.peelschools.org/1581	Kindergarten Grade 1 Grade 2 Grade 3 Grade 4 Grade 5	Peel District School Board		http://www.peelschools.org/schools/Pages/profile.aspx?sid=1581	Derry West Village Public School	Public School	L5W1M1	905-565-5762	620 Twain Avenue
ON	Brampton	http://schools.peelschools.org/1449	Kindergarten Grade 1 Grade 2 Grade 3 Grade 4 Grade 5 Grade 6 Grade 7 Grade 8	Peel District School Board		http://www.peelschools.org/schools/Pages/profile.aspx?sid=1449	Dolson Public School	Public School	L7A	905-796-4462	95 Remembrance Road
ON	Mississauga	http://schools.peelschools.org/1544	Kindergarten Grade 6 Grade 7 Grade 8	Peel District School Board		http://www.peelschools.org/schools/Pages/profile.aspx?sid=1544	David Leeder Middle School	Middle School	L5W1B4	905-362-1340	6900 Gooderham Estate Blvd.
ON	Caledon	http://schools.peelschools.org/1461	Kindergarten Grade 1 Grade 2 Grade 3 Grade 4 Grade 5 Grade 6 Grade 7 Grade 8	Peel District School Board		http://www.peelschools.org/schools/Pages/profile.aspx?sid=1461	Credit View Public School	Public School	L7C1W4	905-838-2121	13990 Mississauga Road
ON	Mississauga	http://schools.peelschools.org/1104	Kindergarten Grade 6 Grade 7 Grade 8	Peel District School Board		http://www.peelschools.org/schools/Pages/profile.aspx?sid=1104	Darcel Avenue Sr. Public School	Public School	L4T2Y2	905-677-3802	7635 Darcel Ave.
ON	Mississauga	http://schools.peelschools.org/1653	Kindergarten Grade 1 Grade 2 Grade 3 Grade 4 Grade 5	Peel District School Board		http://www.peelschools.org/schools/Pages/profile.aspx?sid=1653	Credit Valley Public School	Public School	L5M4E8	905-607-0770	2365 Credit Valley Road
ON	Mississauga	http://erindaless.peelschools.org	Grade 9 Grade 10 Grade 11 Grade 12	Peel District School Board		http://www.peelschools.org/schools/Pages/profile.aspx?sid=2322	Erindale Secondary School	Secondary School	L5K1R2	905-828-7206	2021 Dundas St. W.
ON	Brampton	http://schools.peelschools.org/1494	Kindergarten Grade 6 Grade 7 Grade 8	Peel District School Board		http://www.peelschools.org/schools/Pages/profile.aspx?sid=1494	Cheyne Middle School	Middle School	L7A3L3	905-840-0402	236 Queen Mary Drive
ON	Brampton	http://schools.peelschools.org/1577	Kindergarten Grade 1 Grade 2 Grade 3 Grade 4 Grade 5	Peel District School Board		http://www.peelschools.org/schools/Pages/profile.aspx?sid=1577	Cherrytree Public School	Public School	L6Y3M9	905-454-2251	155 Cherrytree Drive
ON	Mississauga	http://schools.peelschools.org/1553	Kindergarten Grade 6 Grade 7 Grade 8	Peel District School Board		http://www.peelschools.org/schools/Pages/profile.aspx?sid=1553	Dolphin Sr. Public School	Public School	L5M1H3	905-826-4247	18 Brookside Dr.
ON	Brampton	http://schools.peelschools.org/1513/	Kindergarten Grade 1 Grade 2 Grade 3 Grade 4 Grade 5 Grade 6 Grade 7 Grade 8	Peel District School Board		http://www.peelschools.org/schools/Pages/profile.aspx?sid=1513	Countryside Village Public School	Public School	L7C2P9	905-796-4467	12175 Bramalea Road
ON	Mississauga	http://schools.peelschools.org/1155	Kindergarten Grade 1 Grade 2 Grade 3 Grade 4 Grade 5	Peel District School Board		http://www.peelschools.org/schools/Pages/profile.aspx?sid=1155	Champlain Trail Public School	Public School	L5R3B5	905-568-1836	895 Ceremonial Drive
ON	Mississauga	http://schools.peelschools.org/1359	Kindergarten Grade 1 Grade 2 Grade 3 Grade 4 Grade 5	Peel District School Board		http://www.peelschools.org/schools/Pages/profile.aspx?sid=1359	Corsair Public School	Public School	L5A2L9	905-279-1511	2230 Corsair Road
ON	Mississauga	http://schools.peelschools.org/1107	Kindergarten Grade 1 Grade 2 Grade 3 Grade 4 Grade 5	Peel District School Board		http://www.peelschools.org/schools/Pages/profile.aspx?sid=1107	Corliss Public School	Public School	L4T2Z4	905-677-5350	3730 Corliss Cres.
ON	Brampton	http://www.chinguacousyss.com	Grade 9 Grade 10 Grade 11 Grade 12	Peel District School Board		http://www.peelschools.org/schools/Pages/profile.aspx?sid=2422	Chinguacousy Secondary School	Secondary School	L6S1V3	905-791-2400	1370 Williams Pkwy.
ON	Brampton	http://schools.peelschools.org/1518	Kindergarten Grade 1 Grade 2 Grade 3 Grade 4 Grade 5	Peel District School Board		http://www.peelschools.org/schools/Pages/profile.aspx?sid=1518	Copeland Public School	Public School	L6Y0P4	905-451-2217	5 Young Drive
ON	Brampton	http://schools.peelschools.org/1426	Kindergarten Grade 1 Grade 2 Grade 3 Grade 4 Grade 5 Grade 6 Grade 7 Grade 8	Peel District School Board		http://www.peelschools.org/schools/Pages/profile.aspx?sid=1426	Castlemore Public School	Public School	L6P0A7	905-913-0845	9916 The Gore Rd
ON	Mississauga	http://schools.peelschools.org/1165	Kindergarten Grade 1 Grade 2 Grade 3 Grade 4 Grade 5	Peel District School Board		http://www.peelschools.org/schools/Pages/profile.aspx?sid=1165	Cooksville Creek Public School	Public School	L5R3E3	905-568-3402	5100 Salishan Circle
ON	Brampton	http://schools.peelschools.org/1474	Kindergarten Grade 1 Grade 2 Grade 3 Grade 4 Grade 5	Peel District School Board		http://www.peelschools.org/schools/Pages/profile.aspx?sid=1474	Conestoga Public School	Public School	L6Z3M1	905-846-2311	300 Conestoga Dr.
ON	Brampton	http://schools.peelschools.org/1506	Kindergarten Grade 6 Grade 7 Grade 8	Peel District School Board		http://www.peelschools.org/schools/Pages/profile.aspx?sid=1506	Centennial Sr. Public School	Public School	L6Y1V5	905-459-5200	50 Ladore Drive
ON	Brampton	http://davidsuzukiss.peelschools.org	Grade 9 Grade 10 Grade 11 Grade 12	Peel District School Board		http://www.peelschools.org/schools/Pages/profile.aspx?sid=2662	David Suzuki Secondary School	Secondary School	L6X0Z3	905-457-7941	45 Daviselm Drive
ON	Mississauga	http://schools.peelschools.org/1357	Kindergarten Grade 1 Grade 2 Grade 3 Grade 4 Grade 5	Peel District School Board		http://www.peelschools.org/schools/Pages/profile.aspx?sid=1357	Clifton Public School	Public School	L5A2P1	905-277-2611	2389 Cliff Road
ON	Brampton	http://schools.peelschools.org/1496	Kindergarten Grade 1 Grade 2 Grade 3 Grade 4 Grade 5 Grade 6 Grade 7 Grade 8	Peel District School Board		http://www.peelschools.org/schools/Pages/profile.aspx?sid=1496	Castle Oaks Public School	Public School	L6P3V4	905-796-4450	155 Castle Oaks Crossing
ON	Mississauga	http://schools.peelschools.org/1306	Kindergarten Grade 1 Grade 2 Grade 3 Grade 4 Grade 5	Peel District School Board		http://www.peelschools.org/schools/Pages/profile.aspx?sid=1306	Clarkson Public School	Public School	L5J2V3	905-823-4470	888 Clarkson Rd. South
ON	Mississauga	http://schools.peelschools.org/1657	Kindergarten Grade 1 Grade 2 Grade 3 Grade 4 Grade 5	Peel District School Board		http://www.peelschools.org/schools/Pages/profile.aspx?sid=1657	Castlebridge Public School	Public School	L5M5J9	905-812-7906	2801 Castlebridge Drive
ON	Mississauga	http://schools.peelschools.org/1260	Kindergarten Grade 1 Grade 2 Grade 3 Grade 4 Grade 5 Grade 6	Peel District School Board		http://www.peelschools.org/schools/Pages/profile.aspx?sid=1260	Cashmere Avenue Public School	Public School	L5B2M7	905-276-4434	2455 Cashmere Ave.
ON	Brampton	http://schools.peelschools.org/1408	Kindergarten Grade 1 Grade 2 Grade 3 Grade 4 Grade 5	Peel District School Board		http://www.peelschools.org/schools/Pages/profile.aspx?sid=1408	Clark Boulevard Public School	Public School	L6T2C9	905-793-6060	201 Clark Blvd.
ON	Brampton	http://centralpeelss.peelschools.org	Grade 9 Grade 10 Grade 11 Grade 12	Peel District School Board		http://www.peelschools.org/schools/Pages/profile.aspx?sid=2522	Central Peel Secondary School	Secondary School	L6V1X4	905-451-0432	32 Kennedy Road N.
ON	Brampton	http://schools.peelschools.org/1490	Kindergarten Grade 1 Grade 2 Grade 3 Grade 4 Grade 5	Peel District School Board		http://www.peelschools.org/schools/Pages/profile.aspx?sid=1490	Carberry Public School	Public School	L6R0W1	905-458-6771	526 Fernforest Drive
ON	Brampton	http://schools.peelschools.org/1504	Kindergarten Grade 1 Grade 2 Grade 3 Grade 4 Grade 5	Peel District School Board		http://www.peelschools.org/schools/Pages/profile.aspx?sid=1504	Claireville Public School	Public School	L6P1R6	905-794-8714	97 Gallucci Crescent
ON	Mississauga	http://schools.peelschools.org/1353	Kindergarten Grade 6 Grade 7 Grade 8	Peel District School Board		http://www.peelschools.org/schools/Pages/profile.aspx?sid=1353	Camilla Road Sr. Public School	Public School	L5A1J1	905-270-0845	201 Cherry Post Drive
ON	Brampton	http://www.castlebrookess.com	Grade 9 Grade 10 Grade 11 Grade 12	Peel District School Board		http://www.peelschools.org/schools/Pages/profile.aspx?sid=2692	Castlebrooke Secondary School	Secondary School	L6P3L1	905-794-2485	10 Gardenbrooke Trail
ON	Brampton	http://schools.peelschools.org/1436	Kindergarten Grade 1 Grade 2 Grade 3 Grade 4 Grade 5 Grade 6 Grade 7 Grade 8	Peel District School Board		http://www.peelschools.org/schools/Pages/profile.aspx?sid=1436	Churchville Public School	Public School	L6Y0Y3	905-796-4445	90 Bonnie Braes Drive
ON	Mississauga	http://schools.peelschools.org/1204/	Kindergarten Grade 1 Grade 2 Grade 3 Grade 4 Grade 5	Peel District School Board		http://www.peelschools.org/schools/Pages/profile.aspx?sid=1204	Chris Hadfield Public School	Public School	L5B3W7	905-755-8843	465 Fairview Road West
ON	Brampton	http://schools.peelschools.org/1435	Kindergarten Grade 6 Grade 7 Grade 8	Peel District School Board		http://www.peelschools.org/schools/Pages/profile.aspx?sid=1435	Calderstone Middle School	Middle School	L6P2L7	905-913-1162	160 Calderstone Road
ON	Mississauga	http://schools.peelschools.org/1106	Kindergarten Grade 1 Grade 2 Grade 3 Grade 4 Grade 5	Peel District School Board		http://www.peelschools.org/schools/Pages/profile.aspx?sid=1106	Brandon Gate Public School	Public School	L4T3V9	905-677-9679	3800 Brandon Gate
ON	Mississauga	http://www.cawthrapark.com	Grade 9 Grade 10 Grade 11 Grade 12	Peel District School Board		http://www.peelschools.org/schools/Pages/profile.aspx?sid=2202	Cawthra Park Secondary School	Secondary School	L5G4L1	905-274-1271	1305 Cawthra Road
ON	Brampton	http://schools.peelschools.org/1478	Kindergarten Grade 1 Grade 2 Grade 3 Grade 4 Grade 5	Peel District School Board		http://www.peelschools.org/schools/Pages/profile.aspx?sid=1478	Burnt Elm Public School	Public School	L7A1T8	905-495-9368	85 Burnt Elm Drive
ON	Brampton	http://schools.peelschools.org/1415/Pages/default.aspx	Kindergarten Grade 1 Grade 2 Grade 3 Grade 4 Grade 5 Grade 6 Grade 7 Grade 8	Peel District School Board		http://www.peelschools.org/schools/Pages/profile.aspx?sid=1415	Beryl Ford Public School	Public School	L6P3N5	905-794-0852	45 Ironshield Drive
ON	Brampton	http://schools.peelschools.org/1407	Kindergarten Grade 1 Grade 2 Grade 3 Grade 4 Grade 5	Peel District School Board		http://www.peelschools.org/schools/Pages/profile.aspx?sid=1407	Birchbank Public School	Public School	L6T1L7	905-793-7984	52 Birchbank Rd.
ON	Mississauga	http://schools.peelschools.org/1156/	Kindergarten Grade 1 Grade 2 Grade 3 Grade 4 Grade 5	Peel District School Board		http://www.peelschools.org/schools/Pages/profile.aspx?sid=1156	Burnhamthorpe Public School	Public School	L4Y3H7	905-625-0140	3465 Golden Orchard Dr.
ON	Mississauga	http://schools.peelschools.org/1326	Kindergarten Grade 1 Grade 2 Grade 3 Grade 4 Grade 5	Peel District School Board		http://www.peelschools.org/schools/Pages/profile.aspx?sid=1326	Brookmede Public School	Public School	L5L1B7	905-820-9833	2250 Council Ring Road
ON	Mississauga	http://schools.peelschools.org/1543	Kindergarten Grade 1 Grade 2 Grade 3 Grade 4 Grade 5	Peel District School Board		http://www.peelschools.org/schools/Pages/profile.aspx?sid=1543	Britannia Public School	Public School	L5V1C2	905-814-1146	1145 Swinbourne Drive
ON	Mississauga	http://schools.peelschools.org/1147	Kindergarten Grade 6 Grade 7 Grade 8	Peel District School Board		http://www.peelschools.org/schools/Pages/profile.aspx?sid=1147	Bristol Road Middle School	Middle School	L4Z3V5	905-755-9809	210 Bristol Road East
ON	Caledon	http://schools.peelschools.org/1458	Kindergarten Grade 1 Grade 2 Grade 3 Grade 4 Grade 5 Grade 6	Peel District School Board		http://www.peelschools.org/schools/Pages/profile.aspx?sid=1458	Belfountain Public School	Public School	L7K0E8	519-927-5212	17247 Shaws Creek Road
ON	Brampton	http://schools.peelschools.org/1503	Kindergarten Grade 6 Grade 7 Grade 8	Peel District School Board		http://www.peelschools.org/schools/Pages/profile.aspx?sid=1503	Beatty-Fleming Sr. Public School	Public School	L6X2H6	905-457-6107	21 Campbell Drive
ON	Brampton	http://schools.peelschools.org/1484	Kindergarten Grade 1 Grade 2 Grade 3 Grade 4 Grade 5	Peel District School Board		http://www.peelschools.org/schools/Pages/profile.aspx?sid=1484	Brisdale Public School	Public School	L7A3K7	905-840-2135	370 Brisdale Drive
ON	Mississauga	http://schools.peelschools.org/1149	Kindergarten Grade 1 Grade 2 Grade 3 Grade 4 Grade 5	Peel District School Board		http://www.peelschools.org/schools/Pages/profile.aspx?sid=1149	Barondale Public School	Public School	L4Z3N7	905-502-1880	200 Barondale Drive
ON	Mississauga	http://www.clarksonss.ca	Grade 9 Grade 10 Grade 11 Grade 12	Peel District School Board		http://www.peelschools.org/schools/Pages/profile.aspx?sid=2302	Clarkson Secondary School	Secondary School	L5J1L8	905-822-6700	2524 Bromsgrove Road
ON	Mississauga	http://schools.peelschools.org/1356	Kindergarten Grade 1 Grade 2 Grade 3 Grade 4 Grade 5	Peel District School Board		http://www.peelschools.org/schools/Pages/profile.aspx?sid=1356	Briarwood Public School	Public School	L5A2A1	905-270-2597	1065 Mississauga Valley Blvd.
ON	Mississauga			Peel District School Board		http://www.peelschools.org/schools/Pages/profile.aspx?sid=2392	AEC - Mississauga Campus	Mississauga Campus	L5B1L9	905-890-1010	100 Elm Drive West
ON	Mississauga	http://schools.peelschools.org/1178	Kindergarten Grade 1 Grade 2 Grade 3 Grade 4 Grade 5	Peel District School Board		http://www.peelschools.org/schools/Pages/profile.aspx?sid=1178	Brian W. Fleming Public School	Public School	L4X2M2	905-625-3220	3255 Havenwood Drive
ON	Brampton	http://bramaleass.peelschools.org	Grade 9 Grade 10 Grade 11 Grade 12	Peel District School Board		http://www.peelschools.org/schools/Pages/profile.aspx?sid=2402	Bramalea Secondary School	Secondary School	L6T1W4	905-793-2400	510 Balmoral Drive
ON	Brampton	http://schools.peelschools.org/1403	Kindergarten Grade 6 Grade 7 Grade 8	Peel District School Board		http://www.peelschools.org/schools/Pages/profile.aspx?sid=1403	Balmoral Drive Sr. Public School	Public School	L6T1V5	905-793-6070	233 Balmoral Dr.
ON	Brampton	http://schools.peelschools.org/1425	Kindergarten Grade 1 Grade 2 Grade 3 Grade 4 Grade 5 Grade 6 Grade 7 Grade 8	Peel District School Board		http://www.peelschools.org/schools/Pages/profile.aspx?sid=1425	Aylesbury Public School	Public School	L7A0V3	905-796-4451	25 Aylesbury Drive
ON	Brampton	http://bramptoncentennialss.peelschools.org	Grade 9 Grade 10 Grade 11 Grade 12	Peel District School Board		http://www.peelschools.org/schools/Pages/profile.aspx?sid=2502	Brampton Centennial Secondary School	Secondary School	L6Y1Z4	905-451-2860	251 McMurchy Avenue S.
ON	Caledon	http://schools.peelschools.org/1457	Kindergarten Grade 1 Grade 2 Grade 3 Grade 4 Grade 5 Grade 6 Grade 7 Grade 8	Peel District School Board		http://www.peelschools.org/schools/Pages/profile.aspx?sid=1457	Alloa Public School	Public School	L7C1X1	905-843-2332	12287 Mississauga Road
ON	Brampton	http://schools.peelschools.org/1406	Kindergarten Grade 1 Grade 2 Grade 3 Grade 4 Grade 5	Peel District School Board		http://www.peelschools.org/schools/Pages/profile.aspx?sid=1406	Aloma Crescent Public School	Public School	L6T2N8	905-793-7070	57 Aloma Cres.
ON	Mississauga	http://schools.peelschools.org/1316	Kindergarten Grade 1 Grade 2 Grade 3 Grade 4 Grade 5	Peel District School Board		http://www.peelschools.org/schools/Pages/profile.aspx?sid=1316	Artesian Drive Public School	Public School	L5M7J8	905-820-7786	3325 Artesian Drive
ON	Mississauga	http://schools.peelschools.org/1223	Kindergarten Grade 6 Grade 7 Grade 8	Peel District School Board		http://www.peelschools.org/schools/Pages/profile.aspx?sid=1223	Allan A. Martin Sr. Public School	Public School	L5E2H8	905-278-6104	1390 Ogden Ave.
ON	Caledon	http://schools.peelschools.org/1468	Kindergarten Grade 6 Grade 7 Grade 8	Peel District School Board		http://www.peelschools.org/schools/Pages/profile.aspx?sid=1468	Allan Drive Middle School	Middle School	L7E1R9	905-857-9144	254 Allan Drive
ON	Brampton	http://schools.peelschools.org/1524	Kindergarten Grade 1 Grade 2 Grade 3 Grade 4 Grade 5	Peel District School Board		http://www.peelschools.org/schools/Pages/profile.aspx?sid=1524	Arnott Charlton Public School	Public School	L6V3V8	905-456-3159	140 Winterfold Dr.
ON	Brampton	http://schools.peelschools.org/1526	Kindergarten Grade 1 Grade 2 Grade 3 Grade 4 Grade 5	Peel District School Board		http://www.peelschools.org/schools/Pages/profile.aspx?sid=1526	Agnes Taylor Public School	Public School	L6V1V6	905-451-2531	80 Beech St,
ON	Caledon	http://schools.peelschools.org/1456	Kindergarten Grade 1 Grade 2 Grade 3 Grade 4 Grade 5 Grade 6	Peel District School Board		http://www.peelschools.org/schools/Pages/profile.aspx?sid=1456	Alton Public School	Public School	L7K0E1	519-941-3729	19681 Main Street
ON	Mississauga	http://schools.peelschools.org/sec/applewood	Grade 9 Grade 10 Grade 11 Grade 12	Peel District School Board		http://www.peelschools.org/schools/Pages/profile.aspx?sid=2367	Applewood School	Applewood School	L5M7E6	905-363-0579	3675 Thomas Street
ON	Mississauga	http://www.applewoodheights.ca	Grade 9 Grade 10 Grade 11 Grade 12	Peel District School Board		http://www.peelschools.org/schools/Pages/profile.aspx?sid=2152	Applewood Heights Secondary School	Secondary School	L4Y2M8	905-279-6090	945 Bloor St. E
ON	Mississauga	http://schools.peelschools.org/1154	Kindergarten Grade 1 Grade 2 Grade 3 Grade 4 Grade 5	Peel District School Board		http://www.peelschools.org/schools/Pages/profile.aspx?sid=1154	Huntington Ridge Public School	Public School	L5R1R6	905-890-2170	345 Huntington Ridge Drive
