province	city	school_url	school_grades	school_board	school_language	response_url	school_name	school_type	postal_code	phone_number	street_address
 ON	 Toronto	http://schools.tdsb.on.ca/blakestreet	(GR. JK-06)	Toronto District School Board		http://www.tdsb.on.ca/FindYour/Schools.aspx?schno=5287	Blake Street Junior Public School		M4J 1A7	(416) 393-9415	21 Boultbee Ave
 ON	 Scarborough	http://schools.tdsb.on.ca/birchmountpark	(GR. 09-12)	Toronto District School Board		http://www.tdsb.on.ca/FindYour/Schools.aspx?schno=4118	Birchmount Park Collegiate Institute		M1N 2G2	(416) 396-6704	3663 Danforth Ave
 ON	 Scarborough	http://schools.tdsb.on.ca/birchcliffhts	(GR. JK-08)	Toronto District School Board		http://www.tdsb.on.ca/FindYour/Schools.aspx?schno=4342	Birch Cliff Heights Public School		M1N 2J1	(416) 396-6065	120 Highview Ave
 ON	 Scarborough	http://schools.tdsb.on.ca/beverlyglen/	(GR. JK-06)	Toronto District School Board		http://www.tdsb.on.ca/FindYour/Schools.aspx?schno=4334	Beverly Glen Junior Public School		M1W 1W4	(416) 396-6055	85 Beverly Glen Blvd
 ON	 Toronto	http://schools.tdsb.on.ca/beverley	(GR. JK-08)	Toronto District School Board		http://www.tdsb.on.ca/FindYour/Schools.aspx?schno=5313	Beverley School		M5T 1L4	(416) 397-2750	64 Baldwin St
 ON	 North York	http://schools.tdsb.on.ca/africentricschool	(GR. JK-08)	Toronto District School Board		http://www.tdsb.on.ca/FindYour/Schools.aspx?schno=3949	Africentric Alternative School		M3M 2W9	(416) 395-5251	1430 Sheppard Ave W
 ON	 North York	http://schools.tdsb.on.ca/blacksmith/	(GR. JK-05)	Toronto District School Board		http://www.tdsb.on.ca/FindYour/Schools.aspx?schno=3028	Blacksmith Public School		M3N 1V5	(416) 395-2060	45 Blacksmith Cres
 ON	 Scarborough	http://schools.tdsb.on.ca/blantyre/	(GR. JK-08)	Toronto District School Board		http://www.tdsb.on.ca/FindYour/Schools.aspx?schno=4348	Blantyre Public School		M1N 2S4	(416) 396-6070	290 Blantyre Ave
 ON	 Scarborough		(GR. JK-06)	Toronto District School Board		http://www.tdsb.on.ca/FindYour/Schools.aspx?schno=4332	Berner Trail Junior Public School		M1B 1B3	(416) 396-6050	120 Berner Trail
 ON	 Scarborough	http://schoolweb.tdsb.on.ca/bendalejr/Home.aspx	(GR. JK-06)	Toronto District School Board		http://www.tdsb.on.ca/FindYour/Schools.aspx?schno=4330	Bendale Junior Public School		M1H 1M4	(416) 396-6045	61 Benshire Dr
 ON	 North York	http://www.ayjackson.ca	(GR. 09-12)	Toronto District School Board		http://www.tdsb.on.ca/FindYour/Schools.aspx?schno=3432	A Y Jackson Secondary School		M2H 2G6	(416) 395-3140	50 Francine Dr
 ON	 North York		(GR. JK-05)	Toronto District School Board		http://www.tdsb.on.ca/FindYour/Schools.aspx?schno=3296	Yorkwoods Public School		M3N 1K1	(416) 395-2990	25 Yorkwoods Gate
 ON	 East York	http://schools.tdsb.on.ca/bessborough	(GR. JK-08)	Toronto District School Board		http://www.tdsb.on.ca/FindYour/Schools.aspx?schno=1412	Bessborough Drive Elementary and Middle School		M4G 3K2	(416) 396-2315	211 Bessborough Dr
 ON	 East York	http://schools.tdsb.on.ca/benningtonheights	(GR. JK-06)	Toronto District School Board		http://www.tdsb.on.ca/FindYour/Schools.aspx?schno=1409	Bennington Heights Elementary School		M4G 1B1	(416) 396-2310	76 Bennington Heights Dr
 ON	 Scarborough	http://schools.tdsb.on.ca/birchcliff	(GR. JK-08)	Toronto District School Board		http://www.tdsb.on.ca/FindYour/Schools.aspx?schno=4336	Birch Cliff Public School		M1N 1S2	(416) 396-6060	1650 Kingston Rd
 ON	 Toronto	http://schools.tdsb.on.ca/adambeck	(GR. JK-06)	Toronto District School Board		http://www.tdsb.on.ca/FindYour/Schools.aspx?schno=5306	Adam Beck Junior Public School		M4E 3M8	(416) 393-1682	400 Scarborough Rd
 ON	 North York	http://schools.tdsb.on.ca/yorkmillsci/	(GR. 10-12)	Toronto District School Board		http://www.tdsb.on.ca/FindYour/Schools.aspx?schno=3450	York Mills Collegiate Institute		M3B 1W6	(416) 395-3340	490 York Mills Rd
 ON	 York	http://www.yorkmemorial.ca	(GR. 09-12)	Toronto District School Board		http://www.tdsb.on.ca/FindYour/Schools.aspx?schno=6697	York Memorial Collegiate Institute		M6M 1T9	(416) 394-3000	2690 Eglinton Ave W
 ON	 Scarborough		(GR. JK-06)	Toronto District School Board		http://www.tdsb.on.ca/FindYour/Schools.aspx?schno=4798	Woburn Junior Public School		M1G 3N2	(416) 396-6670	40 Dormington Dr
 ON	 North York	http://www.yorkdale.net	(GR. 09-12)	Toronto District School Board		http://www.tdsb.on.ca/FindYour/Schools.aspx?schno=3549	Yorkdale Adult Learning Centre		M6A 1L6	(416) 395-3350	38 Orfus Rd
 ON	 North York	http://schools.tdsb.on.ca/beverleyheights	(GR. 06-08)	Toronto District School Board		http://www.tdsb.on.ca/FindYour/Schools.aspx?schno=3211	Beverley Heights Middle School		M3M 1S5	(416) 395-3000	26 Troutbrooke Dr
 ON	 Toronto	http://schools.tdsb.on.ca/Withrow	(GR. JK-06)	Toronto District School Board		http://www.tdsb.on.ca/FindYour/Schools.aspx?schno=5285	Withrow Avenue Junior Public School		M4K 1E5	(416) 393-9440	25 Bain Ave
 ON	 North York	http://schools.tdsb.on.ca/woodbine	(GR. 07-08)	Toronto District School Board		http://www.tdsb.on.ca/FindYour/Schools.aspx?schno=3345	Woodbine Middle School		M2J 3B6	(416) 395-3110	2900 Don Mills Rd
 ON	 North York	http://www.yorkdale.net	(GR. 09-12)	Toronto District School Board		http://www.tdsb.on.ca/FindYour/Schools.aspx?schno=3947	Yorkdale Secondary School		M6A 1L6	(416) 395-3350	38 Orfus Rd
 ON	 Toronto	http://schools.tdsb.on.ca/winona	(GR. 07-08)	Toronto District School Board		http://www.tdsb.on.ca/FindYour/Schools.aspx?schno=5286	Winona Drive Senior Public School		M6G 3S8	(416) 393-1680	101 Winona Dr
 ON	 North York	http://schools.tdsb.on.ca/wilmington	(GR. JK-04)	Toronto District School Board		http://www.tdsb.on.ca/FindYour/Schools.aspx?schno=3064	Wilmington Elementary School		M3H 5L1	(416) 395-2180	330 Wilmington Ave
 ON	 York	http://www.yorkhumber.com	(GR. 09-12)	Toronto District School Board		http://www.tdsb.on.ca/FindYour/Schools.aspx?schno=6594	York Humber High School		M6M 2E6	(416) 394-3280	100 Emmett Ave
 ON	 Scarborough	http://www.woburnci.ca	(GR. 09-12)	Toronto District School Board		http://www.tdsb.on.ca/FindYour/Schools.aspx?schno=4202	Woburn Collegiate Institute		M1G 3M3	(416) 396-4575	2222 Ellesmere Rd
 ON	 Toronto	http://schools.tdsb.on.ca/winchester	(GR. SK-08)	Toronto District School Board		http://www.tdsb.on.ca/FindYour/Schools.aspx?schno=5284	Winchester Junior and Senior Public School		M4X 1C7	(416) 393-1270	15 Prospect St
 ON	 North York	http://schools.tdsb.on.ca/yorkview/	(GR. JK-05)	Toronto District School Board		http://www.tdsb.on.ca/FindYour/Schools.aspx?schno=3294	Yorkview Public School		M2R 1K1	(416) 395-2980	130 Yorkview Dr
 ON	 North York	http://www.wlmac.ca	(GR. 09-12)	Toronto District School Board		http://www.tdsb.on.ca/FindYour/Schools.aspx?schno=3444	William Lyon Mackenzie Collegiate Institute		M3H 5R2	(416) 395-3330	20 Tillplain Rd
 ON	 North York	http://schools.tdsb.on.ca/willowdale	(GR. 06-08)	Toronto District School Board		http://www.tdsb.on.ca/FindYour/Schools.aspx?schno=3288	Willowdale Middle School		M2R 1P6	(416) 395-2970	225 Senlac Rd
 ON	 Scarborough	http://schools.tdsb.on.ca/churchillci	(GR. 09-12)	Toronto District School Board		http://www.tdsb.on.ca/FindYour/Schools.aspx?schno=4196	Winston Churchill Collegiate Institute		M1P 2P7	(416) 396-6883	2239 Lawrence Ave E
 ON	 Toronto	http://schools.tdsb.on.ca/williamjmccordic	(GR. JK-08)	Toronto District School Board		http://www.tdsb.on.ca/FindYour/Schools.aspx?schno=5314	William J McCordic School		M4C 1T4	(416) 397-2720	45 Balfour Ave
 ON	 East York		(GR. JK-05)	Toronto District School Board		http://www.tdsb.on.ca/FindYour/Schools.aspx?schno=1196	William Burgess Elementary School		M4J 2P5	(416) 396-2490	100 Torrens Ave
 ON	 Toronto	http://schools.tdsb.on.ca/whitney/	(GR. JK-06)	Toronto District School Board		http://www.tdsb.on.ca/FindYour/Schools.aspx?schno=5307	Whitney Junior Public School		M4T 1C7	(416) 393-9380	119 Rosedale Heights Dr
 ON	 North York	http://schools.tdsb.on.ca/windfields	(GR. 07-09)	Toronto District School Board		http://www.tdsb.on.ca/FindYour/Schools.aspx?schno=3342	Windfields Junior High School		M2L 2V2	(416) 395-3100	375 Banbury Rd
 ON	 North York	http://schools.tdsb.on.ca/zionheights/	(GR. 06-08)	Toronto District School Board		http://www.tdsb.on.ca/FindYour/Schools.aspx?schno=3348	Zion Heights Middle School		M2H 1J9	(416) 395-3120	5900 Leslie St
 ON	 Scarborough	http://schools.tdsb.on.ca/whitehaven	(GR. JK-08)	Toronto District School Board		http://www.tdsb.on.ca/FindYour/Schools.aspx?schno=4795	White Haven Public School		M1S 2Z1	(416) 396-6645	105 Invergordon Ave
 ON	 Scarborough	http://www.wexfordcsa.ca/	(GR. 09-12)	Toronto District School Board		http://www.tdsb.on.ca/FindYour/Schools.aspx?schno=4190	Wexford Collegiate School for the Arts		M1R 2H7	(416) 396-6874	1176 Pharmacy Ave
 ON	 Scarborough	http://schools.tdsb.on.ca/willowparkjps/home.htm	(GR. JK-06)	Toronto District School Board		http://www.tdsb.on.ca/FindYour/Schools.aspx?schno=4792	Willow Park Junior Public School		M1G 1P1	(416) 396-6665	45 Windover Dr
 ON	 Scarborough	http://schools.tdsb.on.ca/williamgdavis	(GR. JK-06)	Toronto District School Board		http://www.tdsb.on.ca/FindYour/Schools.aspx?schno=4770	William G Davis Junior Public School		M1C 3L6	(416) 396-6650	128 East Ave
 ON	 Etobicoke	http://schools.tdsb.on.ca/westway/	(GR. JK-05)	Toronto District School Board		http://www.tdsb.on.ca/FindYour/Schools.aspx?schno=2037	Westway Junior School		M9R 1K8	(416) 394-7970	25 Poynter Dr
 ON	 East York	http://schoolweb.tdsb.on.ca/westwoodms	(GR. 06-08)	Toronto District School Board		http://www.tdsb.on.ca/FindYour/Schools.aspx?schno=1593	Westwood Middle School		M4K 3M6	(416) 396-2480	994 Carlaw Ave
 ON	 Toronto	http://www.wilkinsonps.org/	(GR. JK-06)	Toronto District School Board		http://www.tdsb.on.ca/FindYour/Schools.aspx?schno=5282	Wilkinson Junior Public School		M4J 3N7	(416) 393-9575	53 Donlands Ave
 ON	 York	http://www.westonci.ca	(GR. 09-12)	Toronto District School Board		http://www.tdsb.on.ca/FindYour/Schools.aspx?schno=6988	Weston Collegiate Institute		M9N 2Y9	(416) 394-3250	100 Pine St
 ON	 Toronto	http://www.wtcs.ca/	(GR. 09-12)	Toronto District School Board		http://www.tdsb.on.ca/FindYour/Schools.aspx?schno=5625	Western Technical-Commercial School		M6P 3E3	(416) 393-0500	125 Evelyn Cres
 ON	 Etobicoke	http://schools.tdsb.on.ca/westmount/	(GR. JK-05)	Toronto District School Board		http://www.tdsb.on.ca/FindYour/Schools.aspx?schno=2050	Westmount Junior School		M9P 1E9	(416) 394-7720	95 Chapman Rd
 ON	 Toronto	http://schoolweb.tdsb.on.ca/williamsonroad/Home.aspx	(GR. JK-06)	Toronto District School Board		http://www.tdsb.on.ca/FindYour/Schools.aspx?schno=5283	Williamson Road Junior Public School		M4E 1K5	(416) 393-1740	24 Williamson Rd
 ON	 Scarborough	http://schools.tdsb.on.ca/williammiller/	(GR. JK-08)	Toronto District School Board		http://www.tdsb.on.ca/FindYour/Schools.aspx?schno=4774	William G Miller Public School		M1E 3Y3	(416) 396-6655	60 Bennett Rd
 ON	 Scarborough	http://schools.tdsb.on.ca/wexford	(GR. JK-08)	Toronto District School Board		http://www.tdsb.on.ca/FindYour/Schools.aspx?schno=4768	Wexford Public School		M1R 2H1	(416) 396-6640	1050 Pharmacy Ave
 ON	 Scarborough	http://schools.tdsb.on.ca/westhillps	(GR. JK-08)	Toronto District School Board		http://www.tdsb.on.ca/FindYour/Schools.aspx?schno=4762	West Hill Public School		M1E 3G1	(416) 396-6630	299 Morningside Ave
 ON	 Toronto	http://schoolweb.tdsb.on.ca/westprep/home.aspx	(GR. JK-06)	Toronto District School Board		http://www.tdsb.on.ca/FindYour/Schools.aspx?schno=5338	West Preparatory Junior Public School		M6C 2J6	(416) 393-1633	70 Ridge Hill Dr
 ON	 Scarborough	http://www.wrjp.ca/	(GR. JK-06)	Toronto District School Board		http://www.tdsb.on.ca/FindYour/Schools.aspx?schno=4764	West Rouge Junior Public School		M1C 2X8	(416) 396-6635	401 Friendship Ave
 ON	 North York	http://schoolweb.tdsb.on.ca/westview	(GR. 09-12)	Toronto District School Board		http://www.tdsb.on.ca/FindYour/Schools.aspx?schno=3448	Westview Centennial Secondary School		M3N 1W7	(416) 395-3320	755 Oakdale Rd
 ON	 Etobicoke	http://schools.tdsb.on.ca/wellesworth	(GR. JK-05)	Toronto District School Board		http://www.tdsb.on.ca/FindYour/Schools.aspx?schno=2026	Wellesworth Junior School		M9C 4S5	(416) 394-7080	225 Wellesworth Dr
 ON	 Toronto	http://westendalternativeschool.weebly.com/	(GR. 10-12)	Toronto District School Board		http://www.tdsb.on.ca/FindYour/Schools.aspx?schno=5569	West End Alternative School		M6G 1L6	(416) 393-0660	777 Bloor St W
 ON	 Etobicoke	http://schools.tdsb.on.ca/westhumber	(GR. JK-08)	Toronto District School Board		http://www.tdsb.on.ca/FindYour/Schools.aspx?schno=2044	West Humber Junior Middle School		M9W 4S7	(416) 394-7760	15 Delsing Dr
 ON	 Etobicoke	http://schools.tdsb.on.ca/wedgewoodjs	(GR. JK-05)	Toronto District School Board		http://www.tdsb.on.ca/FindYour/Schools.aspx?schno=2025	Wedgewood Junior School		M9B 1V1	(416) 394-7150	5 Swan Ave
 ON	 York	http://schools.tdsb.on.ca/warrenpark	(GR. JK-06)	Toronto District School Board		http://www.tdsb.on.ca/FindYour/Schools.aspx?schno=6185	Warren Park Junior Public School		M6S 4P4	(416) 394-3140	135 Varsity Rd
 ON	 Scarborough	http://schools.tdsb.on.ca/warden	(GR. JK-08)	Toronto District School Board		http://www.tdsb.on.ca/FindYour/Schools.aspx?schno=4756	Warden Avenue Public School		M1L 3Z3	(416) 396-6625	644 Warden Ave
 ON	 North York	http://schools.tdsb.on.ca/victoriavillage	(GR. JK-05)	Toronto District School Board		http://www.tdsb.on.ca/FindYour/Schools.aspx?schno=3274	Victoria Village Public School		M4A 1T7	(416) 397-2930	88 Sweeney Dr
 ON	 East York	http://schools.tdsb.on.ca/victoriaparkes	(GR. JK-05)	Toronto District School Board		http://www.tdsb.on.ca/FindYour/Schools.aspx?schno=1187	Victoria Park Elementary School		M4B 2A6	(416) 396-2475	145 Tiago Ave
 ON	 North York	http://victoriaparkci.ca	(GR. 09-12)	Toronto District School Board		http://www.tdsb.on.ca/FindYour/Schools.aspx?schno=3447	Victoria Park Collegiate Institute		M3A 2V1	(416) 395-3310	15 Wallingford Rd
 ON	 Scarborough	http://schools.tdsb.on.ca/vradenburg	(GR. JK-06)	Toronto District School Board		http://www.tdsb.on.ca/FindYour/Schools.aspx?schno=4744	Vradenburg Junior Public School		M1T 1M6	(416) 396-6615	50 Vradenberg Dr
 ON	 Etobicoke	http://schools.tdsb.on.ca/valleyfield	(GR. JK-06)	Toronto District School Board		http://www.tdsb.on.ca/FindYour/Schools.aspx?schno=2054	Valleyfield Junior School		M9P 2E8	(416) 394-7590	35 Saskatoon Dr
 ON	 Scarborough	http://schools.tdsb.on.ca/walterperry/	(GR. JK-06)	Toronto District School Board		http://www.tdsb.on.ca/FindYour/Schools.aspx?schno=4750	Walter Perry Junior Public School		M1K 4M7	(416) 396-6620	45 Falmouth Ave
 ON	 York	http://westonmemorial.com	(GR. JK-05)	Toronto District School Board		http://www.tdsb.on.ca/FindYour/Schools.aspx?schno=6191	Weston Memorial Junior Public School		M9N 1K2	(416) 394-3150	200 John St
 ON	 East York	http://schools.tdsb.on.ca/valleypark	(GR. 06-08)	Toronto District School Board		http://www.tdsb.on.ca/FindYour/Schools.aspx?schno=1585	Valley Park Middle School		M3C 1B2	(416) 396-2465	130 Overlea Blvd
 ON	 Toronto	http://www.ufacademy.org	(GR. 09-12)	Toronto District School Board		http://www.tdsb.on.ca/FindYour/Schools.aspx?schno=5604	Ursula Franklin Academy		M6P 3J7	(416) 393-0430	146 Glendonwynne Rd
 ON	 Etobicoke	http://www.westhumber.com	(GR. 09-12)	Toronto District School Board		http://www.tdsb.on.ca/FindYour/Schools.aspx?schno=2814	West Humber Collegiate Institute		M9V 3S3	(416) 394-7570	1675 Martin Grove Rd
 ON	 North York	http://schools.tdsb.on.ca/topcliff	(GR. JK-05)	Toronto District School Board		http://www.tdsb.on.ca/FindYour/Schools.aspx?schno=3267	Topcliff Public School		M3N 1L6	(416) 395-2940	65 Topcliff Ave
 ON	 North York	http://tumpanepublicschool.ca	(GR. JK-05)	Toronto District School Board		http://www.tdsb.on.ca/FindYour/Schools.aspx?schno=3270	Tumpane Public School		M3M 1L8	(416) 395-2950	48 Tumpane St
 ON	 Etobicoke	http://schools.tdsb.on.ca/westglenjs/	(GR. JK-05)	Toronto District School Board		http://www.tdsb.on.ca/FindYour/Schools.aspx?schno=2028	West Glen Junior School		M9B 2E4	(416) 394-7160	47 Cowley Ave
 ON	 York	http://schools.tdsb.on.ca/vaughanroad	(GR. 09-12)	Toronto District School Board		http://www.tdsb.on.ca/FindYour/Schools.aspx?schno=6782	Vaughan Road Academy		M6C 2R1	(416) 394-3222	529 Vaughan Rd
 ON	 East York	http://schools.tdsb.on.ca/thorncliffepark/	(GR. 01-05)	Toronto District School Board		http://www.tdsb.on.ca/FindYour/Schools.aspx?schno=1184	Thorncliffe Park Public School		M4H 1K3	(416) 396-2460	80 Thorncliffe Park Dr
 ON	 Scarborough	http://www.tredway.ca	(GR. JK-08)	Toronto District School Board		http://www.tdsb.on.ca/FindYour/Schools.aspx?schno=4780	Tredway Woodsworth Public School		M1H 1X9	(416) 396-6660	112 Sedgemount Dr
 ON	 Etobicoke	http://schools.tdsb.on.ca/twentiethstreet	(GR. JK-05)	Toronto District School Board		http://www.tdsb.on.ca/FindYour/Schools.aspx?schno=2074	Twentieth Street Junior School		M8V 1L8	(416) 394-7810	3190 Lake Shore Blvd W
 ON	 Toronto	http://www.thestudentschool.org	(GR. 11-12)	Toronto District School Board		http://www.tdsb.on.ca/FindYour/Schools.aspx?schno=5848	THESTUDENTSCHOOL		M6P 0A5	(416) 393-9639	160 Glendonwynne Road
 ON	 Toronto		(GR. JK-08)	Toronto District School Board		http://www.tdsb.on.ca/FindYour/Schools.aspx?schno=5288	The Waterfront School		M5V 3G3	(416) 393-8500	635 Queens Quay W
 ON	 Scarborough	http://schoolweb.tdsb.on.ca/tomlongboat/home.aspx	(GR. JK-06)	Toronto District School Board		http://www.tdsb.on.ca/FindYour/Schools.aspx?schno=4742	Tom Longboat Junior Public School		M1B 1X6	(416) 396-6610	37 Crow Trail
 ON	 Scarborough	http://schools.tdsb.on.ca/thomaswells	(GR. JK-08)	Toronto District School Board		http://www.tdsb.on.ca/FindYour/Schools.aspx?schno=4799	Thomas L Wells Public School		M1X 1V6	(416) 396-3040	69 Nightstar Rd
 ON	 Etobicoke	http://schools.tdsb.on.ca/theelms	(GR. JK-08)	Toronto District School Board		http://www.tdsb.on.ca/FindYour/Schools.aspx?schno=2051	The Elms Junior Middle School		M9W 2H8	(416) 394-7900	45 Golfdown Dr
 ON	 Scarborough	http://schools.tdsb.on.ca/terraviewwillowfield	(GR. JK-08)	Toronto District School Board		http://www.tdsb.on.ca/FindYour/Schools.aspx?schno=4786	Terraview-Willowfield Public School		M1R 4K1	(416) 396-6595	95 Pachino Blvd
 ON	 North York	http://schools.tdsb.on.ca/threevalleys	(GR. JK-05)	Toronto District School Board		http://www.tdsb.on.ca/FindYour/Schools.aspx?schno=3266	Three Valleys Public School		M3A 3B7	(416) 395-2930	76 Three Valleys Dr
 ON	 Scarborough	http://schools.tdsb.on.ca/terryfox	(GR. JK-08)	Toronto District School Board		http://www.tdsb.on.ca/FindYour/Schools.aspx?schno=4733	Terry Fox Public School		M1W 3M9	(416) 396-6600	185 Wintermute Blvd
 ON	 Toronto	http://schools.tdsb.on.ca/swansea	(GR. JK-08)	Toronto District School Board		http://www.tdsb.on.ca/FindYour/Schools.aspx?schno=5311	Swansea Junior and Senior Public School		M6S 3J9	(416) 393-9080	207 Windermere Ave
 ON	 Scarborough	http://schools.tdsb.on.ca/tamoshanter	(GR. JK-06)	Toronto District School Board		http://www.tdsb.on.ca/FindYour/Schools.aspx?schno=4734	Tam O'Shanter Junior Public School		M1T 2V3	(416) 396-6585	21 King Henrys Blvd
 ON	 Etobicoke	http://schools.tdsb.on.ca/sunnylea/	(GR. JK-05)	Toronto District School Board		http://www.tdsb.on.ca/FindYour/Schools.aspx?schno=2018	Sunnylea Junior School		M8Y 2M2	(416) 394-3850	35 Glenroy Ave
 ON	 Toronto		(GR. JK-06)	Toronto District School Board		http://www.tdsb.on.ca/FindYour/Schools.aspx?schno=5904	The Grove Community School		M6J 3L2	(416) 393-9150	108 Gladstone Ave
 ON	 North York	http://summitheightspublicschool.com	(GR. JK-06)	Toronto District School Board		http://www.tdsb.on.ca/FindYour/Schools.aspx?schno=3262	Summit Heights Public School		M3H 1M1	(416) 395-2920	139 Armour Blvd
 ON	 Scarborough	http://schools.tdsb.on.ca/tecumseh	(GR. 07-08)	Toronto District School Board		http://www.tdsb.on.ca/FindYour/Schools.aspx?schno=4735	Tecumseh Senior Public School		M1G 1H7	(416) 396-6590	720 Scarborough Golf Club Rd
 ON	 Toronto	http://schools.tdsb.on.ca/subwayacademy2	(GR. 11-12)	Toronto District School Board		http://www.tdsb.on.ca/FindYour/Schools.aspx?schno=5846	Subway Academy II		M5T 1L4	(416) 393-1445	64 Baldwin St
 ON	 North York	http://schools.tdsb.on.ca/stilecroft	(GR. JK-05)	Toronto District School Board		http://www.tdsb.on.ca/FindYour/Schools.aspx?schno=3261	Stilecroft Public School		M3J 1A7	(416) 395-2910	50 Stilecroft Dr
 ON	 Scarborough	http://stephenleacock.ca	(GR. 09-12)	Toronto District School Board		http://www.tdsb.on.ca/FindYour/Schools.aspx?schno=4208	Stephen Leacock Collegiate Institute		M1T 2M5	(416) 396-8000	2450 Birchmount Rd
 ON	 Scarborough	http://timberbank.wikispaces.com	(GR. JK-06)	Toronto District School Board		http://www.tdsb.on.ca/FindYour/Schools.aspx?schno=4740	Timberbank Junior Public School		M1W 2A3	(416) 396-6605	170 Timberbank Blvd
 ON	 Etobicoke		(GR. 09-12)	Toronto District School Board		http://www.tdsb.on.ca/FindYour/Schools.aspx?schno=2812	Thistletown Collegiate Institute		M9W 2T4	(416) 394-7710	20 Fordwich Cres
 ON	 Scarborough	http://schools.tdsb.on.ca/westhill	(GR. 09-12)	Toronto District School Board		http://www.tdsb.on.ca/FindYour/Schools.aspx?schno=4184	West Hill Collegiate Institute		M1E 3G3	(416) 396-6864	350 Morningside Ave
 ON	 Toronto	http://subwayacademyone.com	(GR. 09-12)	Toronto District School Board		http://www.tdsb.on.ca/FindYour/Schools.aspx?schno=5843	Subway Academy I		M4J 3T2	(416) 393-9466	16 Phin Ave
 ON	 Toronto	http://schools.tdsb.on.ca/sunnyview/	(GR. JK-08)	Toronto District School Board		http://www.tdsb.on.ca/FindYour/Schools.aspx?schno=5327	Sunny View Junior and Senior Public School		M4N 1A9	(416) 393-9275	450 Blythwood Rd
 ON	 North York	http://schools.tdsb.on.ca/stanley	(GR. JK-05)	Toronto District School Board		http://www.tdsb.on.ca/FindYour/Schools.aspx?schno=3260	Stanley Public School		M3N 1C2	(416) 395-2890	75 Stanley Rd
 ON	 Toronto	http://schools.tdsb.on.ca/spectrum	(GR. 07-08)	Toronto District School Board		http://www.tdsb.on.ca/FindYour/Schools.aspx?schno=5364	Spectrum Alternative Senior School		M4S 1J6	(416) 393-9311	43 Millwood Rd
 ON	 North York	http://schools.tdsb.on.ca/steelesview	(GR. JK-05)	Toronto District School Board		http://www.tdsb.on.ca/FindYour/Schools.aspx?schno=3027	Steelesview Public School		M2M 2Y1	(416) 395-2900	105 Bestview Dr
 ON	 Scarborough		(GR. 09-12)	Toronto District School Board		http://www.tdsb.on.ca/FindYour/Schools.aspx?schno=4800	South East Year Round Alternative Centre		M1K 4C9	(416) 396-4552	720 Midland Ave
 ON	 Etobicoke	http://schools.tdsb.on.ca/stgeorges	(GR. JK-05)	Toronto District School Board		http://www.tdsb.on.ca/FindYour/Schools.aspx?schno=2034	St George's Junior School		M9A 2P7	(416) 394-7990	70 Princess Anne Cres
 ON	 North York	http://schools.tdsb.on.ca/sloane/	(GR. JK-05)	Toronto District School Board		http://www.tdsb.on.ca/FindYour/Schools.aspx?schno=3254	Sloane Public School		M4A 2B1	(416) 397-2920	110 Sloane Ave
 ON	 Scarborough	http://schools.tdsb.on.ca/osler/	(GR. 09-12)	Toronto District School Board		http://www.tdsb.on.ca/FindYour/Schools.aspx?schno=4126	Sir William Osler High School		M1S 3H5	(416) 396-6830	1050 Huntingwood Dr
 ON	 Scarborough	http://schools.tdsb.on.ca/stmargarets	(GR. JK-08)	Toronto District School Board		http://www.tdsb.on.ca/FindYour/Schools.aspx?schno=4728	St Margaret's Public School		M1E 1X5	(416) 396-6550	235 Galloway Rd
 ON	 Scarborough	http://schools.tdsb.on.ca/sirolivermowat	(GR. 09-12)	Toronto District School Board		http://www.tdsb.on.ca/FindYour/Schools.aspx?schno=4214	Sir Oliver Mowat Collegiate Institute		M1C 2C6	(416) 396-6802	5400 Lawrence Ave E
 ON	 Scarborough	http://schools.tdsb.on.ca/johnamacdonald	(GR. 09-12)	Toronto District School Board		http://www.tdsb.on.ca/FindYour/Schools.aspx?schno=4154	Sir John A Macdonald Collegiate Institute		M1W 1H8	(416) 396-6793	2300 Pharmacy Ave
 ON	 Scarborough	http://schools.tdsb.on.ca/standrews/	(GR. JK-08)	Toronto District School Board		http://www.tdsb.on.ca/FindYour/Schools.aspx?schno=4726	St Andrews Public School		M1P 3Z1	(416) 396-6545	60 Brimorton Dr
 ON	 Toronto	http://www.sprucecourt.ca	(GR. JK-08)	Toronto District School Board		http://www.tdsb.on.ca/FindYour/Schools.aspx?schno=5278	Sprucecourt Public School		M5A 2J1	(416) 393-1522	70 Spruce St
 ON	 Etobicoke	http://www.siradambeck.ca	(GR. JK-05)	Toronto District School Board		http://www.tdsb.on.ca/FindYour/Schools.aspx?schno=2001	Sir Adam Beck Junior School		M8W 2C2	(416) 394-7670	544 Horner Ave
 ON	 Scarborough	http://schools.tdsb.on.ca/semacmillan/	(GR. 07-08)	Toronto District School Board		http://www.tdsb.on.ca/FindYour/Schools.aspx?schno=4731	Sir Ernest MacMillan Senior Public School		M1W 2Y2	(416) 396-6575	149 Huntsmill Blvd
 ON	 Scarborough	http://schools.tdsb.on.ca/sirsamuelbsteele/	(GR. JK-06)	Toronto District School Board		http://www.tdsb.on.ca/FindYour/Schools.aspx?schno=4729	Sir Samuel B Steele Junior Public School		M1W 2Y2	(416) 396-6580	131 Huntsmill Blvd
 ON	 North York	http://standrewsjhstoronto.wordpress.com	(GR. 05-09)	Toronto District School Board		http://www.tdsb.on.ca/FindYour/Schools.aspx?schno=3336	St Andrew's Junior High School		M2P 1X7	(416) 395-3090	131 Fenn Ave
 ON	 Scarborough	http://www.sirwilfridlaurierci.ca	(GR. 09-12)	Toronto District School Board		http://www.tdsb.on.ca/FindYour/Schools.aspx?schno=4166	Sir Wilfrid Laurier Collegiate Institute		M1E 1P5	(416) 396-6820	145 Guildwood Pky
 ON	 Toronto	http://schools.tdsb.on.ca/shirleystreet	(GR. JK-06)	Toronto District School Board		http://www.tdsb.on.ca/FindYour/Schools.aspx?schno=5275	Shirley Street Junior Public School		M6K 1S9	(416) 393-9270	38 Shirley St
 ON	 Scarborough	http://schools.tdsb.on.ca/silversprings	(GR. JK-08)	Toronto District School Board		http://www.tdsb.on.ca/FindYour/Schools.aspx?schno=4730	Silver Springs Public School		M1V 1S4	(416) 396-6565	222 Silver Springs Blvd
 ON	 York		(GR. JK-08)	Toronto District School Board		http://www.tdsb.on.ca/FindYour/Schools.aspx?schno=6250	Silverthorn Community School		M6M 3P1	(416) 394-3033	300 Kane Ave
 ON	 Etobicoke	http://schools.tdsb.on.ca/smithfield	(GR. 06-08)	Toronto District School Board		http://www.tdsb.on.ca/FindYour/Schools.aspx?schno=2064	Smithfield Middle School		M9V 2E3	(416) 394-7540	175 Mount Olive Dr
 ON	 North York	http://schools.tdsb.on.ca/sheppard	(GR. JK-05)	Toronto District School Board		http://www.tdsb.on.ca/FindYour/Schools.aspx?schno=3246	Sheppard Public School		M3M 2W9	(416) 395-2860	1430 Sheppard Ave W
 ON	 North York	http://schools.tdsb.on.ca/senecahill/	(GR. JK-06)	Toronto District School Board		http://www.tdsb.on.ca/FindYour/Schools.aspx?schno=3011	Seneca Hill Public School		M2J 2W6	(416) 395-2840	625 Seneca Hill Dr
 ON	 East York	http://schools.tdsb.on.ca/selwyn/	(GR. JK-05)	Toronto District School Board		http://www.tdsb.on.ca/FindYour/Schools.aspx?schno=1178	Selwyn Elementary School		M4B 3J9	(416) 396-2455	1 Selwyn Ave
 ON	 Toronto		(GR. 11-12)	Toronto District School Board		http://www.tdsb.on.ca/FindYour/Schools.aspx?schno=5596	SEED Alternative School		M4M 1R4	(416) 393-0564	885 Dundas St E
 ON	 Etobicoke	http://schools.tdsb.on.ca/seneca/	(GR. JK-08)	Toronto District School Board		http://www.tdsb.on.ca/FindYour/Schools.aspx?schno=2008	Seneca School		M9C 3T3	(416) 394-4600	580 Rathburn Rd
 ON	 North York	http://schools.tdsb.on.ca/shoreham	(GR. JK-05)	Toronto District School Board		http://www.tdsb.on.ca/FindYour/Schools.aspx?schno=3247	Shoreham Public Sports and Wellness Academy		M3N 2S6	(416) 395-2870	31 Shoreham Dr
 ON	 Etobicoke	http://schools.tdsb.on.ca/secondstreet	(GR. JK-08)	Toronto District School Board		http://www.tdsb.on.ca/FindYour/Schools.aspx?schno=2076	Second Street Junior Middle School		M8V 2X4	(416) 394-7640	71 Second St
 ON	 Etobicoke	http://schools.tdsb.on.ca/see	(GR. 09-12)	Toronto District School Board		http://www.tdsb.on.ca/FindYour/Schools.aspx?schno=2831	School of Experiential Education		M9P 3M7	(416) 394-6990	40 McArthur St
 ON	 East York	http://schools.tdsb.on.ca/secord	(GR. JK-05)	Toronto District School Board		http://www.tdsb.on.ca/FindYour/Schools.aspx?schno=1175	Secord Elementary School		M4C 4Y9	(416) 396-2450	101 Barrington Ave
 ON	 Scarborough	http://schools.tdsb.on.ca/svps	(GR. JK-08)	Toronto District School Board		http://www.tdsb.on.ca/FindYour/Schools.aspx?schno=4732	Scarborough Village Public School		M1J 3P2	(416) 396-6560	15 Luella St
 ON	 Etobicoke	http://www.scarlettheights.ca	(GR. 09-12)	Toronto District School Board		http://www.tdsb.on.ca/FindYour/Schools.aspx?schno=2810	Scarlett Heights Entrepreneurial Academy		M9P 1N8	(416) 394-7750	15 Trehorne Dr
 ON	 Etobicoke	http://www.silverthornci.com	(GR. 09-12)	Toronto District School Board		http://www.tdsb.on.ca/FindYour/Schools.aspx?schno=2811	Silverthorn Collegiate Institute		M9C 1Y5	(416) 394-7010	291 Mill Rd
 ON	 Scarborough	http://www.scasonline.com	(GR. 10-12)	Toronto District School Board		http://www.tdsb.on.ca/FindYour/Schools.aspx?schno=4177	Scarborough Centre for Alt Studies Adult		M1K 4C9	(416) 396-6921	720 Midland Ave
 ON	 North York	http://schools.tdsb.on.ca/shaughnessy	(GR. JK-08)	Toronto District School Board		http://www.tdsb.on.ca/FindYour/Schools.aspx?schno=3243	Shaughnessy Public School		M2J 1H5	(416) 395-2850	30 Shaughnessy Blvd
 ON	 Toronto	http://www.solealternative.ca	(GR. 10-12)	Toronto District School Board		http://www.tdsb.on.ca/FindYour/Schools.aspx?schno=5823	School of Life Experience		M4J 1J6	(416) 393-0756	24 Mountjoy Ave
 ON	 Toronto	http://schools.tdsb.on.ca/runnymede	(GR. JK-08)	Toronto District School Board		http://www.tdsb.on.ca/FindYour/Schools.aspx?schno=5272	Runnymede Junior and Senior Public School		M6S 2Y7	(416) 393-9055	357 Runnymede Rd
 ON	 Scarborough	http://www.scasonline.com	(GR. 10-12)	Toronto District School Board		http://www.tdsb.on.ca/FindYour/Schools.aspx?schno=4175	Scarborough Centre for Alternative Studies		M1K 4C9	(416) 396-6921	720 Midland Ave
 ON	 Scarborough	http://schools.tdsb.on.ca/rougevalley/	(GR. JK-08)	Toronto District School Board		http://www.tdsb.on.ca/FindYour/Schools.aspx?schno=4721	Rouge Valley Public School		M1B 4X3	(416) 396-6433	30 Durnford Rd
 ON	 Etobicoke	http://schools.tdsb.on.ca/seventhstreet	(GR. JK-05)	Toronto District School Board		http://www.tdsb.on.ca/FindYour/Schools.aspx?schno=2075	Seventh Street Junior School		M8V 3B5	(416) 394-7820	101 Seventh St
 ON	 Etobicoke	http://schools.tdsb.on.ca/rosethorn	(GR. JK-05)	Toronto District School Board		http://www.tdsb.on.ca/FindYour/Schools.aspx?schno=2029	Rosethorn Junior School		M9A 2J1	(416) 394-6360	2 Remington Dr
 ON	 York	http://schools.tdsb.on.ca/roselands	(GR. JK-06)	Toronto District School Board		http://www.tdsb.on.ca/FindYour/Schools.aspx?schno=6173	Roselands Junior Public School		M6N 4E2	(416) 394-3110	990 Jane St
 ON	 York	http://www.runnymedecollegiate.com	(GR. 09-12)	Toronto District School Board		http://www.tdsb.on.ca/FindYour/Schools.aspx?schno=6776	Runnymede Collegiate Institute		M6S 4A3	(416) 394-3200	569 Jane St
 ON	 Toronto	http://www.facebook.com/roseavenueps	(GR. JK-06)	Toronto District School Board		http://www.tdsb.on.ca/FindYour/Schools.aspx?schno=5270	Rose Avenue Junior Public School		M4X 1N4	(416) 393-1260	675 Ontario St
 ON	 Scarborough	http://schools.tdsb.on.ca/alexmackenzie	(GR. 07-08)	Toronto District School Board		http://www.tdsb.on.ca/FindYour/Schools.aspx?schno=4315	Sir Alexander Mackenzie Senior Public School		M1S 2E2	(416) 396-6570	33 Heather Rd
 ON	 Toronto	http://schools.tdsb.on.ca/rosedale/	(GR. 09-12)	Toronto District School Board		http://www.tdsb.on.ca/FindYour/Schools.aspx?schno=5630	Rosedale Heights School of the Arts		M4W 1J4	(416) 393-1580	711 Bloor St E
 ON	 North York		(GR. JK-05)	Toronto District School Board		http://www.tdsb.on.ca/FindYour/Schools.aspx?schno=3240	Roywood Public School		M3A 2C7	(416) 395-2830	11 Roywood Dr
 ON	 East York	http://schools.tdsb.on.ca/rolphroad	(GR. JK-06)	Toronto District School Board		http://www.tdsb.on.ca/FindYour/Schools.aspx?schno=1166	Rolph Road Elementary School		M4G 3M5	(416) 396-2435	31 Rolph Rd
 ON	 Toronto	http://schools.tdsb.on.ca/rockcliffe	(GR. 06-08)	Toronto District School Board		http://www.tdsb.on.ca/FindYour/Schools.aspx?schno=6270	Rockcliffe Middle School		M6N 4R8	(416) 394-3100	400 Rockcliffe Blvd
 ON	 Scarborough	http://schools.tdsb.on.ca/robertservice	(GR. 07-08)	Toronto District School Board		http://www.tdsb.on.ca/FindYour/Schools.aspx?schno=4724	Robert Service Senior Public School		M1K 1J2	(416) 396-6540	945 Danforth Rd
 ON	 North York	http://schools.tdsb.on.ca/rockford/	(GR. JK-06)	Toronto District School Board		http://www.tdsb.on.ca/FindYour/Schools.aspx?schno=3235	Rockford Public School		M2R 3A7	(416) 395-2820	60 Rockford Rd
 ON	 Toronto	http://schools.tdsb.on.ca/roden/	(GR. JK-08)	Toronto District School Board		http://www.tdsb.on.ca/FindYour/Schools.aspx?schno=5269	Roden Public School		M4L 2Y1	(416) 393-9555	151 Hiawatha Rd
 ON	 Scarborough	http://www.satec.on.ca	(GR. 09-12)	Toronto District School Board		http://www.tdsb.on.ca/FindYour/Schools.aspx?schno=4178	SATEC @ W A Porter Collegiate Institute		M1L 1Z9	(416) 396-3365	40 Fairfax Cres
 ON	 Etobicoke	http://schoolweb.tdsb.on.ca/richview	(GR. 09-12)	Toronto District School Board		http://www.tdsb.on.ca/FindYour/Schools.aspx?schno=2808	Richview Collegiate Institute		M9A 3N2	(416) 394-7980	1738 Islington Ave
 ON	 Toronto	http://schools.tdsb.on.ca/ryersoncommunity	(GR. JK-08)	Toronto District School Board		http://www.tdsb.on.ca/FindYour/Schools.aspx?schno=5273	Ryerson Community School		M5T 1E4	(416) 393-1340	96 Denison Ave
 ON	 Scarborough	http://schools.tdsb.on.ca/samuelhearne/	(GR. 05-08)	Toronto District School Board		http://www.tdsb.on.ca/FindYour/Schools.aspx?schno=4725	Samuel Hearne Middle School		M1L 4N7	(416) 396-6555	21 Newport Ave
 ON	 Etobicoke		(GR. JK-05)	Toronto District School Board		http://www.tdsb.on.ca/FindYour/Schools.aspx?schno=2046	Rivercrest Junior School		M9W 4C9	(416) 394-7920	30 Harefield Dr
 ON	 York	http://schools.tdsb.on.ca/rawlinson	(GR. JK-08)	Toronto District School Board		http://www.tdsb.on.ca/FindYour/Schools.aspx?schno=6367	Rawlinson Community School		M6E 3C7	(416) 394-3080	231 Glenholme Ave
 ON	 North York	http://schools.tdsb.on.ca/ranchdale	(GR. JK-05)	Toronto District School Board		http://www.tdsb.on.ca/FindYour/Schools.aspx?schno=3020	Ranchdale Public School		M3A 2M3	(416) 395-2800	60 Ranchdale Cres
 ON	 North York	http://schoolweb.tdsb.on.ca/renegordon/Home.aspx	(GR. JK-05)	Toronto District School Board		http://www.tdsb.on.ca/FindYour/Schools.aspx?schno=3181	Rene Gordon Health and Wellness Academy		M3A 3L6	(416) 395-2790	20 Karen Rd
 ON	 Toronto		(GR. JK-06)	Toronto District School Board		http://www.tdsb.on.ca/FindYour/Schools.aspx?schno=5268	Regal Road Junior Public School		M6H 2J6	(416) 393-1390	95 Regal Rd
 ON	 Scarborough	http://www.rhkingacademy.ca	(GR. 09-12)	Toronto District School Board		http://www.tdsb.on.ca/FindYour/Schools.aspx?schno=4148	R H King Academy		M1M 1V3	(416) 396-5550	3800 St Clair Ave E
 ON	 Toronto	http://schools.tdsb.on.ca/quest/	(GR. 07-08)	Toronto District School Board		http://www.tdsb.on.ca/FindYour/Schools.aspx?schno=5330	Quest Alternative Senior School		M4K 1E5	(416) 393-9430	25 Bain Ave
 ON	 Toronto	http://schools.tdsb.on.ca/queenvictoria	(GR. JK-08)	Toronto District School Board		http://www.tdsb.on.ca/FindYour/Schools.aspx?schno=5267	Queen Victoria Public School		M6K 2V3	(416) 393-9200	100 Close Ave
 ON	 Toronto		(GR. JK-06)	Toronto District School Board		http://www.tdsb.on.ca/FindYour/Schools.aspx?schno=5271	Rosedale Junior Public School		M4W 1R1	(416) 393-1330	22 South Dr
 ON	 North York		(GR. JK-06)	Toronto District School Board		http://www.tdsb.on.ca/FindYour/Schools.aspx?schno=3234	Rippleton Public School		M3B 1H4	(416) 395-2810	21 Rippleton Rd
 ON	 East York	http://schools.tdsb.on.ca/presteign	(GR. JK-05)	Toronto District School Board		http://www.tdsb.on.ca/FindYour/Schools.aspx?schno=1157	Presteign Heights Elementary School		M4B 1M3	(416) 396-2430	2570 St Clair Ave E
 ON	 North York	http://schools.tdsb.on.ca/portagetrail/	(GR. JK-08)	Toronto District School Board		http://www.tdsb.on.ca/FindYour/Schools.aspx?schno=6195	Portage Trail Community School		M6M 5H6	(416) 394-4260	100 Sidney Belsey Cres
 ON	 Toronto	http://schoolweb.tdsb.on.ca/riverdale/home.aspx	(GR. 09-12)	Toronto District School Board		http://www.tdsb.on.ca/FindYour/Schools.aspx?schno=5555	Riverdale Collegiate Institute		M4M 2A1	(416) 393-9820	1094 Gerrard St E
 ON	 East York	http://schools.tdsb.on.ca/rhmcgregor	(GR. JK-05)	Toronto District School Board		http://www.tdsb.on.ca/FindYour/Schools.aspx?schno=1163	R H McGregor Elementary School		M4J 2G9	(416) 396-2390	555 Mortimer Ave
 ON	 Toronto	http://schools.tdsb.on.ca/queenalexandra	(GR. 06-08)	Toronto District School Board		http://www.tdsb.on.ca/FindYour/Schools.aspx?schno=5266	Queen Alexandra Middle School		M4M 2G3	(416) 393-9535	181 Broadview Ave
 ON	 North York	http://schools.tdsb.on.ca/pleasant	(GR. JK-06)	Toronto District School Board		http://www.tdsb.on.ca/FindYour/Schools.aspx?schno=3230	Pleasant Public School		M2R 2R1	(416) 395-2770	288 Pleasant Ave
 ON	 Scarborough	http://schools.tdsb.on.ca/poplarroad	(GR. JK-06)	Toronto District School Board		http://www.tdsb.on.ca/FindYour/Schools.aspx?schno=4708	Poplar Road Junior Public School		M1E 1S4	(416) 396-6525	66 Dearham Wood
 ON	 North York	http://schools.tdsb.on.ca/pleasantview	(GR. 07-09)	Toronto District School Board		http://www.tdsb.on.ca/FindYour/Schools.aspx?schno=3337	Pleasant View Junior High School		M2J 3Y8	(416) 395-3080	175 Brian Dr
 ON	 North York	http://schools.tdsb.on.ca/pineway	(GR. JK-05)	Toronto District School Board		http://www.tdsb.on.ca/FindYour/Schools.aspx?schno=3228	Pineway Public School		M2H 1A8	(416) 395-2760	110 Pineway Blvd
 ON	 Scarborough	http://schools.tdsb.on.ca/percywilliams	(GR. JK-06)	Toronto District School Board		http://www.tdsb.on.ca/FindYour/Schools.aspx?schno=4701	Percy Williams Junior Public School		M1V 1P6	(416) 396-6515	35 White Heather Blvd
 ON	 Toronto		(GR. JK-06)	Toronto District School Board		http://www.tdsb.on.ca/FindYour/Schools.aspx?schno=5263	Pauline Junior Public School		M6H 3M8	(416) 393-9360	100 Pauline Ave
 ON	 Scarborough	http://schools.tdsb.on.ca/regentheights	(GR. JK-08)	Toronto District School Board		http://www.tdsb.on.ca/FindYour/Schools.aspx?schno=4720	Regent Heights Public School		M1L 3H1	(416) 396-6535	555 Pharmacy Ave
 ON	 Toronto	http://schools.tdsb.on.ca/PerthAvenue	(GR. JK-06)	Toronto District School Board		http://www.tdsb.on.ca/FindYour/Schools.aspx?schno=5264	Perth Avenue Junior Public School		M6P 3P8	(416) 393-1410	14 Ruskin Ave
 ON	 Scarborough	http://schools.tdsb.on.ca/paulinejohnson	(GR. JK-06)	Toronto District School Board		http://www.tdsb.on.ca/FindYour/Schools.aspx?schno=4700	Pauline Johnson Junior Public School		M1T 2K2	(416) 396-6510	35 Dunmurray Blvd
 ON	 Etobicoke	http://schools.tdsb.on.ca/princessmargaret	(GR. JK-05)	Toronto District School Board		http://www.tdsb.on.ca/FindYour/Schools.aspx?schno=2053	Princess Margaret Junior School		M9B 5Y7	(416) 394-6350	65 Tromley Dr
 ON	 East York		(GR. JK-05)	Toronto District School Board		http://www.tdsb.on.ca/FindYour/Schools.aspx?schno=1151	Parkside Elementary School		M4C 4K7	(416) 396-2425	401 Cedarvale Ave
 ON	 North York		(GR. JK-05)	Toronto District School Board		http://www.tdsb.on.ca/FindYour/Schools.aspx?schno=3226	Pelmo Park Public School		M9N 2M1	(416) 395-2750	180 Gary Dr
 ON	 Etobicoke	http://schools.tdsb.on.ca/parklawn/	(GR. JK-08)	Toronto District School Board		http://www.tdsb.on.ca/FindYour/Schools.aspx?schno=2011	Park Lawn Junior Middle School		M8Y 4B6	(416) 394-7120	71 Ballacaine Dr
 ON	 Toronto	http://schools.tdsb.on.ca/parkdaleps	(GR. JK-08)	Toronto District School Board		http://www.tdsb.on.ca/FindYour/Schools.aspx?schno=5262	Parkdale Junior and Senior Public School		M6K 3L2	(416) 393-1280	78 Seaforth Ave
 ON	 Toronto	http://schools.tdsb.on.ca/parkdale/	(GR. 09-12)	Toronto District School Board		http://www.tdsb.on.ca/FindYour/Schools.aspx?schno=5550	Parkdale Collegiate Institute		M6K 2Y3	(416) 393-9000	209 Jameson Ave
 ON	 Toronto	http://schools.tdsb.on.ca/papeavenue	(GR. JK-06)	Toronto District School Board		http://www.tdsb.on.ca/FindYour/Schools.aspx?schno=5260	Pape Avenue Junior Public School		M4K 1B9	(416) 393-9470	220 Langley Ave
 ON	 North York	http://schools.tdsb.on.ca/parklane	(GR. JK-12)	Toronto District School Board		http://www.tdsb.on.ca/FindYour/Schools.aspx?schno=3223	Park Lane Public School		M3C 2N2	(416) 395-8525	60 Park Lane Cir
 ON	 North York	http://schools.tdsb.on.ca/owen	(GR. JK-06)	Toronto District School Board		http://www.tdsb.on.ca/FindYour/Schools.aspx?schno=3214	Owen Public School		M2P 1G6	(416) 395-2740	111 Owen Blvd
 ON	 North York		(GR. 06-08)	Toronto District School Board		http://www.tdsb.on.ca/FindYour/Schools.aspx?schno=3213	Pierre Laporte Middle School		M3M 1H5	(416) 395-3070	1270 Wilson Ave
 ON	 Toronto	http://schools.tdsb.on.ca/oriolepark	(GR. JK-06)	Toronto District School Board		http://www.tdsb.on.ca/FindYour/Schools.aspx?schno=5294	Oriole Park Junior Public School		M5P 2L4	(416) 393-9215	80 Braemar Ave
 ON	 Toronto	http://schools.tdsb.on.ca/palmerston	(GR. JK-06)	Toronto District School Board		http://www.tdsb.on.ca/FindYour/Schools.aspx?schno=5259	Palmerston Avenue Junior Public School		M6G 2R4	(416) 393-9305	734 Palmerston Ave
 ON	 North York	http://schools.tdsb.on.ca/rjlang	(GR. JK-08)	Toronto District School Board		http://www.tdsb.on.ca/FindYour/Schools.aspx?schno=3233	R J Lang Elementary and Middle School		M2M 1E3	(416) 395-2780	227 Drewry Ave
 ON	 Scarborough		(GR. JK-08)	Toronto District School Board		http://www.tdsb.on.ca/FindYour/Schools.aspx?schno=4664	Port Royal Public School		M1V 4R1	(416) 396-5595	408 Port Royal Trail
 ON	 Toronto	http://myooops.com	(GR. JK-06)	Toronto District School Board		http://www.tdsb.on.ca/FindYour/Schools.aspx?schno=5295	Ossington/Old Orchard Junior Public School		M6J 3A5	(416) 393-0710	380 Ossington Ave
 ON	 Scarborough	http://schools.tdsb.on.ca/oakridge	(GR. JK-04)	Toronto District School Board		http://www.tdsb.on.ca/FindYour/Schools.aspx?schno=4696	Oakridge Junior Public School		M1L 3P1	(416) 396-6505	110 Byng Ave
 ON	 Toronto	http://oasisartsandsocialchangeprogram.blogspot.com/	(GR. 09-12)	Toronto District School Board		http://www.tdsb.on.ca/FindYour/Schools.aspx?schno=5584	Oasis Alternative Secondary School		M5V 2M1	(416) 393-9830	20 Brant St
 ON	 North York		(GR. JK-05)	Toronto District School Board		http://www.tdsb.on.ca/FindYour/Schools.aspx?schno=3208	O'Connor Public School		M4A 1W5	(416) 397-2980	1665 O'Connor Dr
 ON	 Toronto	http://schoolweb.tdsb.on.ca/ogden	(GR. JK-06)	Toronto District School Board		http://www.tdsb.on.ca/FindYour/Schools.aspx?schno=5257	Ogden Junior Public School		M5T 1A8	(416) 393-9110	33 Phoebe St
 ON	 Toronto	http://schools.tdsb.on.ca/norway	(GR. JK-06)	Toronto District School Board		http://www.tdsb.on.ca/FindYour/Schools.aspx?schno=5256	Norway Junior Public School		M4L 1T9	(416) 393-1700	390 Kingston Rd
 ON	 Scarborough		(GR. 09-12)	Toronto District School Board		http://www.tdsb.on.ca/FindYour/Schools.aspx?schno=4176	Parkview Alternative School		M1R 2L2	(416) 396-5592	1641 Pharmacy Ave
 ON	 Etobicoke	http://schools.tdsb.on.ca/parkfield	(GR. JK-05)	Toronto District School Board		http://www.tdsb.on.ca/FindYour/Schools.aspx?schno=2004	Parkfield Junior School		M9R 3T9	(416) 394-7960	31 Redgrave Dr
 ON	 North York		(GR. 06-08)	Toronto District School Board		http://www.tdsb.on.ca/FindYour/Schools.aspx?schno=3209	Oakdale Park Middle School		M3N 1J5	(416) 395-3060	315 Grandravine Dr
 ON	 Toronto	http://schools.tdsb.on.ca/OakwoodCI/	(GR. 09-12)	Toronto District School Board		http://www.tdsb.on.ca/FindYour/Schools.aspx?schno=5545	Oakwood Collegiate Institute		M6E 1A3	(416) 393-1780	991 St Clair Ave W
 ON	 Toronto	http://schools.tdsb.on.ca/northpreparatory	(GR. JK-06)	Toronto District School Board		http://www.tdsb.on.ca/FindYour/Schools.aspx?schno=5336	North Preparatory Junior Public School		M5N 2M6	(416) 393-9230	1100 Spadina Rd
 ON	 Etobicoke	http://schools.tdsb.on.ca/northkipling/	(GR. JK-08)	Toronto District School Board		http://www.tdsb.on.ca/FindYour/Schools.aspx?schno=2015	North Kipling Junior Middle School		M9V 5C7	(416) 394-6340	2 Rowntree Rd
 ON	 North York		(GR. 09-10)	Toronto District School Board		http://www.tdsb.on.ca/FindYour/Schools.aspx?schno=3948	North East Year Round Alternative Centre		M2J 3B6	(416) 395-5300	2900 Don Mills Rd
 ON	 Toronto	http://www.northern-secondary.com	(GR. 09-12)	Toronto District School Board		http://www.tdsb.on.ca/FindYour/Schools.aspx?schno=5620	Northern Secondary School		M4P 2L5	(416) 393-0270	851 Mount Pleasant Rd
 ON	 Toronto	http://schools.tdsb.on.ca/ordestreet	(GR. JK-07)	Toronto District School Board		http://www.tdsb.on.ca/FindYour/Schools.aspx?schno=5258	Orde Street Public School		M5T 1N7	(416) 393-1900	18 Orde St
 ON	 Scarborough	http://schools.tdsb.on.ca/northbridlewood	(GR. JK-06)	Toronto District School Board		http://www.tdsb.on.ca/FindYour/Schools.aspx?schno=4690	North Bridlewood Junior Public School		M1W 1L7	(416) 396-6500	50 Collingsbrook Blvd
 ON	 Scarborough	http://schools.tdsb.on.ca/northbendale	(GR. JK-06)	Toronto District School Board		http://www.tdsb.on.ca/FindYour/Schools.aspx?schno=4684	North Bendale Junior Public School		M1H 2P4	(416) 396-6495	29 Aveline Cres
 ON	 Etobicoke	http://schools.tdsb.on.ca/norseman/	(GR. JK-08)	Toronto District School Board		http://www.tdsb.on.ca/FindYour/Schools.aspx?schno=2016	Norseman Junior Middle School		M8Z 2R1	(416) 394-7880	105 Norseman St
 ON	 North York	http://schools.tdsb.on.ca/normaningram	(GR. JK-05)	Toronto District School Board		http://www.tdsb.on.ca/FindYour/Schools.aspx?schno=3206	Norman Ingram Public School		M3B 1C8	(416) 395-2720	50 Duncairn Rd
 ON	 Scarborough	http://schools.tdsb.on.ca/normancook/	(GR. JK-06)	Toronto District School Board		http://www.tdsb.on.ca/FindYour/Schools.aspx?schno=4672	Norman Cook Junior Public School		M1K 1G4	(416) 396-6485	725 Danforth Rd
 ON	 North York	http://schools.tdsb.on.ca/northviewheights/index.html	(GR. 09-12)	Toronto District School Board		http://www.tdsb.on.ca/FindYour/Schools.aspx?schno=3440	Northview Heights Secondary School		M2R 1N6	(416) 395-3290	550 Finch Ave W
 ON	 North York	http://schools.tdsb.on.ca/newtonbrook	(GR. 09-12)	Toronto District School Board		http://www.tdsb.on.ca/FindYour/Schools.aspx?schno=3442	Newtonbrook Secondary School		M2M 1V6	(416) 395-3280	155 Hilda Ave
 ON	 Toronto	http://schools.tdsb.on.ca/nelsonmandelapark/	(GR. JK-08)	Toronto District School Board		http://www.tdsb.on.ca/FindYour/Schools.aspx?schno=5261	Nelson Mandela Park Public School		M5A 1X6	(416) 393-1620	440 Shuter St
 ON	 East York	http://www.northleaschool.ca/	(GR. JK-08)	Toronto District School Board		http://www.tdsb.on.ca/FindYour/Schools.aspx?schno=1442	Northlea Elementary and Middle School		M4G 1R4	(416) 396-2395	305 Rumsey Rd
 ON	 Toronto	http://www.ntci.on.ca	(GR. 09-12)	Toronto District School Board		http://www.tdsb.on.ca/FindYour/Schools.aspx?schno=5540	North Toronto Collegiate Institute		M4P 1T7	(416) 393-9180	17 Broadway Ave
 ON	 Toronto	http://schools.tdsb.on.ca/niagara	(GR. JK-06)	Toronto District School Board		http://www.tdsb.on.ca/FindYour/Schools.aspx?schno=5255	Niagara Street Junior Public School		M6J 2L3	(416) 393-1371	222 Niagara St
 ON	 North York		(GR. 09-12)	Toronto District School Board		http://www.tdsb.on.ca/FindYour/Schools.aspx?schno=3412	North West Year Round Alternative Centre		M2R 2N1	(416) 395-4824	425 Patricia Ave
 ON	 Scarborough	http://schools.tdsb.on.ca/northagincourt/	(GR. JK-06)	Toronto District School Board		http://www.tdsb.on.ca/FindYour/Schools.aspx?schno=4678	North Agincourt Junior Public School		M1S 2J3	(416) 396-6490	60 Moran Rd
 ON	 Scarborough	http://schoolweb.tdsb.on.ca/morrish/	(GR. JK-08)	Toronto District School Board		http://www.tdsb.on.ca/FindYour/Schools.aspx?schno=4665	Morrish Public School		M1C 3T7	(416) 396-6730	61 Canmore Blvd
 ON	 Toronto	http://schools.tdsb.on.ca/montrose/	(GR. JK-06)	Toronto District School Board		http://www.tdsb.on.ca/FindYour/Schools.aspx?schno=5246	Montrose Junior Public School		M6G 3G9	(416) 393-9770	301 Montrose Ave
 ON	 Toronto	http://schools.tdsb.on.ca/monarch	(GR. 09-12)	Toronto District School Board		http://www.tdsb.on.ca/FindYour/Schools.aspx?schno=5535	Monarch Park Collegiate Institute		M4J 1G6	(416) 393-0190	1 Hanson St
 ON	 Toronto		(GR. 09-12)	Toronto District School Board		http://www.tdsb.on.ca/FindYour/Schools.aspx?schno=5512	Native Learning Centre		M4Y 1B7	(416) 393-0358	83 Alexander St
 ON	 Toronto	http://mountviewalternative.ca	(GR. JK-06)	Toronto District School Board		http://www.tdsb.on.ca/FindYour/Schools.aspx?schno=5342	Mountview Alternative Junior School		M6P 2L5	(416) 393-9037	99 Mountview Ave
 ON	 North York	http://schools.tdsb.on.ca/muirhead/	(GR. JK-06)	Toronto District School Board		http://www.tdsb.on.ca/FindYour/Schools.aspx?schno=3201	Muirhead Public School		M2J 3W3	(416) 395-2710	25 Muirhead Rd
 ON	 North York	http://schools.tdsb.on.ca/milnevalley	(GR. 06-08)	Toronto District School Board		http://www.tdsb.on.ca/FindYour/Schools.aspx?schno=3196	Milne Valley Middle School		M3A 2J9	(416) 395-2700	100 Underhill Dr
 ON	 Toronto	http://schools.tdsb.on.ca/morsestreet	(GR. JK-06)	Toronto District School Board		http://www.tdsb.on.ca/FindYour/Schools.aspx?schno=5254	Morse Street Junior Public School		M4M 2R9	(416) 393-9494	180 Carlaw Ave
 ON	 Etobicoke		(GR. JK-05)	Toronto District School Board		http://www.tdsb.on.ca/FindYour/Schools.aspx?schno=2082	Melody Village Junior School		M9V 3L5	(416) 394-7620	520 Silverstone Dr
 ON	 Scarborough	http://schools.tdsb.on.ca/milliken	(GR. JK-08)	Toronto District School Board		http://www.tdsb.on.ca/FindYour/Schools.aspx?schno=4668	Milliken Public School		M1V 2T4	(416) 396-6480	130 Port Royal Trail
 ON	 Scarborough		(GR. JK-08)	Toronto District School Board		http://www.tdsb.on.ca/FindYour/Schools.aspx?schno=4670	Military Trail Public School		M1E 4P6	(416) 396-6475	701 Military Trail
 ON	 Scarborough		(GR. JK-08)	Toronto District School Board		http://www.tdsb.on.ca/FindYour/Schools.aspx?schno=4660	Meadowvale Public School		M1C 1T1	(416) 396-6470	761 Meadowvale Rd
 ON	 North York	http://schools.tdsb.on.ca/mckee	(GR. JK-05)	Toronto District School Board		http://www.tdsb.on.ca/FindYour/Schools.aspx?schno=3198	McKee Public School		M2N 6X6	(416) 395-2680	35 Church Ave
 ON	 Etobicoke	http://schools.tdsb.on.ca/millvalley	(GR. JK-05)	Toronto District School Board		http://www.tdsb.on.ca/FindYour/Schools.aspx?schno=2069	Mill Valley Junior School		M9C 1Y9	(416) 394-7060	411 Mill Rd
 ON	 Scarborough		(GR. JK-06)	Toronto District School Board		http://www.tdsb.on.ca/FindYour/Schools.aspx?schno=4654	Mason Road Junior Public School		M1M 3R2	(416) 396-6460	78 Mason Rd
 ON	 Etobicoke	http://schools.tdsb.on.ca/northalbion/index.html	(GR. 09-12)	Toronto District School Board		http://www.tdsb.on.ca/FindYour/Schools.aspx?schno=2807	North Albion Collegiate Institute		M9V 3B2	(416) 394-7550	2580 Kipling Ave
 ON	 Scarborough		(GR. 09-12)	Toronto District School Board		http://www.tdsb.on.ca/FindYour/Schools.aspx?schno=4806	Native Learning Centre East		M1E 1P5	(416) 396-6981	145 Guildwood Parkway
 ON	 Toronto	http://schools.tdsb.on.ca/mcmurrich	(GR. JK-06)	Toronto District School Board		http://www.tdsb.on.ca/FindYour/Schools.aspx?schno=5253	McMurrich Junior Public School		M6G 3S8	(416) 393-1770	115 Winona Dr
 ON	 Toronto	http://schools.tdsb.on.ca/mauricecody	(GR. JK-06)	Toronto District School Board		http://www.tdsb.on.ca/FindYour/Schools.aspx?schno=5301	Maurice Cody Junior Public School		M4S 1N2	(416) 393-9240	364 Belsize Dr
 ON	 Scarborough	http://schools.tdsb.on.ca/maplewood	(GR. 09-12)	Toronto District School Board		http://www.tdsb.on.ca/FindYour/Schools.aspx?schno=4136	Maplewood High School		M1E 1W7	(416) 396-6765	120 Galloway Rd
 ON	 Scarborough	http://schools.tdsb.on.ca/maryvale	(GR. JK-08)	Toronto District School Board		http://www.tdsb.on.ca/FindYour/Schools.aspx?schno=4648	Maryvale Public School		M1R 2J1	(416) 396-6455	1325 Pharmacy Ave
 ON	 Toronto	http://schools.tdsb.on.ca/marketlane	(GR. JK-08)	Toronto District School Board		http://www.tdsb.on.ca/FindYour/Schools.aspx?schno=5316	Market Lane Junior and Senior Public School		M5A 4J6	(416) 393-1300	246 The Esplanade
 ON	 Scarborough	http://schools.tdsb.on.ca/maryshadd/	(GR. JK-08)	Toronto District School Board		http://www.tdsb.on.ca/FindYour/Schools.aspx?schno=4647	Mary Shadd Public School		M1B 4R6	(416) 396-6450	135 Hupfield Trail
 ON	 Scarborough	http://schools.tdsb.on.ca/malvernjps	(GR. JK-06)	Toronto District School Board		http://www.tdsb.on.ca/FindYour/Schools.aspx?schno=4640	Malvern Junior Public School		M1B 1P6	(416) 396-6440	70 Mammoth Hall Trail
 ON	 Scarborough	http://schools.tdsb.on.ca/macklin/	(GR. JK-08)	Toronto District School Board		http://www.tdsb.on.ca/FindYour/Schools.aspx?schno=4650	Macklin Public School		M1V 2Y4	(416) 396-6435	136 Ingleton Blvd
 ON	 Toronto	http://schools.tdsb.on.ca/malvern	(GR. 09-12)	Toronto District School Board		http://www.tdsb.on.ca/FindYour/Schools.aspx?schno=5530	Malvern Collegiate Institute		M4E 3E4	(416) 393-1480	55 Malvern Ave
 ON	 East York	http://schools.tdsb.on.ca/marcgarneau	(GR. 09-12)	Toronto District School Board		http://www.tdsb.on.ca/FindYour/Schools.aspx?schno=1950	Marc Garneau Collegiate Institute		M3C 1B3	(416) 396-2410	135 Overlea Blvd
 ON	 Toronto	http://schools.tdsb.on.ca/lucymccormick/	(GR. 07-08)	Toronto District School Board		http://www.tdsb.on.ca/FindYour/Schools.aspx?schno=5310	Lucy McCormick Senior School		M6P 1Y1	(416) 397-2713	2717 Dundas St W
 ON	 Etobicoke	http://schools.tdsb.on.ca/martingrove	(GR. 09-12)	Toronto District School Board		http://www.tdsb.on.ca/FindYour/Schools.aspx?schno=2804	Martingrove Collegiate Institute		M9B 3G7	(416) 394-7110	50 Winterton Dr
 ON	 Scarborough	http://schools.tdsb.on.ca/manhattan	(GR. JK-06)	Toronto District School Board		http://www.tdsb.on.ca/FindYour/Schools.aspx?schno=4642	Manhattan Park Junior Public School		M1R 3V8	(416) 396-6445	90 Manhattan Dr
 ON	 Toronto	http://schools.tdsb.on.ca/lordlansdowne	(GR. SK-08)	Toronto District School Board		http://www.tdsb.on.ca/FindYour/Schools.aspx?schno=5248	Lord Lansdowne Junior and Senior Public School		M5S 2K2	(416) 393-1350	33 Robert St
 ON	 North York	http://schools.tdsb.on.ca/lillian	(GR. JK-05)	Toronto District School Board		http://www.tdsb.on.ca/FindYour/Schools.aspx?schno=3186	Lillian Public School		M2M 3G1	(416) 395-2660	1059 Lillian St
 ON	 Etobicoke	http://schools.tdsb.on.ca/millwood/	(GR. JK-05)	Toronto District School Board		http://www.tdsb.on.ca/FindYour/Schools.aspx?schno=2056	Millwood Junior School		M9C 1Y2	(416) 394-7070	222 Mill Rd
 ON	 North York	http://schools.tdsb.on.ca/mapleleaf	(GR. JK-08)	Toronto District School Board		http://www.tdsb.on.ca/FindYour/Schools.aspx?schno=3194	Maple Leaf Public School		M6L 2V4	(416) 395-2670	301 Culford Rd
 ON	 Scarborough	http://sites.google.com/a/tdsb.on.ca/pearsonci/	(GR. 09-12)	Toronto District School Board		http://www.tdsb.on.ca/FindYour/Schools.aspx?schno=4134	Lester B Pearson Collegiate Institute		M1B 2L2	(416) 396-5892	150 Tapscott Rd
 ON	 Scarborough		(GR. JK-06)	Toronto District School Board		http://www.tdsb.on.ca/FindYour/Schools.aspx?schno=4636	Lynnwood Heights Junior Public School		M1S 1J1	(416) 396-6430	50 Southlawn Dr
 ON	 Scarborough		(GR. JK-08)	Toronto District School Board		http://www.tdsb.on.ca/FindYour/Schools.aspx?schno=4637	Lucy Maud Montgomery Public School		M1B 2L6	(416) 396-6838	95 Murison Blvd
 ON	 Scarborough	http://schools.tdsb.on.ca/lordroberts	(GR. JK-06)	Toronto District School Board		http://www.tdsb.on.ca/FindYour/Schools.aspx?schno=4624	Lord Roberts Junior Public School		M1K 3W5	(416) 396-6420	165 Lord Roberts Dr
 ON	 East York	http://schools.tdsb.on.ca/leasidehigh/	(GR. 09-12)	Toronto District School Board		http://www.tdsb.on.ca/FindYour/Schools.aspx?schno=1836	Leaside High School		M4G 3N8	(416) 396-2380	200 Hanna Rd
 ON	 Toronto	http://schools.tdsb.on.ca/lawrenceparkci	(GR. 09-12)	Toronto District School Board		http://www.tdsb.on.ca/FindYour/Schools.aspx?schno=5525	Lawrence Park Collegiate Institute		M4R 1S1	(416) 393-9500	125 Chatsworth Dr
 ON	 North York	http://schools.tdsb.on.ca/lawrenceheights/	(GR. 06-08)	Toronto District School Board		http://www.tdsb.on.ca/FindYour/Schools.aspx?schno=3190	Lawrence Heights Middle School		M6A 2R1	(416) 395-2620	50 Highland Hill
 ON	 Scarborough	http://schools.tdsb.on.ca/lynngate	(GR. JK-06)	Toronto District School Board		http://www.tdsb.on.ca/FindYour/Schools.aspx?schno=4630	Lynngate Junior Public School		M1T 2B5	(416) 396-6425	129 Cass Ave
 ON	 Toronto	http://schools.tdsb.on.ca/lorddufferin	(GR. JK-08)	Toronto District School Board		http://www.tdsb.on.ca/FindYour/Schools.aspx?schno=5219	Lord Dufferin Junior and Senior Public School		M5A 2Z7	(416) 393-1760	350 Parliament St
 ON	 Toronto	http://schools.tdsb.on.ca/leslieville	(GR. JK-06)	Toronto District School Board		http://www.tdsb.on.ca/FindYour/Schools.aspx?schno=5250	Leslieville Junior Public School		M4M 3C9	(416) 393-9480	254 Leslie St
 ON	 North York		(GR. JK-06)	Toronto District School Board		http://www.tdsb.on.ca/FindYour/Schools.aspx?schno=3185	Lescon Public School		M2J 2G6	(416) 395-2640	34 Lescon Rd
 ON	 North York		(GR. JK-05)	Toronto District School Board		http://www.tdsb.on.ca/FindYour/Schools.aspx?schno=3187	Lamberton Public School		M3J 1G6	(416) 395-9570	33 Lamberton Blvd
 ON	 Scarborough	http://schools.tdsb.on.ca/lamoreaux	(GR. 09-12)	Toronto District School Board		http://www.tdsb.on.ca/FindYour/Schools.aspx?schno=4226	L'Amoreaux Collegiate Institute		M1W 2K1	(416) 396-6745	2501 Bridletowne Cir
 ON	 Etobicoke	http://schools.tdsb.on.ca/lambtonkingsway	(GR. JK-08)	Toronto District School Board		http://www.tdsb.on.ca/FindYour/Schools.aspx?schno=2019	Lambton-Kingsway Junior Middle School		M8X 2M6	(416) 394-7890	525 Prince Edward Dr
 ON	 York	http://schools.tdsb.on.ca/lambtonpark/	(GR. JK-06)	Toronto District School Board		http://www.tdsb.on.ca/FindYour/Schools.aspx?schno=6161	Lambton Park Community School		M6N 1W9	(416) 394-3070	50 Bernice Cres
 ON	 Etobicoke	http://www.lakeshorecollegiate.ca	(GR. 09-12)	Toronto District School Board		http://www.tdsb.on.ca/FindYour/Schools.aspx?schno=2817	Lakeshore Collegiate Institute		M8V 3L1	(416) 394-7650	350 Kipling Ave
 ON	 North York	http://schools.tdsb.on.ca/ledbury/	(GR. JK-08)	Toronto District School Board		http://www.tdsb.on.ca/FindYour/Schools.aspx?schno=3189	Ledbury Park Elementary and Middle School		M5M 4K1	(416) 395-2630	95 Falkirk St
 ON	 York	http://schools.tdsb.on.ca/kinggeorge	(GR. JK-06)	Toronto District School Board		http://www.tdsb.on.ca/FindYour/Schools.aspx?schno=6158	King George Junior Public School		M6S 2M2	(416) 394-3060	25 Rexford Rd
 ON	 Toronto	http://schools.tdsb.on.ca/kingedward	(GR. JK-08)	Toronto District School Board		http://www.tdsb.on.ca/FindYour/Schools.aspx?schno=5247	King Edward Junior and Senior Public School		M5S 2P1	(416) 393-1320	112 Lippincott ST
 ON	 Toronto	http://schools.tdsb.on.ca/kimberley	(GR. JK-06)	Toronto District School Board		http://www.tdsb.on.ca/FindYour/Schools.aspx?schno=5245	Kimberley Junior Public School		M4E 2Z5	(416) 393-1450	50 Swanwick Ave
 ON	 Etobicoke	http://schools.tdsb.on.ca/lanor	(GR. JK-08)	Toronto District School Board		http://www.tdsb.on.ca/FindYour/Schools.aspx?schno=2003	Lanor Junior Middle School		M8W 2S1	(416) 394-7800	450 Lanor Ave
 ON	 North York	http://schools.tdsb.on.ca/lesterbpearsones	(GR. SK-08)	Toronto District School Board		http://www.tdsb.on.ca/FindYour/Schools.aspx?schno=3082	Lester B Pearson Elementary School		M2K 2K5	(416) 395-2656	7 Snowcrest Ave
 ON	 Toronto	http://schoolweb.tdsb.on.ca/kensington/Home.aspx	(GR. JK-06)	Toronto District School Board		http://www.tdsb.on.ca/FindYour/Schools.aspx?schno=5347	Kensington Community School		M5T 1S9	(416) 393-1290	401 College St
 ON	 Scarborough	http://schools.tdsb.on.ca/knobhill	(GR. JK-08)	Toronto District School Board		http://www.tdsb.on.ca/FindYour/Schools.aspx?schno=4612	Knob Hill Public School		M1J 1M8	(416) 396-6415	25 Seminole Ave
 ON	 Etobicoke	http://schools.tdsb.on.ca/kingsview/	(GR. JK-05)	Toronto District School Board		http://www.tdsb.on.ca/FindYour/Schools.aspx?schno=2040	Kingsview Village Junior School		M9R 3C8	(416) 394-7950	1 York Rd
 ON	 Scarborough	http://schools.tdsb.on.ca/kennedy	(GR. JK-08)	Toronto District School Board		http://www.tdsb.on.ca/FindYour/Schools.aspx?schno=4727	Kennedy Public School		M1V 2Y6	(416) 396-6410	20 Elmfield Cres
 ON	 Toronto	http://schools.tdsb.on.ca/kewbeach	(GR. JK-06)	Toronto District School Board		http://www.tdsb.on.ca/FindYour/Schools.aspx?schno=5244	Kew Beach Junior Public School		M4L 3R3	(416) 393-1810	101 Kippendavie Ave
 ON	 North York	http://schools.tdsb.on.ca/joyce	(GR. JK-06)	Toronto District School Board		http://www.tdsb.on.ca/FindYour/Schools.aspx?schno=3182	Joyce Public School		M6B 2S9	(416) 395-2600	26 Joyce Pky
 ON	 Etobicoke	http://www.kiplingci.ca	(GR. 09-12)	Toronto District School Board		http://www.tdsb.on.ca/FindYour/Schools.aspx?schno=2803	Kipling Collegiate Institute		M9R 1H4	(416) 394-7930	380 The Westway
 ON	 Toronto	http://www.johnwanless.ca	(GR. JK-06)	Toronto District School Board		http://www.tdsb.on.ca/FindYour/Schools.aspx?schno=5308	John Wanless Junior Public School		M5M 1T2	(416) 393-9350	245 Fairlawn Ave
 ON	 Scarborough	http://schools.tdsb.on.ca/josephbrant	(GR. JK-08)	Toronto District School Board		http://www.tdsb.on.ca/FindYour/Schools.aspx?schno=4611	Joseph Brant Public School		M1E 3V4	(416) 396-6400	270 Manse Rd
 ON	 Etobicoke	http://schoolweb.tdsb.on.ca/karenkain/Home.aspx	(GR. 06-08)	Toronto District School Board		http://www.tdsb.on.ca/FindYour/Schools.aspx?schno=2907	Karen Kain School of the Arts		M8Y 3C7	(416) 394-7979	60 Berl Ave
 ON	 Scarborough	http://schools.tdsb.on.ca/josephhowe	(GR. 07-08)	Toronto District School Board		http://www.tdsb.on.ca/FindYour/Schools.aspx?schno=4608	Joseph Howe Senior Public School		M1C 3E7	(416) 396-6405	20 Winter Gardens Trail
 ON	 North York	http://schools.tdsb.on.ca/kingslake	(GR. JK-06)	Toronto District School Board		http://www.tdsb.on.ca/FindYour/Schools.aspx?schno=3184	Kingslake Public School		M2J 3E8	(416) 395-2610	90 Kingslake Rd
 ON	 Etobicoke	http://schools.tdsb.on.ca/johngalthouse	(GR. 06-08)	Toronto District School Board		http://www.tdsb.on.ca/FindYour/Schools.aspx?schno=2033	John G Althouse Middle School		M9B 5K1	(416) 394-7580	130 Lloyd Manor Rd
 ON	 Toronto	http://schools.tdsb.on.ca/johnfisher	(GR. SK-06)	Toronto District School Board		http://www.tdsb.on.ca/FindYour/Schools.aspx?schno=5240	John Fisher Junior Public School		M4P 1Y2	(416) 393-9325	40 Erskine Ave
 ON	 North York	http://schools.tdsb.on.ca/JohnPolanyi	(GR. 09-12)	Toronto District School Board		http://www.tdsb.on.ca/FindYour/Schools.aspx?schno=3437	John Polanyi Collegiate Institute		M6A 1B1	(416) 395-3303	640 Lawrence Ave W
 ON	 Toronto	http://schools.tdsb.on.ca/johnrossrobertson	(GR. JK-06)	Toronto District School Board		http://www.tdsb.on.ca/FindYour/Schools.aspx?schno=5296	John Ross Robertson Junior Public School		M4R 1P2	(416) 393-9400	130 Glengrove Ave W
 ON	 Scarborough	http://schools.tdsb.on.ca/johnbuchan	(GR. 07-08)	Toronto District School Board		http://www.tdsb.on.ca/FindYour/Schools.aspx?schno=4609	John Buchan Senior Public School		M1T 2M5	(416) 396-6385	2450 Birchmount Rd
 ON	 Etobicoke		(GR. JK-05)	Toronto District School Board		http://www.tdsb.on.ca/FindYour/Schools.aspx?schno=2080	John D Parker Junior School		M9V 3Z5	(416) 394-7530	202 Mount Olive Dr
 ON	 Scarborough	http://schools.tdsb.on.ca/johnaleslie	(GR. JK-08)	Toronto District School Board		http://www.tdsb.on.ca/FindYour/Schools.aspx?schno=4606	John A Leslie Public School		M1N 4A7	(416) 396-6380	459 Midland Ave
 ON	 Toronto	http://schools.tdsb.on.ca/jesseketchum/	(GR. JK-08)	Toronto District School Board		http://www.tdsb.on.ca/FindYour/Schools.aspx?schno=5239	Jesse Ketchum Junior and Senior Public School		M5R 1H4	(416) 393-1530	61 Davenport Rd
 ON	 Scarborough	http://schools.tdsb.on.ca/jeanaugustine	(GR. 04-08)	Toronto District School Board		http://www.tdsb.on.ca/FindYour/Schools.aspx?schno=4802	Jean Augustine Girls' Leadership Academy		M1T 2Z3	(416) 396-6335	35 Glendower Circt
 ON	 York		(GR. JK-06)	Toronto District School Board		http://www.tdsb.on.ca/FindYour/Schools.aspx?schno=6155	Keelesdale Junior Public School		M6M 4G9	(416) 394-3050	200 Bicknell Ave
 ON	 Scarborough	http://schools.tdsb.on.ca/johnmccrae	(GR. JK-08)	Toronto District School Board		http://www.tdsb.on.ca/FindYour/Schools.aspx?schno=4610	John McCrae Public School		M1J 1J1	(416) 396-6395	431 McCowan Rd
 ON	 Toronto	http://schools.tdsb.on.ca/jackman	(GR. JK-06)	Toronto District School Board		http://www.tdsb.on.ca/FindYour/Schools.aspx?schno=5214	Jackman Avenue Junior Public School		M4K 2X5	(416) 393-9710	79 Jackman Ave
 ON	 York	http://schools.tdsb.on.ca/jrwilcox	(GR. JK-08)	Toronto District School Board		http://www.tdsb.on.ca/FindYour/Schools.aspx?schno=6152	J R Wilcox Community School		M6C 1X3	(416) 394-2388	231 Ava Rd
 ON	 Scarborough	http://schools.tdsb.on.ca/jgdiefenbaker	(GR. JK-08)	Toronto District School Board		http://www.tdsb.on.ca/FindYour/Schools.aspx?schno=4723	John G Diefenbaker Public School		M1B 2X3	(416) 396-6390	70 Dean Park Rd
 ON	 Scarborough	http://schools.tdsb.on.ca/jackminer/	(GR. 07-08)	Toronto District School Board		http://www.tdsb.on.ca/FindYour/Schools.aspx?schno=4604	Jack Miner Senior Public School		M1E 1R3	(416) 396-6375	405 Guildwood Pky
 ON	 Etobicoke	http://schools.tdsb.on.ca/islington	(GR. JK-08)	Toronto District School Board		http://www.tdsb.on.ca/FindYour/Schools.aspx?schno=2021	Islington Junior Middle School		M9A 2H5	(416) 394-7870	44 Cordova Ave
 ON	 Scarborough		(GR. JK-06)	Toronto District School Board		http://www.tdsb.on.ca/FindYour/Schools.aspx?schno=4597	Iroquois Junior Public School		M1S 2S6	(416) 396-6355	265 Chartland Blvd S
 ON	 Toronto	http://jarviscollegiate.com/	(GR. 09-12)	Toronto District School Board		http://www.tdsb.on.ca/FindYour/Schools.aspx?schno=5520	Jarvis Collegiate Institute		M4Y 2G8	(416) 393-0140	495 Jarvis St
 ON	 Scarborough		(GR. 07-08)	Toronto District School Board		http://www.tdsb.on.ca/FindYour/Schools.aspx?schno=4598	J B Tyrrell Senior Public School		M1W 1B3	(416) 396-6360	10 Corinthian Blvd
 ON	 Toronto	http://schools.tdsb.on.ca/keelestreet	(GR. JK-08)	Toronto District School Board		http://www.tdsb.on.ca/FindYour/Schools.aspx?schno=5242	Keele Street Public School		M6P 2L5	(416) 393-9035	99 Mountview Ave
 ON	 Toronto	http://schools.tdsb.on.ca/indianroad	(GR. JK-06)	Toronto District School Board		http://www.tdsb.on.ca/FindYour/Schools.aspx?schno=5281	Indian Road Crescent Junior Public School		M6P 2G8	(416) 393-9025	285 Indian Road Cres
 ON	 Etobicoke	http://schools.tdsb.on.ca/johnenglish	(GR. JK-08)	Toronto District School Board		http://www.tdsb.on.ca/FindYour/Schools.aspx?schno=2077	John English Junior Middle School		M8V 1R4	(416) 394-7660	95 Mimico Ave
 ON	 Toronto	http://schools.tdsb.on.ca/inglenook	(GR. 11-12)	Toronto District School Board		http://www.tdsb.on.ca/FindYour/Schools.aspx?schno=5582	Inglenook Community School		M5A 3E1	(416) 393-0560	19 Sackville St
 ON	 Toronto	http://schools.tdsb.on.ca/huronstreet	(GR. JK-06)	Toronto District School Board		http://www.tdsb.on.ca/FindYour/Schools.aspx?schno=5237	Huron Street Junior Public School		M5R 2R6	(416) 393-1570	541 Huron St
 ON	 Etobicoke	http://schools.tdsb.on.ca/jamessbell/	(GR. JK-08)	Toronto District School Board		http://www.tdsb.on.ca/FindYour/Schools.aspx?schno=2072	James S Bell Junior Middle Sports and Wellness Academy		M8W 3E9	(416) 394-7680	90 Thirty First St
 ON	 Etobicoke	http://schools.tdsb.on.ca/humberwood	(GR. JK-08)	Toronto District School Board		http://www.tdsb.on.ca/FindYour/Schools.aspx?schno=2081	Humberwood Downs Junior Middle Academy		M9W 7A6	(416) 394-4750	850 Humberwood Blvd
 ON	 Scarborough	http://schools.tdsb.on.ca/jgworkman	(GR. JK-08)	Toronto District School Board		http://www.tdsb.on.ca/FindYour/Schools.aspx?schno=4600	J G Workman Public School		M1K 1N7	(416) 396-6365	487 Birchmount Rd
 ON	 Toronto	http://schools.tdsb.on.ca/island	(GR. JK-06)	Toronto District School Board		http://www.tdsb.on.ca/FindYour/Schools.aspx?schno=5236	Island Public/Natural Science School		M5J 2E9	(416) 393-1910	30 Centre Island Pk
 ON	 Etobicoke	http://schoolweb.tdsb.on.ca/humbervalley	(GR. JK-08)	Toronto District School Board		http://www.tdsb.on.ca/FindYour/Schools.aspx?schno=2030	Humber Valley Village Junior Middle School		M9A 3E1	(416) 394-7860	65 Hartfield Rd
 ON	 North York		(GR. 06-08)	Toronto District School Board		http://www.tdsb.on.ca/FindYour/Schools.aspx?schno=3135	Humber Summit Middle School		M9L 2G9	(416) 395-2570	60 Pearldale Ave
 ON	 Toronto	http://schools.tdsb.on.ca/howard	(GR. JK-06)	Toronto District School Board		http://www.tdsb.on.ca/FindYour/Schools.aspx?schno=5234	Howard Junior Public School		M6R 1T2	(416) 393-9255	30 Marmaduke St
 ON	 Scarborough	http://schools.tdsb.on.ca/inglewoodhts	(GR. JK-06)	Toronto District School Board		http://www.tdsb.on.ca/FindYour/Schools.aspx?schno=4588	Inglewood Heights Junior Public School		M1T 2T6	(416) 396-6345	45 Dempster St
 ON	 Scarborough	http://schools.tdsb.on.ca/ionview	(GR. JK-08)	Toronto District School Board		http://www.tdsb.on.ca/FindYour/Schools.aspx?schno=4594	Ionview Public School		M1K 2Z9	(416) 396-6350	90 Ionview Rd
 ON	 York	http://schools.tdsb.on.ca/humewood	(GR. JK-08)	Toronto District School Board		http://www.tdsb.on.ca/FindYour/Schools.aspx?schno=6149	Humewood Community School		M6C 2X4	(416) 394-2383	15 Cherrywood Ave
 ON	 Toronto	http://schools.tdsb.on.ca/humberside	(GR. 09-12)	Toronto District School Board		http://www.tdsb.on.ca/FindYour/Schools.aspx?schno=5515	Humberside Collegiate Institute		M6P 2V3	(416) 393-8122	280 Quebec Ave
 ON	 Etobicoke	http://schools.tdsb.on.ca/hilltop	(GR. 06-08)	Toronto District School Board		http://www.tdsb.on.ca/FindYour/Schools.aspx?schno=2038	Hilltop Middle School		M9P 1N8	(416) 394-7730	35 Trehorne Dr
 ON	 North York	http://schools.tdsb.on.ca/hillmount	(GR. JK-05)	Toronto District School Board		http://www.tdsb.on.ca/FindYour/Schools.aspx?schno=3123	Hillmount Public School		M2H 2C6	(416) 395-2550	245 McNicoll Ave
 ON	 Toronto	http://schools.tdsb.on.ca/horizon	(GR. 07-08)	Toronto District School Board		http://www.tdsb.on.ca/FindYour/Schools.aspx?schno=5341	Horizon Alternative Senior School		M6G 3L6	(416) 393-1298	570 Shaw St
 ON	 North York	http://schools.tdsb.on.ca/highview	(GR. JK-05)	Toronto District School Board		http://www.tdsb.on.ca/FindYour/Schools.aspx?schno=3166	Highview Public School		M3M 1C4	(416) 395-2540	22 Highview Ave
 ON	 Scarborough	http://schools.tdsb.on.ca/huntersglen/	(GR. JK-06)	Toronto District School Board		http://www.tdsb.on.ca/FindYour/Schools.aspx?schno=4582	Hunter's Glen Junior Public School		M1K 4X5	(416) 396-6340	16 Haileybury Dr
 ON	 North York	http://schools.tdsb.on.ca/highland/	(GR. 06-08)	Toronto District School Board		http://www.tdsb.on.ca/FindYour/Schools.aspx?schno=3322	Highland Middle School		M2H 3B5	(416) 395-3040	201 Cliffwood Rd
 ON	 York	http://www.humbercrestps.ca	(GR. JK-08)	Toronto District School Board		http://www.tdsb.on.ca/FindYour/Schools.aspx?schno=6346	Humbercrest Public School		M6S 2H7	(416) 394-2370	14 Saint Marks Rd
 ON	 North York	http://schools.tdsb.on.ca/hollywood	(GR. JK-05)	Toronto District School Board		http://www.tdsb.on.ca/FindYour/Schools.aspx?schno=3170	Hollywood Public School		M2N 3L4	(416) 395-2560	360 Hollywood Ave
 ON	 Toronto		(GR. JK-06)	Toronto District School Board		http://www.tdsb.on.ca/FindYour/Schools.aspx?schno=5232	Hillcrest Community School		M5R 3E6	(416) 393-9700	44 Hilton Ave
 ON	 Etobicoke	http://schools.tdsb.on.ca/hollycrest/	(GR. 04-08)	Toronto District School Board		http://www.tdsb.on.ca/FindYour/Schools.aspx?schno=2060	Hollycrest Middle School		M9C 2N6	(416) 394-7050	630 Renforth Dr
 ON	 Toronto	http://schoolweb.tdsb.on.ca/hodgson	(GR. 07-08)	Toronto District School Board		http://www.tdsb.on.ca/FindYour/Schools.aspx?schno=5233	Hodgson Senior Public School		M4S 1H2	(416) 393-0390	282 Davisville Ave
 ON	 Toronto	http://www.highparkalternativeschool.com	(GR. JK-08)	Toronto District School Board		http://www.tdsb.on.ca/FindYour/Schools.aspx?schno=5340	High Park Alternative Junior School		M6P 1R3	(416) 393-9050	265 Annette St
 ON	 Etobicoke	http://schools.tdsb.on.ca/highfield	(GR. JK-05)	Toronto District School Board		http://www.tdsb.on.ca/FindYour/Schools.aspx?schno=2063	Highfield Junior School		M9V 2C9	(416) 394-7510	85 Mount Olive Dr
 ON	 Scarborough	http://schools.tdsb.on.ca/henrykelsey	(GR. 07-08)	Toronto District School Board		http://www.tdsb.on.ca/FindYour/Schools.aspx?schno=4556	Henry Kelsey Senior Public School		M1S 1K7	(416) 396-6315	1200 Huntingwood Dr
 ON	 Scarborough	http://schools.tdsb.on.ca/heatherheights	(GR. JK-06)	Toronto District School Board		http://www.tdsb.on.ca/FindYour/Schools.aspx?schno=4552	Heather Heights Junior Public School		M1G 3B5	(416) 396-6305	80 Slan Ave
 ON	 Scarborough	http://schoolweb.tdsb.on.ca/henryhudson/Home	(GR. 07-08)	Toronto District School Board		http://www.tdsb.on.ca/FindYour/Schools.aspx?schno=4555	Henry Hudson Senior Public School		M1G 3H4	(416) 396-6310	350 Orton Park Rd
 ON	 Scarborough	http://schools.tdsb.on.ca/highcastle	(GR. JK-08)	Toronto District School Board		http://www.tdsb.on.ca/FindYour/Schools.aspx?schno=4564	Highcastle Public School		M1E 4E6	(416) 396-6325	370 Military Trail
 ON	 Toronto	http://www.hawthorne2bilingual.com/	(GR. JK-06)	Toronto District School Board		http://www.tdsb.on.ca/FindYour/Schools.aspx?schno=5362	Hawthorne II Bilingual Alternative Junior School		M6G 1T3	(416) 393-0727	50 Essex St
 ON	 Scarborough	http://schools.tdsb.on.ca/heritagepark/	(GR. JK-08)	Toronto District School Board		http://www.tdsb.on.ca/FindYour/Schools.aspx?schno=4644	Heritage Park Public School		M1B 5J2	(416) 396-6207	80 Old Finch Ave
 ON	 York	http://schools.tdsb.on.ca/harwood	(GR. JK-08)	Toronto District School Board		http://www.tdsb.on.ca/FindYour/Schools.aspx?schno=6140	Harwood Public School		M6N 3X3	(416) 394-2350	50 Leigh St
 ON	 Toronto	http://www.harbordci.ca	(GR. 09-12)	Toronto District School Board		http://www.tdsb.on.ca/FindYour/Schools.aspx?schno=5510	Harbord Collegiate Institute		M6G 1G5	(416) 393-1650	286 Harbord St
 ON	 York		(GR. JK-05)	Toronto District School Board		http://www.tdsb.on.ca/FindYour/Schools.aspx?schno=6143	H J Alexander Community School		M9N 1K9	(416) 394-2359	30 King St
 ON	 Scarborough	http://schools.tdsb.on.ca/guildwood	(GR. JK-06)	Toronto District School Board		http://www.tdsb.on.ca/FindYour/Schools.aspx?schno=4540	Guildwood Junior Public School		M1E 1L8	(416) 396-6295	225 Livingston Rd
 ON	 Scarborough		(GR. JK-08)	Toronto District School Board		http://www.tdsb.on.ca/FindYour/Schools.aspx?schno=4570	Highland Creek Public School		M1C 1A8	(416) 396-6330	1410 Military Trail
 ON	 Scarborough	http://schools.tdsb.on.ca/hahalbert	(GR. JK-06)	Toronto District School Board		http://www.tdsb.on.ca/FindYour/Schools.aspx?schno=4546	H A Halbert Junior Public School		M1M 3L7	(416) 396-6300	31 McCowan Rd
 ON	 North York		(GR. JK-08)	Toronto District School Board		http://www.tdsb.on.ca/FindYour/Schools.aspx?schno=3154	Gulfstream Public School		M9M 1S3	(416) 395-2520	20 Gulfstream Rd
 ON	 North York	http://schools.tdsb.on.ca/greenland	(GR. JK-05)	Toronto District School Board		http://www.tdsb.on.ca/FindYour/Schools.aspx?schno=3150	Greenland Public School		M3C 1N1	(416) 395-2500	15 Greenland Rd
 ON	 Scarborough	http://schools.tdsb.on.ca/highlandheights	(GR. JK-06)	Toronto District School Board		http://www.tdsb.on.ca/FindYour/Schools.aspx?schno=4573	Highland Heights Junior Public School		M1T 2Z3	(416) 396-6335	35 Glendower Circt
 ON	 Scarborough		(GR. JK-06)	Toronto District School Board		http://www.tdsb.on.ca/FindYour/Schools.aspx?schno=4536	Grey Owl Junior Public School		M1B 1M4	(416) 396-6290	150 Wickson Trail
 ON	 North York	http://schools.tdsb.on.ca/gracedale	(GR. JK-05)	Toronto District School Board		http://www.tdsb.on.ca/FindYour/Schools.aspx?schno=3145	Gracedale Public School		M9L 2C1	(416) 395-2480	186 Gracedale Blvd
 ON	 North York	http://schools.tdsb.on.ca/gosford/	(GR. JK-05)	Toronto District School Board		http://www.tdsb.on.ca/FindYour/Schools.aspx?schno=3144	Gosford Public School		M3N 2G8	(416) 395-2470	30 Gosford Blvd
 ON	 East York	http://schools.tdsb.on.ca/gordonabrown	(GR. 06-08)	Toronto District School Board		http://www.tdsb.on.ca/FindYour/Schools.aspx?schno=1572	Gordon A Brown Middle School		M4B 1N2	(416) 396-2440	2800 St Clair Ave E
 ON	 North York	http://schools.tdsb.on.ca/grenoble	(GR. JK-06)	Toronto District School Board		http://www.tdsb.on.ca/FindYour/Schools.aspx?schno=3152	Grenoble Public School		M3C 1C3	(416) 397-2900	9 Grenoble Dr
 ON	 Toronto	http://schools.tdsb.on.ca/heydonpark	(GR. 09-12)	Toronto District School Board		http://www.tdsb.on.ca/FindYour/Schools.aspx?schno=5710	Heydon Park Secondary School		M5T 1K1	(416) 393-1710	70 D'Arcy St
 ON	 Scarborough	http://schools.tdsb.on.ca/glenravine	(GR. JK-06)	Toronto District School Board		http://www.tdsb.on.ca/FindYour/Schools.aspx?schno=4522	Glen Ravine Junior Public School		M1K 4V4	(416) 396-6280	11 Gadsby Dr
 ON	 North York	http://schools.tdsb.on.ca/harrison	(GR. JK-06)	Toronto District School Board		http://www.tdsb.on.ca/FindYour/Schools.aspx?schno=3162	Harrison Public School		M2L 1V9	(416) 395-2530	81 Harrison Rd
 ON	 Toronto	http://GlenAmes.com	(GR. 07-08)	Toronto District School Board		http://www.tdsb.on.ca/FindYour/Schools.aspx?schno=5293	Glen Ames Senior Public School		M4E 1K5	(416) 393-1800	18 Williamson Rd
 ON	 Toronto	http://schools.tdsb.on.ca/glenview	(GR. 07-08)	Toronto District School Board		http://www.tdsb.on.ca/FindYour/Schools.aspx?schno=5298	Glenview Senior Public School		M4R 2B5	(416) 393-9390	401 Rosewell Ave
 ON	 Scarborough	http://schools.tdsb.on.ca/glamorgan	(GR. JK-06)	Toronto District School Board		http://www.tdsb.on.ca/FindYour/Schools.aspx?schno=4520	Glamorgan Junior Public School		M1P 4N4	(416) 396-6275	51 Antrim Cres
 ON	 Toronto	http://www.givinsshaw.com	(GR. JK-05)	Toronto District School Board		http://www.tdsb.on.ca/FindYour/Schools.aspx?schno=5229	Givins/Shaw Junior Public School		M6J 2X5	(416) 393-1240	49 Givins St
 ON	 Toronto	http://greenwoodsecondary.com/	(GR. 09-12)	Toronto District School Board		http://www.tdsb.on.ca/FindYour/Schools.aspx?schno=5579	Greenwood Secondary School		M4J 1J6	(416) 393-0744	24 Mountjoy Ave
 ON	 North York		(GR. JK-05)	Toronto District School Board		http://www.tdsb.on.ca/FindYour/Schools.aspx?schno=3146	Gracefield Public School		M6L 1L7	(416) 395-2490	177 Gracefield Ave
 ON	 Etobicoke	http://schools.tdsb.on.ca/greenholme/	(GR. JK-08)	Toronto District School Board		http://www.tdsb.on.ca/FindYour/Schools.aspx?schno=2065	Greenholme Junior Middle School		M9V 3M5	(416) 394-7700	10 Jamestown Cres
 ON	 North York	http://schools.tdsb.on.ca/georgeshenry	(GR. 09-12)	Toronto District School Board		http://www.tdsb.on.ca/FindYour/Schools.aspx?schno=3439	George S Henry Academy		M3A 3A6	(416) 395-3240	200 Graydon Hall Dr
 ON	 Toronto	http://schools.tdsb.on.ca/gledhill	(GR. JK-06)	Toronto District School Board		http://www.tdsb.on.ca/FindYour/Schools.aspx?schno=5228	Gledhill Junior Public School		M4C 5K6	(416) 393-1745	2 Gledhill Ave
 ON	 Scarborough	http://schools.tdsb.on.ca/golfroad	(GR. JK-06)	Toronto District School Board		http://www.tdsb.on.ca/FindYour/Schools.aspx?schno=4528	Golf Road Junior Public School		M1G 1H7	(416) 396-6285	730 Scarborough Golf Club Rd
 ON	 Scarborough	http://schools.tdsb.on.ca/georgemackie	(GR. JK-06)	Toronto District School Board		http://www.tdsb.on.ca/FindYour/Schools.aspx?schno=4510	George P Mackie Junior Public School		M1M 3B1	(416) 396-6265	60 Heathfield Dr
 ON	 East York	http://schools.tdsb.on.ca/georgewebster	(GR. JK-07)	Toronto District School Board		http://www.tdsb.on.ca/FindYour/Schools.aspx?schno=1130	George Webster Elementary School		M4B 2N9	(416) 396-2375	2 Cedarcrest Blvd
 ON	 York		(GR. JK-05)	Toronto District School Board		http://www.tdsb.on.ca/FindYour/Schools.aspx?schno=6137	George Syme Community School		M6N 1T6	(416) 394-2340	69 Pritchard Ave
 ON	 Scarborough		(GR. JK-08)	Toronto District School Board		http://www.tdsb.on.ca/FindYour/Schools.aspx?schno=4504	George B Little Public School		M1G 3G9	(416) 396-6260	125 Orton Park Rd
 ON	 Scarborough	http://schools.tdsb.on.ca/generalcrerar	(GR. JK-08)	Toronto District School Board		http://www.tdsb.on.ca/FindYour/Schools.aspx?schno=4498	General Crerar Public School		M1P 1C8	(416) 396-6255	30 McGregor Rd
 ON	 North York	http://www.glenpark.ca	(GR. JK-06)	Toronto District School Board		http://www.tdsb.on.ca/FindYour/Schools.aspx?schno=3138	Glen Park Public School		M6B 4L5	(416) 395-2460	101 Englemount Ave
 ON	 Etobicoke	http://schools.tdsb.on.ca/georgergauld	(GR. JK-05)	Toronto District School Board		http://www.tdsb.on.ca/FindYour/Schools.aspx?schno=2079	George R Gauld Junior School		M8Y 1B7	(416) 394-7830	200 Melrose St
 ON	 York	http://www.georgeharveyci.ca	(GR. 09-12)	Toronto District School Board		http://www.tdsb.on.ca/FindYour/Schools.aspx?schno=6834	George Harvey Collegiate Institute		M6M 3W5	(416) 394-3180	1700 Keele St
 ON	 Toronto	http://schools.tdsb.on.ca/gardenave	(GR. JK-06)	Toronto District School Board		http://www.tdsb.on.ca/FindYour/Schools.aspx?schno=5231	Garden Avenue Junior Public School		M6R 1H9	(416) 393-9165	225 Garden Ave
 ON	 Scarborough		(GR. JK-08)	Toronto District School Board		http://www.tdsb.on.ca/FindYour/Schools.aspx?schno=4486	Galloway Road Public School		M1E 1X2	(416) 396-6245	192 Galloway Rd
 ON	 Toronto	http://schools.tdsb.on.ca/generalmercerjps	(GR. JK-06)	Toronto District School Board		http://www.tdsb.on.ca/FindYour/Schools.aspx?schno=5277	General Mercer Junior Public School		M6N 1P8	(416) 393-1414	30 Turnberry Ave
 ON	 North York	http://sites.google.com/a/tdsb.on.ca/gaps/	(GR. JK-05)	Toronto District School Board		http://www.tdsb.on.ca/FindYour/Schools.aspx?schno=3130	George Anderson Public School		M6M 2Y8	(416) 395-5000	30 Geo. Anderson Dr
 ON	 North York	http://schools.tdsb.on.ca/gateway	(GR. JK-06)	Toronto District School Board		http://www.tdsb.on.ca/FindYour/Schools.aspx?schno=3129	Gateway Public School		M3C 1B4	(416) 397-2970	55 Gateway Blvd
 ON	 North York	http://schools.tdsb.on.ca/georgesvanier	(GR. 09-12)	Toronto District School Board		http://www.tdsb.on.ca/FindYour/Schools.aspx?schno=3446	Georges Vanier Secondary School		M2J 3B6	(416) 395-3250	3000 Don Mills Rd
 ON	 Scarborough	http://www.ilovegeorgepeck.wikispaces.com	(GR. JK-08)	Toronto District School Board		http://www.tdsb.on.ca/FindYour/Schools.aspx?schno=4516	George Peck Public School		M1R 1Y1	(416) 396-6270	1 Wayne Ave
 ON	 Toronto	http://schools.tdsb.on.ca/foresthillps	(GR. JK-08)	Toronto District School Board		http://www.tdsb.on.ca/FindYour/Schools.aspx?schno=5337	Forest Hill Junior and Senior Public School		M5P 2T6	(416) 393-9335	78 Dunloe Rd
 ON	 York		(GR. 07-09)	Toronto District School Board		http://www.tdsb.on.ca/FindYour/Schools.aspx?schno=6532	Frank Oke Secondary School		M6N 2H8	(416) 394-3158	500 Alliance Ave
 ON	 North York	http://schools.tdsb.on.ca/forestmanor/	(GR. JK-06)	Toronto District School Board		http://www.tdsb.on.ca/FindYour/Schools.aspx?schno=3127	Forest Manor Public School		M2J 1M4	(416) 395-2440	25 Forest Manor Rd
 ON	 North York	http://schools.tdsb.on.ca/fisherville	(GR. 07-08)	Toronto District School Board		http://www.tdsb.on.ca/FindYour/Schools.aspx?schno=3316	Fisherville Senior Public School		M2R 2N1	(416) 395-3030	425 Patricia Ave
 ON	 Toronto		(GR. JK-08)	Toronto District School Board		http://www.tdsb.on.ca/FindYour/Schools.aspx?schno=5360	First Nations Junior and Senior School of Toronto		M4M 1R4	(416) 393-0555	935 Dundas St E
 ON	 Scarborough	http://schools.tdsb.on.ca/fleming/	(GR. JK-08)	Toronto District School Board		http://www.tdsb.on.ca/FindYour/Schools.aspx?schno=4643	Fleming Public School		M1B 5B5	(416) 396-6862	20 Littles Rd
 ON	 Toronto	http://schools.tdsb.on.ca/frankland	(GR. JK-06)	Toronto District School Board		http://www.tdsb.on.ca/FindYour/Schools.aspx?schno=5227	Frankland Community School		M4K 3E1	(416) 393-9720	816 Logan Ave
 ON	 Toronto	http://www.fernavenuepublicschool.blogspot.ca/	(GR. JK-08)	Toronto District School Board		http://www.tdsb.on.ca/FindYour/Schools.aspx?schno=5226	Fern Avenue Junior and Senior Public School		M6R 1K3	(416) 393-9130	128 Fern Ave
 ON	 North York	http://schools.tdsb.on.ca/flemington	(GR. JK-05)	Toronto District School Board		http://www.tdsb.on.ca/FindYour/Schools.aspx?schno=3126	Flemington Public School		M6A 2N4	(416) 395-2430	10 Flemington Rd
 ON	 East York	http://schools.tdsb.on.ca/frasermustard	(GR. JK-SK)	Toronto District School Board		http://www.tdsb.on.ca/FindYour/Schools.aspx?schno=1999	Fraser Mustard Early Learning Academy		M4H 0A2	(416) 396-3050	82 Thorncliffe Park Dr
 ON	 North York	http://schools.tdsb.on.ca/fenside	(GR. JK-05)	Toronto District School Board		http://www.tdsb.on.ca/FindYour/Schools.aspx?schno=3120	Fenside Public School		M3A 2V9	(416) 395-2400	131 Fenside Dr
 ON	 Scarborough	http://schools.tdsb.on.ca/fairmount	(GR. JK-08)	Toronto District School Board		http://www.tdsb.on.ca/FindYour/Schools.aspx?schno=4480	Fairmount Public School		M1M 1C7	(416) 396-6240	31 Sloley Rd
 ON	 North York	http://schools.tdsb.on.ca/firgrove/	(GR. JK-05)	Toronto District School Board		http://www.tdsb.on.ca/FindYour/Schools.aspx?schno=3168	Firgrove Public School		M3N 1K8	(416) 395-2420	270 Firgrove Cres
 ON	 York	http://schools.tdsb.on.ca/fairbank	(GR. JK-08)	Toronto District School Board		http://www.tdsb.on.ca/FindYour/Schools.aspx?schno=6225	Fairbank Public School		M6E 3S5	(416) 394-2323	2335 Dufferin St
 ON	 York	http://schools.tdsb.on.ca/fairbankmemorial	(GR. JK-05)	Toronto District School Board		http://www.tdsb.on.ca/FindYour/Schools.aspx?schno=6164	Fairbank Memorial Community School		M6E 4M2	(416) 394-2333	555 Harvie Ave
 ON	 Scarborough	http://schools.tdsb.on.ca/fairglen	(GR. JK-06)	Toronto District School Board		http://www.tdsb.on.ca/FindYour/Schools.aspx?schno=4474	Fairglen Junior Public School		M1W 1H8	(416) 396-6235	2200 Pharmacy Ave
 ON	 Etobicoke		(GR. 09-11)	Toronto District School Board		http://www.tdsb.on.ca/FindYour/Schools.aspx?schno=2906	Etobicoke Year Round Alternative Centre		M9B 3W7	(416) 394-2120	160 Silverhill Dr
 ON	 Scarborough	http://schools.tdsb.on.ca/generalbrock	(GR. JK-08)	Toronto District School Board		http://www.tdsb.on.ca/FindYour/Schools.aspx?schno=4492	General Brock Public School		M1L 1Y5	(416) 396-6250	140 Chestnut Cres
 ON	 York	http://schools.tdsb.on.ca/fhmiller	(GR. JK-06)	Toronto District School Board		http://www.tdsb.on.ca/FindYour/Schools.aspx?schno=6128	F H Miller Junior Public School		M6E 4T5	(416) 394-2336	300 Caledonia Rd
 ON	 Toronto	http://www.fhci.net	(GR. 09-12)	Toronto District School Board		http://www.tdsb.on.ca/FindYour/Schools.aspx?schno=5508	Forest Hill Collegiate Institute		M5N 1B9	(416) 393-1860	730 Eglinton Ave W
 ON	 North York	http://schools.tdsb.on.ca/finch	(GR. JK-05)	Toronto District School Board		http://www.tdsb.on.ca/FindYour/Schools.aspx?schno=3122	Finch Public School		M2N 4S3	(416) 395-2410	277 Finch Ave E
 ON	 North York	http://schools.tdsb.on.ca/faywood	(GR. JK-08)	Toronto District School Board		http://www.tdsb.on.ca/FindYour/Schools.aspx?schno=3118	Faywood Arts-Based Curriculum School		M3H 2X5	(416) 395-2390	95 Faywood Blvd
 ON	 Etobicoke	http://schools.tdsb.on.ca/etiennebrule/	(GR. JK-05)	Toronto District School Board		http://www.tdsb.on.ca/FindYour/Schools.aspx?schno=2010	tienne Brl Junior School		M8Y 1T3	(416) 394-7850	50 Cloverhill Rd
 ON	 Toronto	http://esainfo.ca	(GR. 09-12)	Toronto District School Board		http://www.tdsb.on.ca/FindYour/Schools.aspx?schno=2905	Etobicoke School of the Arts		M8Y 2T1	(416) 394-6910	675 Royal York Road
 ON	 Toronto	http://essexpublicschool.com	(GR. JK-08)	Toronto District School Board		http://www.tdsb.on.ca/FindYour/Schools.aspx?schno=5225	Essex Junior and Senior Public School		M6G 1T3	(416) 393-0717	50 Essex St
 ON	 North York		(GR. JK-06)	Toronto District School Board		http://www.tdsb.on.ca/FindYour/Schools.aspx?schno=3111	Ernest Public School		M2J 4A4	(416) 395-2380	150 Cherokee Blvd
 ON	 Etobicoke	http://schools.tdsb.on.ca/elmlea	(GR. JK-05)	Toronto District School Board		http://www.tdsb.on.ca/FindYour/Schools.aspx?schno=2042	Elmlea Junior School		M9W 1V4	(416) 394-7910	50 Hadrian Dr
 ON	 North York		(GR. 09-12)	Toronto District School Board		http://www.tdsb.on.ca/FindYour/Schools.aspx?schno=3951	Emery EdVance Secondary School		M9M 2V9	(416) 395-3225	3395 Weston Rd
 ON	 Toronto		(GR. JK-08)	Toronto District School Board		http://www.tdsb.on.ca/FindYour/Schools.aspx?schno=5903	Equinox Holistic Alternative School		M4L 2Y1	(416) 393-8274	151 Hiawatha Rd
 ON	 Scarborough		(GR. JK-08)	Toronto District School Board		http://www.tdsb.on.ca/FindYour/Schools.aspx?schno=4641	Emily Carr Public School		M1B 2V2	(416) 396-6230	90 John Tabor Trail
 ON	 Scarborough	http://schools.tdsb.on.ca/elizabethsimcoe	(GR. JK-06)	Toronto District School Board		http://www.tdsb.on.ca/FindYour/Schools.aspx?schno=4462	Elizabeth Simcoe Junior Public School		M1E 1A3	(416) 396-6220	166 Sylvan Ave
 ON	 North York	http://schoolweb.tdsb.on.ca/elia	(GR. 06-08)	Toronto District School Board		http://www.tdsb.on.ca/FindYour/Schools.aspx?schno=3212	Elia Middle School		M3J 1T7	(416) 395-3020	215 Sentinel Rd
 ON	 North York	http://schools.tdsb.on.ca/emeryci/	(GR. 09-12)	Toronto District School Board		http://www.tdsb.on.ca/FindYour/Schools.aspx?schno=3434	Emery Collegiate Institute		M9M 2V9	(416) 395-3220	3395 Weston Rd
 ON	 Etobicoke	http://schools.tdsb.on.ca/elmbank/	(GR. JK-08)	Toronto District School Board		http://www.tdsb.on.ca/FindYour/Schools.aspx?schno=2066	Elmbank Junior Middle Academy		M9V 3R4	(416) 394-7560	10 Pittsboro Dr
 ON	 North York	http://schools.tdsb.on.ca/emeryalc	(GR. 09-12)	Toronto District School Board		http://www.tdsb.on.ca/FindYour/Schools.aspx?schno=3834	Emery Adult Learning Centre		M9M 2V9	(416) 395-3225	3395 Weston Rd
 ON	 Scarborough		(GR. JK-08)	Toronto District School Board		http://www.tdsb.on.ca/FindYour/Schools.aspx?schno=4450	Eastview Public School		M1E 2E5	(416) 396-6210	20 Waldock St
 ON	 Toronto	http://schoolweb.tdsb.on.ca/eastdaleci/Home.aspx	(GR. 09-12)	Toronto District School Board		http://www.tdsb.on.ca/FindYour/Schools.aspx?schno=5705	Eastdale Collegiate Institute		M4M 1Y4	(416) 393-9630	701 Gerrard St E
 ON	 East York	http://schools.tdsb.on.ca/eastyork	(GR. 09-12)	Toronto District School Board		http://www.tdsb.on.ca/FindYour/Schools.aspx?schno=1924	East York Collegiate Institute		M4C 2V2	(416) 396-2355	650 Cosburn Ave
 ON	 Etobicoke	http://www.etobicokeci.ca	(GR. 09-12)	Toronto District School Board		http://www.tdsb.on.ca/FindYour/Schools.aspx?schno=2802	Etobicoke Collegiate Institute		M9A 3N5	(416) 394-7840	86 Montgomery Rd
 ON	 East York	http://www.eyalternative.com	(GR. 10-12)	Toronto District School Board		http://www.tdsb.on.ca/FindYour/Schools.aspx?schno=1928	East York Alternative Secondary School		M4C 2V2	(416) 396-2925	670 Cosburn Ave
 ON	 North York	http://schools.tdsb.on.ca/elkhorn	(GR. JK-05)	Toronto District School Board		http://www.tdsb.on.ca/FindYour/Schools.aspx?schno=3110	Elkhorn Public School		M2K 1J3	(416) 395-9500	10 Elkhorn Dr
 ON	 Toronto		(GR. 07-08)	Toronto District School Board		http://www.tdsb.on.ca/FindYour/Schools.aspx?schno=5290	East Alternative School of Toronto		M4J 1A7	(416) 393-8442	21 Boultbee Ave
 ON	 Scarborough	http://schools.tdsb.on.ca/edgewood	(GR. JK-08)	Toronto District School Board		http://www.tdsb.on.ca/FindYour/Schools.aspx?schno=4456	Edgewood Public School		M1P 3S4	(416) 396-6215	230 Birkdale Rd
 ON	 Toronto	http://schools.tdsb.on.ca/earlgrey	(GR. 07-08)	Toronto District School Board		http://www.tdsb.on.ca/FindYour/Schools.aspx?schno=5222	Earl Grey Senior Public School		M4J 1G8	(416) 393-9545	100 Strathcona Ave
 ON	 North York	http://schools.tdsb.on.ca/dunlace	(GR. JK-06)	Toronto District School Board		http://www.tdsb.on.ca/FindYour/Schools.aspx?schno=3104	Dunlace Public School		M2L 2S1	(416) 395-2370	20 Dunlace Dr
 ON	 Etobicoke	http://schools.tdsb.on.ca/eatonville/	(GR. JK-05)	Toronto District School Board		http://www.tdsb.on.ca/FindYour/Schools.aspx?schno=2023	Eatonville Junior School		M9C 2P7	(416) 394-7040	15 Rossburn Dr
 ON	 North York	http://www.earlhaig.ca	(GR. 09-12)	Toronto District School Board		http://www.tdsb.on.ca/FindYour/Schools.aspx?schno=3430	Earl Haig Secondary School		M2N 3R7	(416) 395-3210	100 Princess Ave
 ON	 Toronto	http://schools.tdsb.on.ca/earlhaigps	(GR. JK-08)	Toronto District School Board		http://www.tdsb.on.ca/FindYour/Schools.aspx?schno=5302	Earl Haig Public School		M4C 1E2	(416) 393-1640	15 Earl Haig Ave
 ON	 North York	http://schoolweb.tdsb.on.ca/driftwood	(GR. JK-05)	Toronto District School Board		http://www.tdsb.on.ca/FindYour/Schools.aspx?schno=3100	Driftwood Public School		M3N 2N6	(416) 395-2350	265 Driftwood Ave
 ON	 North York	http://schools.tdsb.on.ca/drewry	(GR. 09-12)	Toronto District School Board		http://www.tdsb.on.ca/FindYour/Schools.aspx?schno=3512	Drewry Secondary School		M2M 1C8	(416) 395-3260	70 Drewry Ave
 ON	 Toronto	http://schools.tdsb.on.ca/eglinton	(GR. JK-06)	Toronto District School Board		http://www.tdsb.on.ca/FindYour/Schools.aspx?schno=5224	Eglinton Junior Public School		M4P 1L1	(416) 393-9315	223 Eglinton Ave E
 ON	 Scarborough	http://schools.tdsb.on.ca/ellesmere	(GR. JK-08)	Toronto District School Board		http://www.tdsb.on.ca/FindYour/Schools.aspx?schno=4468	Ellesmere-Statton Public School		M1P 2W1	(416) 396-6225	739 Ellesmere Rd
 ON	 Toronto	http://schoolweb.tdsb.on.ca/vocalmusicacademyryerson/home.aspx	(GR. 04-08)	Toronto District School Board		http://www.tdsb.on.ca/FindYour/Schools.aspx?schno=5906	Downtown Vocal Music Academy of Toronto		M5T 1E4	(416) 393-1340	96 Denison Ave
 ON	 Toronto	http://schools.tdsb.on.ca/downtownalt/	(GR. JK-06)	Toronto District School Board		http://www.tdsb.on.ca/FindYour/Schools.aspx?schno=5365	Downtown Alternative School		M5E 1R8	(416) 393-1882	85 Lower Jarvis St
 ON	 North York	http://schools.tdsb.on.ca/downsview	(GR. 09-12)	Toronto District School Board		http://www.tdsb.on.ca/FindYour/Schools.aspx?schno=3420	Downsview Secondary School		M3K 1W3	(416) 395-3200	7 Hawksdale Rd
 ON	 Toronto	http://schools.tdsb.on.ca/earlbeatty	(GR. JK-08)	Toronto District School Board		http://www.tdsb.on.ca/FindYour/Schools.aspx?schno=5304	Earl Beatty Junior and Senior Public School		M4C 3J6	(416) 393-9070	55 Woodington Ave
 ON	 Toronto	http://schools.tdsb.on.ca/dundas	(GR. JK-05)	Toronto District School Board		http://www.tdsb.on.ca/FindYour/Schools.aspx?schno=5241	Dundas Junior Public School		M4M 1R4	(416) 393-9565	935 Dundas St E
 ON	 Toronto	http://schools.tdsb.on.ca/dukeconnaught	(GR. JK-08)	Toronto District School Board		http://www.tdsb.on.ca/FindYour/Schools.aspx?schno=5220	Duke of Connaught Junior and Senior Public School		M4L 2W6	(416) 393-9455	70 Woodfield Rd
 ON	 Scarborough	http://schools.tdsb.on.ca/donwoodpark	(GR. JK-08)	Toronto District School Board		http://www.tdsb.on.ca/FindYour/Schools.aspx?schno=4438	Donwood Park Public School		M1P 3K5	(416) 396-6201	61 Dorcot Ave
 ON	 North York	http://schools.tdsb.on.ca/donvalleyjhs	(GR. 07-08)	Toronto District School Board		http://www.tdsb.on.ca/FindYour/Schools.aspx?schno=3314	Don Valley Middle School		M2J 3C3	(416) 395-3010	3100 Don Mills Rd
 ON	 North York	http://schools.tdsb.on.ca/donviewms/	(GR. 06-08)	Toronto District School Board		http://www.tdsb.on.ca/FindYour/Schools.aspx?schno=3096	Donview Middle Health and Wellness Academy		M3A 2S3	(416) 395-2330	20 Evermede Dr
 ON	 Scarborough	http://schools.tdsb.on.ca/drmarionhilliard	(GR. 07-08)	Toronto District School Board		http://www.tdsb.on.ca/FindYour/Schools.aspx?schno=4446	Dr Marion Hilliard Senior Public School		M1B 2P3	(416) 396-6195	280 Washburn Way
 ON	 North York	http://schools.tdsb.on.ca/donmillsci	(GR. 09-12)	Toronto District School Board		http://www.tdsb.on.ca/FindYour/Schools.aspx?schno=3415	Don Mills Collegiate Institute		M3C 1X6	(416) 395-3190	15 The Donway E
 ON	 Etobicoke		(GR. JK-08)	Toronto District School Board		http://www.tdsb.on.ca/FindYour/Schools.aspx?schno=2035	Dixon Grove Junior Middle School		M9R 1H1	(416) 394-7940	315 The Westway
 ON	 North York		(GR. JK-05)	Toronto District School Board		http://www.tdsb.on.ca/FindYour/Schools.aspx?schno=3094	Downsview Public School		M3M 2G7	(416) 395-2340	2829 Keele St
 ON	 North York	http://schools.tdsb.on.ca/donmillsmiddle	(GR. 06-08)	Toronto District School Board		http://www.tdsb.on.ca/FindYour/Schools.aspx?schno=3095	Don Mills Middle School		M3C 1X6	(416) 395-2320	17 The Donway E
 ON	 Toronto	http://schools.tdsb.on.ca/dovercourt	(GR. JK-08)	Toronto District School Board		http://www.tdsb.on.ca/FindYour/Schools.aspx?schno=5218	Dovercourt Public School		M6H 3G4	(416) 393-9220	228 Bartlett Ave
 ON	 East York		(GR. JK-05)	Toronto District School Board		http://www.tdsb.on.ca/FindYour/Schools.aspx?schno=1154	Diefenbaker Elementary School		M4J 2R2	(416) 396-2350	175 Plains Rd
 ON	 York	http://schools.tdsb.on.ca/dennis	(GR. JK-05)	Toronto District School Board		http://www.tdsb.on.ca/FindYour/Schools.aspx?schno=6122	Dennis Avenue Community School		M6N 2T7	(416) 394-2311	17 Dennis Ave
 ON	 Scarborough	http://schools.tdsb.on.ca/delphi	(GR. 09-12)	Toronto District School Board		http://www.tdsb.on.ca/FindYour/Schools.aspx?schno=4109	Delphi Secondary Alternative School		M1S 2R7	(416) 396-6919	109A Chartland Blvd S
 ON	 Toronto	http://schools.tdsb.on.ca/dewson	(GR. JK-06)	Toronto District School Board		http://www.tdsb.on.ca/FindYour/Schools.aspx?schno=5217	Dewson Street Junior Public School		M6H 2N9	(416) 393-9120	65 Concord Ave
 ON	 Scarborough	http://www.bethuneci.com	(GR. 09-12)	Toronto District School Board		http://www.tdsb.on.ca/FindYour/Schools.aspx?schno=4116	Dr Norman Bethune Collegiate Institute		M1W 3G1	(416) 396-8200	200 Fundy Bay Blvd
 ON	 Toronto	http://schools.tdsb.on.ca/delta	(GR. 07-08)	Toronto District School Board		http://www.tdsb.on.ca/FindYour/Schools.aspx?schno=5331	Delta Alternative Senior School		M6G 3G9	(416) 393-9730	301 Montrose Ave
 ON	 North York	http://schools.tdsb.on.ca/denlow/	(GR. JK-06)	Toronto District School Board		http://www.tdsb.on.ca/FindYour/Schools.aspx?schno=3173	Denlow Public School		M3B 1P7	(416) 395-2300	50 Denlow Blvd
 ON	 Toronto	http://schools.tdsb.on.ca/davisville	(GR. JK-06)	Toronto District School Board		http://www.tdsb.on.ca/FindYour/Schools.aspx?schno=5215	Davisville Junior Public School		M4S 1J6	(416) 393-0570	43 Millwood Rd
 ON	 Scarborough	http://www.thomsoncollegiate.ca	(GR. 09-12)	Toronto District School Board		http://www.tdsb.on.ca/FindYour/Schools.aspx?schno=4130	David and Mary Thomson Collegiate Institute		M1P 2S7	(416) 396-5525	2740 Lawrence Ave E
 ON	 North York	http://schools.tdsb.on.ca/derrydown	(GR. JK-05)	Toronto District School Board		http://www.tdsb.on.ca/FindYour/Schools.aspx?schno=3091	Derrydown Public School		M3J 1R7	(416) 395-2310	120 Derrydown Rd
 ON	 Scarborough	http://schools.tdsb.on.ca/davidlewis/	(GR. JK-08)	Toronto District School Board		http://www.tdsb.on.ca/FindYour/Schools.aspx?schno=4431	David Lewis Public School		M1W 3G1	(416) 396-5810	130 Fundy Bay Blvd
 ON	 Toronto	http://schools.tdsb.on.ca/deerpark/	(GR. JK-08)	Toronto District School Board		http://www.tdsb.on.ca/FindYour/Schools.aspx?schno=5216	Deer Park Junior and Senior Public School		M4T 2B4	(416) 393-1550	23 Ferndale Ave
 ON	 North York		(GR. JK-05)	Toronto District School Board		http://www.tdsb.on.ca/FindYour/Schools.aspx?schno=3090	Daystrom Public School		M9M 2A8	(416) 395-2280	25 Daystrom Dr
 ON	 Toronto	http://schools.tdsb.on.ca/davincischool	(GR. JK-06)	Toronto District School Board		http://www.tdsb.on.ca/FindYour/Schools.aspx?schno=5905	da Vinci School		M5S 2K2	(416) 393-8204	33 Robert St
 ON	 Etobicoke	http://schools.tdsb.on.ca/davidhornell	(GR. JK-05)	Toronto District School Board		http://www.tdsb.on.ca/FindYour/Schools.aspx?schno=2078	David Hornell Junior School		M8V 1M6	(416) 394-7690	32 Victoria St
 ON	 East York	http://schools.tdsb.on.ca/damorrison/	(GR. 06-08)	Toronto District School Board		http://www.tdsb.on.ca/FindYour/Schools.aspx?schno=1548	D A Morrison Middle School		M4C 4L2	(416) 396-2400	271 Gledhill Ave
 ON	 North York	http://schools.tdsb.on.ca/cummervalley	(GR. 06-08)	Toronto District School Board		http://www.tdsb.on.ca/FindYour/Schools.aspx?schno=3210	Cummer Valley Middle School		M2M 3K1	(416) 395-2260	70 Maxome Ave
 ON	 North York	http://schools.tdsb.on.ca/crestview	(GR. JK-06)	Toronto District School Board		http://www.tdsb.on.ca/FindYour/Schools.aspx?schno=3081	Crestview Public School		M2J 2W3	(416) 395-2250	101 Seneca Hill Dr
 ON	 Toronto	http://www.danforthcti.com	(GR. 09-12)	Toronto District School Board		http://www.tdsb.on.ca/FindYour/Schools.aspx?schno=5615	Danforth Collegiate and Technical Institute		M4J 4B7	(416) 393-0620	800 Greenwood Ave
 ON	 Scarborough	http://schools.tdsb.on.ca/danforthgardens	(GR. JK-08)	Toronto District School Board		http://www.tdsb.on.ca/FindYour/Schools.aspx?schno=4432	Danforth Gardens Public School		M1L 4H4	(416) 396-6190	20 Santamonica Blvd
 ON	 Toronto	http://schools.tdsb.on.ca/cottingham	(GR. JK-06)	Toronto District School Board		http://www.tdsb.on.ca/FindYour/Schools.aspx?schno=5213	Cottingham Junior Public School		M4V 1E3	(416) 393-1895	85 Birch Ave
 ON	 East York	http://schoolweb.tdsb.on.ca/crescenttown	(GR. JK-04)	Toronto District School Board		http://www.tdsb.on.ca/FindYour/Schools.aspx?schno=1122	Crescent Town Elementary School		M4C 5M9	(416) 396-2340	4 Massey Sq
 ON	 Scarborough	http://schools.tdsb.on.ca/dorsetpark	(GR. JK-08)	Toronto District School Board		http://www.tdsb.on.ca/FindYour/Schools.aspx?schno=4444	Dorset Park Public School		M1P 1V6	(416) 396-6205	28 Blaisdale Rd
 ON	 Scarborough	http://schools.tdsb.on.ca/cornell	(GR. JK-06)	Toronto District School Board		http://www.tdsb.on.ca/FindYour/Schools.aspx?schno=4414	Cornell Junior Public School		M1G 1G8	(416) 396-6175	61 Holmfirth Terr
 ON	 York	http://schools.tdsb.on.ca/cordella	(GR. JK-06)	Toronto District School Board		http://www.tdsb.on.ca/FindYour/Schools.aspx?schno=6113	Cordella Junior Public School		M6N 2K1	(416) 394-2258	175 Cordella Ave
 ON	 North York	http://schools.tdsb.on.ca/dallington	(GR. JK-06)	Toronto District School Board		http://www.tdsb.on.ca/FindYour/Schools.aspx?schno=3085	Dallington Public School		M2J 2G3	(416) 395-2270	18 Dallington Dr
 ON	 Toronto	http://schoolweb.tdsb.on.ca/clintonstreet	(GR. JK-06)	Toronto District School Board		http://www.tdsb.on.ca/FindYour/Schools.aspx?schno=5211	Clinton Street Junior Public School		M6G 2V7	(416) 393-9155	460 Manning Ave
 ON	 Toronto	http://schools.tdsb.on.ca/contact	(GR. 09-12)	Toronto District School Board		http://www.tdsb.on.ca/FindYour/Schools.aspx?schno=5589	Contact Alternative School		M5T 1V1	(416) 393-1455	132 Saint Patrick St
 ON	 North York	http://schools.tdsb.on.ca/dublinheights/	(GR. JK-08)	Toronto District School Board		http://www.tdsb.on.ca/FindYour/Schools.aspx?schno=3102	Dublin Heights Elementary and Middle School		M3H 2K2	(416) 395-2360	100 Bainbridge Ave
 ON	 East York	http://schools.tdsb.on.ca/cosburn	(GR. 06-08)	Toronto District School Board		http://www.tdsb.on.ca/FindYour/Schools.aspx?schno=1521	Cosburn Middle School		M4J 2P1	(416) 396-2335	520 Cosburn Ave
 ON	 North York	http://schools.tdsb.on.ca/cliffwood	(GR. JK-05)	Toronto District School Board		http://www.tdsb.on.ca/FindYour/Schools.aspx?schno=3188	Cliffwood Public School		M2H 2E4	(416) 395-2230	140 Cliffwood Rd
 ON	 Etobicoke		(GR. JK-05)	Toronto District School Board		http://www.tdsb.on.ca/FindYour/Schools.aspx?schno=2067	Claireville Junior School		M9V 3J4	(416) 394-7500	350 Silverstone Dr
 ON	 Toronto	http://schoolweb.tdsb.on.ca/cityview	(GR. 07-08)	Toronto District School Board		http://www.tdsb.on.ca/FindYour/Schools.aspx?schno=5201	City View Alternative Senior School		M6K 1S9	(416) 393-8708	38 Shirley St
 ON	 Scarborough	http://schools.tdsb.on.ca/clairlea	(GR. JK-08)	Toronto District School Board		http://www.tdsb.on.ca/FindYour/Schools.aspx?schno=4402	Clairlea Public School		M1L 2X1	(416) 396-6165	25 Rosalind Cres
 ON	 Toronto	http://www.cityschooltoronto.com	(GR. 09-12)	Toronto District School Board		http://www.tdsb.on.ca/FindYour/Schools.aspx?schno=5570	City School		M5V 3G3	(416) 393-1470	635 Queens Quay W
 ON	 North York	http://schools.tdsb.on.ca/churchill	(GR. JK-05)	Toronto District School Board		http://www.tdsb.on.ca/FindYour/Schools.aspx?schno=3074	Churchill Public School		M2N 1Z5	(416) 395-2200	188 Churchill Ave
 ON	 Scarborough	http://schools.tdsb.on.ca/churchillheights	(GR. JK-08)	Toronto District School Board		http://www.tdsb.on.ca/FindYour/Schools.aspx?schno=4396	Churchill Heights Public School		M1G 2S4	(416) 396-6160	749 Brimorton Dr
 ON	 North York	http://schools.tdsb.on.ca/cresthavenps	(GR. JK-05)	Toronto District School Board		http://www.tdsb.on.ca/FindYour/Schools.aspx?schno=3080	Cresthaven Public School		M2H 1M1	(416) 395-2240	46 Cresthaven Dr
 ON	 Toronto	http://www.calconline.net	(GR. 09-12)	Toronto District School Board		http://www.tdsb.on.ca/FindYour/Schools.aspx?schno=5894	City Adult Learning Centre		M4K 1M8	(416) 393-9740	1 Danforth Ave
 ON	 Scarborough	http://schools.tdsb.on.ca/cliffside/	(GR. JK-08)	Toronto District School Board		http://www.tdsb.on.ca/FindYour/Schools.aspx?schno=4408	Cliffside Public School		M1N 1M1	(416) 396-6170	27 East Haven Dr
 ON	 Scarborough	http://schools.tdsb.on.ca/corvette	(GR. JK-06)	Toronto District School Board		http://www.tdsb.on.ca/FindYour/Schools.aspx?schno=4420	Corvette Junior Public School		M1K 3G2	(416) 396-6180	30 Corvette Ave
 ON	 Scarborough	http://schools.tdsb.on.ca/chiefdangeorge	(GR. JK-08)	Toronto District School Board		http://www.tdsb.on.ca/FindYour/Schools.aspx?schno=4722	Chief Dan George Public School		M1B 2K5	(416) 396-6150	185 Generation Blvd
 ON	 Scarborough	http://schools.tdsb.on.ca/chinedrive	(GR. JK-08)	Toronto District School Board		http://www.tdsb.on.ca/FindYour/Schools.aspx?schno=4390	Chine Drive Public School		M1M 2K8	(416) 396-6155	51 Chine Dr
 ON	 North York	http://www.claudewatson.org	(GR. 04-08)	Toronto District School Board		http://www.tdsb.on.ca/FindYour/Schools.aspx?schno=3241	Claude Watson School for the Arts		M2N 0A8	(416) 395-3180	130 Doris Ave
 ON	 North York	http://schools.tdsb.on.ca/cherokee	(GR. JK-06)	Toronto District School Board		http://www.tdsb.on.ca/FindYour/Schools.aspx?schno=3273	Cherokee Public School		M2H 2W7	(416) 395-2190	390 Cherokee Blvd
 ON	 Scarborough	http://schools.tdsb.on.ca/courcelette/	(GR. JK-08)	Toronto District School Board		http://www.tdsb.on.ca/FindYour/Schools.aspx?schno=4426	Courcelette Public School		M1N 2T6	(416) 396-6185	100 Fallingbrook Rd
 ON	 Scarborough	http://schools.tdsb.on.ca/charlesgordon	(GR. 07-08)	Toronto District School Board		http://www.tdsb.on.ca/FindYour/Schools.aspx?schno=4385	Charles Gordon Senior Public School		M1K 5A7	(416) 396-6130	25 Marcos Blvd
 ON	 East York	http://schools.tdsb.on.ca/chester	(GR. JK-05)	Toronto District School Board		http://www.tdsb.on.ca/FindYour/Schools.aspx?schno=1118	Chester Elementary School		M4K 2E4	(416) 396-2325	115 Gowan Ave
 ON	 Toronto	http://schools.tdsb.on.ca/churchstreet	(GR. JK-06)	Toronto District School Board		http://www.tdsb.on.ca/FindYour/Schools.aspx?schno=5210	Church Street Junior Public School		M4Y 1B7	(416) 393-1250	83 Alexander St
 ON	 Scarborough	http://schools.tdsb.on.ca/chesterlejps	(GR. JK-06)	Toronto District School Board		http://www.tdsb.on.ca/FindYour/Schools.aspx?schno=4389	Chester Le Junior Public School		M1W 2K7	(416) 396-6145	201 Chester Le Blvd
 ON	 Scarborough	http://schools.tdsb.on.ca/charlottetown/	(GR. JK-06)	Toronto District School Board		http://www.tdsb.on.ca/FindYour/Schools.aspx?schno=4386	Charlottetown Junior Public School		M1C 2C7	(416) 396-6135	85 Charlottetown Blvd
 ON	 Toronto	http://schools.tdsb.on.ca/centraltech/	(GR. 09-12)	Toronto District School Board		http://www.tdsb.on.ca/FindYour/Schools.aspx?schno=5610	Central Technical School		M5S 2R5	(416) 393-0060	725 Bathurst St
 ON	 North York		(GR. JK-05)	Toronto District School Board		http://www.tdsb.on.ca/FindYour/Schools.aspx?schno=3066	Chalkfarm Public School		M3L 1L4	(416) 395-2160	100 Chalkfarm Dr
 ON	 Etobicoke	http://schools.tdsb.on.ca/centraletobicoke/	(GR. 09-12)	Toronto District School Board		http://www.tdsb.on.ca/FindYour/Schools.aspx?schno=2816	Central Etobicoke High School		M9R 3H1	(416) 394-7090	10 Denfield St
 ON	 Toronto	http://schools.tdsb.on.ca/centraltorontoacademy	(GR. 09-12)	Toronto District School Board		http://www.tdsb.on.ca/FindYour/Schools.aspx?schno=5805	Central Toronto Academy		M6G 3L6	(416) 393-0030	570 Shaw St
 ON	 Scarborough	http://schools.tdsb.on.ca/chartland	(GR. JK-06)	Toronto District School Board		http://www.tdsb.on.ca/FindYour/Schools.aspx?schno=4388	Chartland Junior Public School		M1S 2R7	(416) 396-6140	109 Chartland Blvd S
 ON	 Scarborough	http://schoolweb.tdsb.on.ca/cedarbrook	(GR. JK-08)	Toronto District School Board		http://www.tdsb.on.ca/FindYour/Schools.aspx?schno=4378	Cedarbrook Public School		M1J 2V6	(416) 396-6115	56 Nelson St
 ON	 Toronto	http://schools.tdsb.on.ca/charlesgfraser/	(GR. JK-06)	Toronto District School Board		http://www.tdsb.on.ca/FindYour/Schools.aspx?schno=5251	Charles G Fraser Junior Public School		M6J 2K6	(416) 393-1830	79 Manning Ave
 ON	 North York	http://schools.tdsb.on.ca/chbest/	(GR. 05-08)	Toronto District School Board		http://www.tdsb.on.ca/FindYour/Schools.aspx?schno=3070	Charles H Best Middle School		M3H 5K8	(416) 395-2170	285 Wilmington Ave
 ON	 Scarborough		(GR. JK-06)	Toronto District School Board		http://www.tdsb.on.ca/FindYour/Schools.aspx?schno=4384	Centennial Road Junior Public School		M1C 2A2	(416) 396-6125	271 Centennial Rd
 ON	 York	http://schools.tdsb.on.ca/cedarvale	(GR. JK-08)	Toronto District School Board		http://www.tdsb.on.ca/FindYour/Schools.aspx?schno=6207	Cedarvale Community School		M6C 1W4	(416) 394-2244	145 Ava Rd
 ON	 Scarborough	http://www.cedarbraeci.com/	(GR. 09-12)	Toronto District School Board		http://www.tdsb.on.ca/FindYour/Schools.aspx?schno=4124	Cedarbrae Collegiate Institute		M1H 2A2	(416) 396-4400	550 Markham Rd
 ON	 Toronto	http://www.calconline.net	(GR. 09-12)	Toronto District School Board		http://www.tdsb.on.ca/FindYour/Schools.aspx?schno=5893	CALC Secondary School		M4K 1M8	(416) 393-9740	1 Danforth Ave
 ON	 North York	http://schools.tdsb.on.ca/cwjefferys/	(GR. 09-12)	Toronto District School Board		http://www.tdsb.on.ca/FindYour/Schools.aspx?schno=3441	C W Jefferys Collegiate Institute		M3J 1T9	(416) 395-3170	340 Sentinel Rd
 ON	 York	http://crmarchant.com	(GR. 06-08)	Toronto District School Board		http://www.tdsb.on.ca/FindYour/Schools.aspx?schno=6216	C R Marchant Middle School		M9N 3A8	(416) 394-2268	1 Ralph St
 ON	 Scarborough	http://schools.tdsb.on.ca/cdfarquharson	(GR. JK-06)	Toronto District School Board		http://www.tdsb.on.ca/FindYour/Schools.aspx?schno=4366	C D Farquharson Junior Public School		M1S 2B1	(416) 396-6110	1965 Brimley Rd
 ON	 North York	http://schools.tdsb.on.ca/calico	(GR. JK-05)	Toronto District School Board		http://www.tdsb.on.ca/FindYour/Schools.aspx?schno=3054	Calico Public School		M3L 1V5	(416) 395-2130	35 Calico Dr
 ON	 Etobicoke	http://www.burnhamthorpe.org	(GR. 09-12)	Toronto District School Board		http://www.tdsb.on.ca/FindYour/Schools.aspx?schno=2832	Burnhamthorpe Collegiate Institute		M9B 2C4	(416) 394-7130	500 The East Mall
 ON	 York	http://schools.tdsb.on.ca/cewebster	(GR. JK-08)	Toronto District School Board		http://www.tdsb.on.ca/FindYour/Schools.aspx?schno=6110	Charles E Webster Public School		M6M 3X7	(416) 394-2250	1900 Keele St
 ON	 Toronto	http://schoolweb.tdsb.on.ca/carletonvillage	(GR. JK-08)	Toronto District School Board		http://www.tdsb.on.ca/FindYour/Schools.aspx?schno=5209	Carleton Village Junior and Senior Sports and Wellness Academy		M6N 2Z4	(416) 393-1600	315 Osler St
 ON	 North York	http://schools.tdsb.on.ca/cassandra/	(GR. JK-05)	Toronto District School Board		http://www.tdsb.on.ca/FindYour/Schools.aspx?schno=3063	Cassandra Public School		M3A 1S5	(416) 395-2150	45 Cassandra Blvd
 ON	 Etobicoke	http://www.burnhamthorpe.org	(GR. 09-12)	Toronto District School Board		http://www.tdsb.on.ca/FindYour/Schools.aspx?schno=2801	Burnhamthorpe Adult Learning Centre		M9B 2C4	(416) 394-7130	500 The East Mall
 ON	 Toronto	http://schools.tdsb.on.ca/bruce	(GR. JK-08)	Toronto District School Board		http://www.tdsb.on.ca/FindYour/Schools.aspx?schno=5303	Bruce Public School		M4M 2Y6	(416) 393-0670	51 Larchmount Ave
 ON	 Scarborough	http://schools.tdsb.on.ca/brookside	(GR. JK-08)	Toronto District School Board		http://www.tdsb.on.ca/FindYour/Schools.aspx?schno=4801	Brookside Public School		M1X 0A3	(416) 396-7940	75 Oasis Blvd
 ON	 North York		(GR. 06-08)	Toronto District School Board		http://www.tdsb.on.ca/FindYour/Schools.aspx?schno=3180	Brookview Middle School		M3N 2K7	(416) 395-2120	4505 Jane St
 ON	 Toronto	http://www.brownschool.ca	(GR. JK-06)	Toronto District School Board		http://www.tdsb.on.ca/FindYour/Schools.aspx?schno=5208	Brown Junior Public School		M4V 2J1	(416) 393-1560	454 Avenue Rd
 ON	 Toronto	http://schools.tdsb.on.ca/brock	(GR. JK-08)	Toronto District School Board		http://www.tdsb.on.ca/FindYour/Schools.aspx?schno=5207	Brock Public School		M6H 3S4	(416) 393-9245	93 Margueretta St
 ON	 Etobicoke	http://schools.tdsb.on.ca/broadacres	(GR. JK-05)	Toronto District School Board		http://www.tdsb.on.ca/FindYour/Schools.aspx?schno=2027	Broadacres Junior School		M9C 3G6	(416) 394-7030	45 Crendon Dr
 ON	 Scarborough		(GR. JK-06)	Toronto District School Board		http://www.tdsb.on.ca/FindYour/Schools.aspx?schno=4356	Brookmill Boulevard Junior Public School		M1W 2L5	(416) 396-6090	25 Brookmill Blvd
 ON	 North York	http://schools.tdsb.on.ca/broadlands/	(GR. SK-06)	Toronto District School Board		http://www.tdsb.on.ca/FindYour/Schools.aspx?schno=3038	Broadlands Public School		M3A 1J7	(416) 395-2090	106 Broadlands Blvd
 ON	 Scarborough	http://schools.tdsb.on.ca/burrowshall	(GR. JK-06)	Toronto District School Board		http://www.tdsb.on.ca/FindYour/Schools.aspx?schno=4364	Burrows Hall Junior Public School		M1B 1M5	(416) 396-6105	151 Burrows Hall Blvd
 ON	 Etobicoke	http://schools.tdsb.on.ca/briarcrest/	(GR. JK-05)	Toronto District School Board		http://www.tdsb.on.ca/FindYour/Schools.aspx?schno=2032	Briarcrest Junior School		M9C 4R3	(416) 394-6180	60 Wellesworth Dr
 ON	 Scarborough	http://schoolweb.tdsb.on.ca/brimwood	(GR. JK-06)	Toronto District School Board		http://www.tdsb.on.ca/FindYour/Schools.aspx?schno=4355	Brimwood Boulevard Junior Public School		M1V 1E5	(416) 396-6085	151 Brimwood Blvd
 ON	 North York	http://schools.tdsb.on.ca/cameron/	(GR. JK-05)	Toronto District School Board		http://www.tdsb.on.ca/FindYour/Schools.aspx?schno=3058	Cameron Public School		M2N 1E8	(416) 395-2140	211 Cameron Ave
 ON	 Scarborough	http://schools.tdsb.on.ca/cedardrive	(GR. JK-06)	Toronto District School Board		http://www.tdsb.on.ca/FindYour/Schools.aspx?schno=4376	Cedar Drive Junior Public School		M1J 3G4	(416) 396-6120	21 Gatesview Ave
 ON	 Scarborough		(GR. JK-06)	Toronto District School Board		http://www.tdsb.on.ca/FindYour/Schools.aspx?schno=4354	Bridlewood Junior Public School		M1T 1P7	(416) 396-6080	60 Bridlewood Blvd
 ON	 Scarborough	http://schools.tdsb.on.ca/buchanan	(GR. JK-08)	Toronto District School Board		http://www.tdsb.on.ca/FindYour/Schools.aspx?schno=4360	Buchanan Public School		M1R 3V3	(416) 396-6100	4 Bucannan Rd
 ON	 Etobicoke	http://schools.tdsb.on.ca/bloorlea/	(GR. 06-08)	Toronto District School Board		http://www.tdsb.on.ca/FindYour/Schools.aspx?schno=2024	Bloorlea Middle School		M9B 1M5	(416) 394-7140	4050 Bloor St W
 ON	 Etobicoke		(GR. 04-07)	Toronto District School Board		http://www.tdsb.on.ca/FindYour/Schools.aspx?schno=2909	Boys Leadership Academy		M9W 2H8	(416) 394-7900	45 Golfdown Dr
 ON	 Etobicoke	http://schools.tdsb.on.ca/bloordale/	(GR. 06-08)	Toronto District School Board		http://www.tdsb.on.ca/FindYour/Schools.aspx?schno=2020	Bloordale Middle School		M9C 2H3	(416) 394-7020	10 Toledo Rd
 ON	 North York	http://schools.tdsb.on.ca/brookhaven/	(GR. JK-05)	Toronto District School Board		http://www.tdsb.on.ca/FindYour/Schools.aspx?schno=3046	Brookhaven Public School		M6M 4N8	(416) 395-2110	70 Brookhaven Dr
 ON	 North York		(GR. JK-05)	Toronto District School Board		http://www.tdsb.on.ca/FindYour/Schools.aspx?schno=3030	Blaydon Public School		M3M 2C9	(416) 395-2070	25 Blaydon Ave
 ON	 Scarborough	http://schools.tdsb.on.ca/BlissCarman	(GR. 07-08)	Toronto District School Board		http://www.tdsb.on.ca/FindYour/Schools.aspx?schno=4350	Bliss Carman Senior Public School		M1M 3N8	(416) 396-6075	10 Bellamy Rd S
 ON	 Scarborough	http://schools.tdsb.on.ca/bendale	(GR. 09-12)	Toronto District School Board		http://www.tdsb.on.ca/FindYour/Schools.aspx?schno=4112	Bendale Business and Technical Institute		M1P 3C1	(416) 396-6695	1555 Midland Ave
 ON	 Toronto	http://bedfordpark.ca	(GR. JK-08)	Toronto District School Board		http://www.tdsb.on.ca/FindYour/Schools.aspx?schno=5204	Bedford Park Public School		M4N 1X2	(416) 393-9424	81 Ranleigh Ave
 ON	 North York	http://schoolweb.tdsb.on.ca/brian	(GR. JK-06)	Toronto District School Board		http://www.tdsb.on.ca/FindYour/Schools.aspx?schno=3034	Brian Public School		M2J 3Y6	(416) 395-2080	95 Brian Dr
 ON	 Scarborough	http://schoolweb.tdsb.on.ca/benheppnervma	(GR. 04-08)	Toronto District School Board		http://www.tdsb.on.ca/FindYour/Schools.aspx?schno=4803	Ben Heppner Vocal Music Academy		M1G 3B5	(416) 396-6305	80 Slan Ave
 ON	 Toronto	http://schools.tdsb.on.ca/bowmore	(GR. JK-08)	Toronto District School Board		http://www.tdsb.on.ca/FindYour/Schools.aspx?schno=5300	Bowmore Road Junior and Senior Public School		M4L 3J2	(416) 393-9450	80 Bowmore Rd
 ON	 Etobicoke	http://schools.tdsb.on.ca/beaumondeheights/	(GR. JK-08)	Toronto District School Board		http://www.tdsb.on.ca/FindYour/Schools.aspx?schno=2049	Beaumonde Heights Junior Middle School		M9V 1T1	(416) 394-7790	70 Monterrey Dr
 ON	 North York	http://schools.tdsb.on.ca/bayview/	(GR. 06-08)	Toronto District School Board		http://www.tdsb.on.ca/FindYour/Schools.aspx?schno=3025	Bayview Middle School		M2K 1W4	(416) 395-2050	25 Bunty Lane
 ON	 Toronto		(GR. JK-06)	Toronto District School Board		http://www.tdsb.on.ca/FindYour/Schools.aspx?schno=5297	Blythwood Junior Public School		M4N 2Z5	(416) 393-9105	2 Strathgowan Cres
 ON	 Etobicoke	http://schools.tdsb.on.ca/braeburn/	(GR. JK-05)	Toronto District School Board		http://www.tdsb.on.ca/FindYour/Schools.aspx?schno=2061	Braeburn Junior School		M9W 2N8	(416) 394-7770	15 Tandridge Cres
 ON	 Toronto	http://schools.tdsb.on.ca/balmybeach/	(GR. JK-06)	Toronto District School Board		http://www.tdsb.on.ca/FindYour/Schools.aspx?schno=5203	Balmy Beach Community School		M4E 1L6	(416) 393-1565	14 Pine Ave
 ON	 North York	http://schools.tdsb.on.ca/avondalesa	(GR. 09-12)	Toronto District School Board		http://www.tdsb.on.ca/FindYour/Schools.aspx?schno=3409	Avondale Secondary Alternative School		M2M 2B3	(416) 395-4542	24 Silverview Drive
 ON	 Scarborough	http://schools.tdsb.on.ca/bellmere/	(GR. JK-06)	Toronto District School Board		http://www.tdsb.on.ca/FindYour/Schools.aspx?schno=4324	Bellmere Junior Public School		M1H 2E6	(416) 396-6040	470 Brimorton Dr
 ON	 York		(GR. JK-05)	Toronto District School Board		http://www.tdsb.on.ca/FindYour/Schools.aspx?schno=6101	Bala Avenue Community School		M6M 2E1	(416) 394-2210	6 Bala Ave
 ON	 Toronto	http://schools.tdsb.on.ca/bloorci/	(GR. 09-12)	Toronto District School Board		http://www.tdsb.on.ca/FindYour/Schools.aspx?schno=5505	Bloor Collegiate Institute		M6H 1M9	(416) 393-1420	1141 Bloor St W
 ON	 Toronto	http://schools.tdsb.on.ca/beachesalternative	(GR. JK-06)	Toronto District School Board		http://www.tdsb.on.ca/FindYour/Schools.aspx?schno=5315	Beaches Alternative Junior School		M4E 2Z5	(416) 393-1451	50 Swanwick Ave
 ON	 Scarborough	http://schools.tdsb.on.ca/ansonstaylor	(GR. JK-06)	Toronto District School Board		http://www.tdsb.on.ca/FindYour/Schools.aspx?schno=4320	Anson S Taylor Junior Public School		M1S 4C5	(416) 396-6035	20 Placentia Blvd
 ON	 Toronto	http://www.annettestreetpublicschool.weebly.com	(GR. JK-08)	Toronto District School Board		http://www.tdsb.on.ca/FindYour/Schools.aspx?schno=5202	Annette Street Junior and Senior Public School		M6P 1R3	(416) 393-9040	265 Annette St
 ON	 North York		(GR. JK-05)	Toronto District School Board		http://www.tdsb.on.ca/FindYour/Schools.aspx?schno=3026	Baycrest Public School		M6A 1W4	(416) 395-2040	145 Baycrest Ave
 ON	 Scarborough	http://schools.tdsb.on.ca/banting	(GR. JK-08)	Toronto District School Board		http://www.tdsb.on.ca/FindYour/Schools.aspx?schno=4321	Banting and Best Public School		M1V 4E7	(416) 396-5800	380 Goldhawk Trail
 ON	 North York	http://schools.tdsb.on.ca/amesbury	(GR. 06-08)	Toronto District School Board		http://www.tdsb.on.ca/FindYour/Schools.aspx?schno=3015	Amesbury Middle School		M6L 1L7	(416) 395-2000	201 Gracefield Ave
 ON	 North York	http://schools.tdsb.on.ca/arborglen	(GR. JK-05)	Toronto District School Board		http://www.tdsb.on.ca/FindYour/Schools.aspx?schno=3092	Arbor Glen Public School		M2H 3H6	(416) 395-2020	55 Freshmeadow Dr
 ON	 North York	http://www.armourheightsps.ca	(GR. JK-06)	Toronto District School Board		http://www.tdsb.on.ca/FindYour/Schools.aspx?schno=3018	Armour Heights Public School		M5M 3A5	(416) 397-2950	148 Wilson Ave
 ON	 Toronto	http://schools.tdsb.on.ca/alpha2/	(GR. 07-12)	Toronto District School Board		http://www.tdsb.on.ca/FindYour/Schools.aspx?schno=5900	ALPHA II Alternative School		M6H 1M9	(416) 393-0501	1141 Bloor St W
 ON	 Toronto	http://schools.tdsb.on.ca/alpha/	(GR. JK-06)	Toronto District School Board		http://www.tdsb.on.ca/FindYour/Schools.aspx?schno=5358	ALPHA Alternative Junior School		M5V 2M1	(416) 393-1880	20 Brant St
 ON	 Toronto	http://schools.tdsb.on.ca/allenby	(GR. JK-06)	Toronto District School Board		http://www.tdsb.on.ca/FindYour/Schools.aspx?schno=5309	Allenby Junior Public School		M5N 1M2	(416) 393-9115	391 St Clements Ave
 ON	 North York	http://schools.tdsb.on.ca/avondale	(GR. JK-08)	Toronto District School Board		http://www.tdsb.on.ca/FindYour/Schools.aspx?schno=3017	Avondale Elementary Alternative School		M2K 1W4	(416) 395-3130	25 Bunty Lane
 ON	 North York	http://schools.tdsb.on.ca/ancaster	(GR. JK-05)	Toronto District School Board		http://www.tdsb.on.ca/FindYour/Schools.aspx?schno=3010	Ancaster Public School		M3K 1S6	(416) 395-2010	44 Ancaster Rd
 ON	 Scarborough	http://schools.tdsb.on.ca/ansonpark	(GR. JK-08)	Toronto District School Board		http://www.tdsb.on.ca/FindYour/Schools.aspx?schno=4318	Anson Park Public School		M1M 1X5	(416) 396-6030	30 MacDuff Cres
 ON	 Etobicoke	http://schools.tdsb.on.ca/albionheights	(GR. JK-08)	Toronto District School Board		http://www.tdsb.on.ca/FindYour/Schools.aspx?schno=2083	Albion Heights Junior Middle School		M9V 3W9	(416) 394-7520	45 Lynmont Rd
 ON	 Scarborough	http://schools.tdsb.on.ca/albertcampbell	(GR. 09-12)	Toronto District School Board		http://www.tdsb.on.ca/FindYour/Schools.aspx?schno=4120	Albert Campbell Collegiate Institute		M1V 1S6	(416) 396-6684	1550 Sandhurst Cir
 ON	 Scarborough	http://schools.tdsb.on.ca/agnesmacphail/	(GR. JK-08)	Toronto District School Board		http://www.tdsb.on.ca/FindYour/Schools.aspx?schno=4669	Agnes Macphail Public School		M1V 1W5	(416) 396-6015	112 Goldhawk Trail
 ON	 Scarborough	http://schools.tdsb.on.ca/alexmuir	(GR. JK-06)	Toronto District School Board		http://www.tdsb.on.ca/FindYour/Schools.aspx?schno=4316	Alexmuir Junior Public School		M1V 1H6	(416) 396-6025	95 Alexmuir Blvd
 ON	 North York	http://schools.tdsb.on.ca/avondale	(GR. JK-08)	Toronto District School Board		http://www.tdsb.on.ca/FindYour/Schools.aspx?schno=3134	Avondale Public School		M2K 1W4	(416) 395-3130	25 Bunty Lane
 ON	 Scarborough	http://schools.tdsb.on.ca/alexanderstirling	(GR. JK-08)	Toronto District School Board		http://www.tdsb.on.ca/FindYour/Schools.aspx?schno=4639	Alexander Stirling Public School		M1B 3A9	(416) 396-6020	70 Fawcett Trail
 ON	 Scarborough	http://schools.tdsb.on.ca/alvincurling	(GR. JK-08)	Toronto District School Board		http://www.tdsb.on.ca/FindYour/Schools.aspx?schno=4805	Alvin Curling Public School		M1B 6K4	(416) 396-7850	50 Upper Rouge Trail
 ON	 Scarborough	http://schools.tdsb.on.ca/agincourtci	(GR. 09-12)	Toronto District School Board		http://www.tdsb.on.ca/FindYour/Schools.aspx?schno=4106	Agincourt Collegiate Institute		M1S 1R6	(416) 396-6675	2621 Midland Ave
 ON	 Toronto	http://schools.tdsb.on.ca/alexandermuirgladstone	(GR. JK-08)	Toronto District School Board		http://www.tdsb.on.ca/FindYour/Schools.aspx?schno=5200	Alexander Muir/Gladstone Ave Junior and Senior Public School		M6J 3L2	(416) 393-9140	108 Gladstone Ave
 ON	 Scarborough	http://www.aseone.ca	(GR. 11-12)	Toronto District School Board		http://www.tdsb.on.ca/FindYour/Schools.aspx?schno=4110	Alternative Scarborough Education 1		M1P 3Z1	(416) 396-6914	60 Brimorton Dr
 ON	 Scarborough		(GR. JK-06)	Toronto District School Board		http://www.tdsb.on.ca/FindYour/Schools.aspx?schno=4312	Agincourt Junior Public School		M1S 1N3	(416) 396-6010	29 Lockie Ave
