province	city	school_url	school_grades	school_board	school_language	response_url	school_name	school_type	postal_code	phone_number	street_address
ON	Markham	http://cornellvillage.ps.yrdsb.ca/	 JK-8	York Region District School Board		http://www.yrdsb.ca/Schools/Pages/School-Profile.aspx?SchoolID=445	Cornell Village P.S.	Elementary School	L6B 1B5	(905) 471-1694 (647) 795-7624	186 Country Glen Rd.
ON	Keswick	http://deerpark.ps.yrdsb.ca/	 JK-8	York Region District School Board		http://www.yrdsb.ca/Schools/Pages/School-Profile.aspx?SchoolID=129	Deer Park P.S.	Elementary School	L4P 3C8	(905) 476-4185 (647) 795-7551	605 Varney Rd.
ON	Newmarket	http://denne.ps.yrdsb.ca/	 JK-8	York Region District School Board		http://www.yrdsb.ca/Schools/Pages/School-Profile.aspx?SchoolID=131	Denne P.S.	Elementary School	L3Y 6L1	(905) 853-2303 (647) 795-7549	330 Burford St.
ON	Richmond Hill	http://crosbyheights.ps.yrdsb.ca/	 JK-8	York Region District School Board		http://www.yrdsb.ca/Schools/Pages/School-Profile.aspx?SchoolID=331	Crosby Heights P.S.	Elementary School	L4C 3K8	(905) 884-5281 (647) 795-7698	190 Neal Dr.
ON	Markham	http://davidsuzuki.ps.yrdsb.ca/	 JK-8	York Region District School Board		http://www.yrdsb.ca/Schools/Pages/School-Profile.aspx?SchoolID=469	David Suzuki P.S.	Elementary School	L6B 0L9	(905) 209-0435 (647) 795-7629	45 Riverwalk Drive
ON	Richmond Hill	http://adrienneclarkson.ps.yrdsb.ca/	" 2-8(FI)
									("	York Region District School Board		http://www.yrdsb.ca/Schools/Pages/School-Profile.aspx?SchoolID=227	Adrienne Clarkson P.S.	Elementary School	L4B 1X3	(905) 709-3554 (647) 795-7581	68 Queens College Drive
ON	Newmarket	http://crossland.ps.yrdsb.ca/	 JK-8	York Region District School Board		http://www.yrdsb.ca/Schools/Pages/School-Profile.aspx?SchoolID=127	Crossland P.S.	Elementary School	L3X 1H8	(905) 830-0500 (647) 795-7548	255 Brimson Dr.
ON	Markham	http://coppardglen.ps.yrdsb.ca/	" JK-8(E),1-2(FI)
									("	York Region District School Board		http://www.yrdsb.ca/Schools/Pages/School-Profile.aspx?SchoolID=437	Coppard Glen P.S.	Elementary School	L3S 2T5	(905) 471-0419 (647) 795-7733	131 Coppard Ave.
ON	Markham	http://coledale.ps.yrdsb.ca/	 JK-8	York Region District School Board		http://www.yrdsb.ca/Schools/Pages/School-Profile.aspx?SchoolID=430	Coledale P.S.	Elementary School	L3R 7W8	(905) 940-0123 (647) 795-7625	60 Coledale Rd.
ON	Woodbridge	http://woodbridgecollege.yrdsb.ca/	" 9-12 (Sem)
									("	York Region District School Board		http://www.yrdsb.ca/Schools/Pages/School-Profile.aspx?SchoolID=319	Woodbridge College	Secondary School	L4L 1J3	(905) 851-2843 (647) 795-7707	71 Bruce St.
ON	Newmarket	http://clearmeadow.ps.yrdsb.ca/	 JK-8	York Region District School Board		http://www.yrdsb.ca/Schools/Pages/School-Profile.aspx?SchoolID=136	Clearmeadow P.S.	Elementary School	L3X 2E4	(905) 868-8081 (647) 795-7547	200 Clearmeadow Blvd.
ON	Thornhill	http://charlton.ps.yrdsb.ca/	 JK-8	York Region District School Board		http://www.yrdsb.ca/Schools/Pages/School-Profile.aspx?SchoolID=233	Charlton P.S.	Elementary School	L4J 6J5	(905) 738-5497 (647) 795-7670	121 Joseph Aaron Blvd.
ON	Richmond Hill	http://charleshowitt.ps.yrdsb.ca/	 JK-8	York Region District School Board		http://www.yrdsb.ca/Schools/Pages/School-Profile.aspx?SchoolID=327	Charles Howitt P.S.	Elementary School	L4C 6T7	(905) 889-2522 (647) 795-7586	30 Pearson Ave.
ON	Markham	http://castlemore.ps.yrdsb.ca/	 JK-8	York Region District School Board		http://www.yrdsb.ca/Schools/Pages/School-Profile.aspx?SchoolID=435	Castlemore P.S.	Elementary School	L6C 2R5	(905) 887-1543 (647) 795-7622	256 Ridgecrest Road
ON	Markham	http://cedarwood.ps.yrdsb.ca/	 JK-8	York Region District School Board		http://www.yrdsb.ca/Schools/Pages/School-Profile.aspx?SchoolID=443	Cedarwood P.S.	Elementary School	L3S 4R8	(905) 294-5756 (647) 795-7618	399 Elson St.
ON	Markham	http://centralpark.ps.yrdsb.ca/	 JK-8	York Region District School Board		http://www.yrdsb.ca/Schools/Pages/School-Profile.aspx?SchoolID=431	Central Park P.S.	Elementary School	L3P 7G2	(905) 940-1444 (647) 795-7619	100 Central Park Dr.
ON	Thornhill	http://carrvillemills.ps.yrdsb.ca	 JK-8	York Region District School Board		http://www.yrdsb.ca/Schools/Pages/School-Profile.aspx?SchoolID=349	Carrville Mills P.S.	Elementary School	L4J 8W5	(905) 709-2646 (647) 795-7709	270 Apple Blossom Drive
ON	Stouffville	http://stouffvilledistrict.ss.yrdsb.ca/	 9-12 (Sem)	York Region District School Board		http://www.yrdsb.ca/Schools/Pages/School-Profile.aspx?SchoolID=210	Stouffville D.S.S.	Secondary School	L4A 0A4	(905) 640-1433 (647) 795-7626	801 Hoover Park Drive
ON	Thornhill	http://westmount.ci.yrdsb.ca/	 9-12 (Sem)	York Region District School Board		http://www.yrdsb.ca/Schools/Pages/School-Profile.aspx?SchoolID=414	Westmount C.I.	Secondary School	L4J 8G3	(905) 882-0277 (647) 795-7702	1000 New Westminster Dr.
ON	Thornhill	http://vaughan.ss.yrdsb.ca/	 9-12(E)9-12(FI)	York Region District School Board		http://www.yrdsb.ca/Schools/Pages/School-Profile.aspx?SchoolID=317	Vaughan S.S.	Secondary School	L4J 7R4	(905) 660-1397 (647) 795-7697	1401 Clark Ave. W.
ON	Unionville	http://unionville.hs.yrdsb.ca/	 9-12 (Sem)	York Region District School Board		http://www.yrdsb.ca/Schools/Pages/School-Profile.aspx?SchoolID=416	Unionville H.S.	Secondary School	L3R 8G5	(905) 479-2787 (647) 795-7616	201 Town Centre Blvd.
ON	Woodbridge	http://tommydouglas.ss.yrdsb.ca/	 9-11	York Region District School Board		http://www.yrdsb.ca/Schools/Pages/School-Profile.aspx?SchoolID=308	Tommy Douglas S.S.	Secondary School	L4H 4E9	(289) 342-0001 (647) 795-7747	4020 Major Mackenzie Drive
ON	Thornhill	http://thornlea.ss.yrdsb.ca/	 9-12 (Sem)	York Region District School Board		http://www.yrdsb.ca/Schools/Pages/School-Profile.aspx?SchoolID=412	Thornlea S.S.	Secondary School	L3T 4N4	(905) 889-9696 (647) 795-7692	8075 Bayview Ave.
ON	Thornhill	http://thornhill.ss.yrdsb.ca	 9-12 (Sem)	York Region District School Board		http://www.yrdsb.ca/Schools/Pages/School-Profile.aspx?SchoolID=408	Thornhill S.S.	Secondary School	L3T 2E5	(905) 889-5453 (647) 795-7595	167 Dudley Ave.
ON	Sutton	http://suttondistrict.hs.yrdsb.ca/	 9-12 (Sem)	York Region District School Board		http://www.yrdsb.ca/Schools/Pages/School-Profile.aspx?SchoolID=113	Sutton D.H.S.	Secondary School	L0E 1R0	(905) 722-3281 (647) 795-7575	20798 Dalton Rd.
ON	Richmond Hill	http://richmondhill.hs.yrdsb.ca/	 9-12 (Sem)	York Region District School Board		http://www.yrdsb.ca/Schools/Pages/School-Profile.aspx?SchoolID=316	Richmond Hill H.S.	Secondary School	L4S 1A2	(905) 884-2131 (647) 795-7682	201 Yorkland St.
ON	Markham	http://trudeau.hs.yrdsb.ca/	 9-12(sem)	York Region District School Board		http://www.yrdsb.ca/Schools/Pages/School-Profile.aspx?SchoolID=403	Pierre Elliott Trudeau H.S.	Secondary School	L6C 2E6	(905) 887-2216 (647) 795-7555	90 Bur Oak Ave.
ON	Markham	http://middlefield.ci.yrdsb.ca/	 9-12 (Sem)	York Region District School Board		http://www.yrdsb.ca/Schools/Pages/School-Profile.aspx?SchoolID=405	Middlefield C.I.	Secondary School	L3S 3L5	(905) 472-8900 (647) 795-7687	525 Highglen Ave.
ON	Newmarket	http://mulock.ss.yrdsb.ca/	 9-12 (Sem)	York Region District School Board		http://www.yrdsb.ca/Schools/Pages/School-Profile.aspx?SchoolID=112	Sir William Mulock S.S.	Secondary School	L3X 2M7	(905) 967-1045 (647) 795-7560	705 Columbus Way
ON	Thornhill	http://stephenlewis.ss.yrdsb.ca/	 9-12 (Sem)	York Region District School Board		http://www.yrdsb.ca/Schools/Pages/School-Profile.aspx?SchoolID=318	Stephen Lewis S.S.	Secondary School	L4J 8X2	(905) 326-7994 (647) 795-7672	555 Autumn Hill Blvd.
ON	Richmond Hill	http://richmondgreen.ss.yrdsb.ca/	 9-12 (Sem)	York Region District School Board		http://www.yrdsb.ca/Schools/Pages/School-Profile.aspx?SchoolID=201	Richmond Green S.S.	Secondary School	L4S 2T9	(905) 780-7858 (647) 795-7662	1 William F. Bell Parkway
ON	Newmarket	http://newmarket.hs.yrdsb.ca/	 9-12(E)9-12(FI)	York Region District School Board		http://www.yrdsb.ca/Schools/Pages/School-Profile.aspx?SchoolID=109	Newmarket H.S.	Secondary School	L3Y 8H1	(905) 895-5159 (647) 795-7642	505 Pickering Cres.
ON	Unionville	http://millikenmills.hs.yrdsb.ca/	 9-12 (Sem)	York Region District School Board		http://www.yrdsb.ca/Schools/Pages/School-Profile.aspx?SchoolID=406	Milliken Mills H.S.	Secondary School	L3R 9S5	(905) 477-0072 (647) 795-7647	7522 Kennedy Rd.
ON	Maple	http://maple.hs.yrdsb.ca/	 9-12 (Sem)	York Region District School Board		http://www.yrdsb.ca/Schools/Pages/School-Profile.aspx?SchoolID=313	Maple H.S.	Secondary School	L6A 2W5	(905) 417-9444 (647) 795-7621	50 Springside Rd.
ON	Richmond Hill	http://langstaff.ss.yrdsb.ca/	 9-12 (Sem)	York Region District School Board		http://www.yrdsb.ca/Schools/Pages/School-Profile.aspx?SchoolID=311	Langstaff S.S.	Secondary School	L4C 6M1	(905) 889-6266 (647) 795-7677	106 Garden Ave.
ON	Markham	http://markville.ss.yrdsb.ca/	 9-12 (Sem)	York Region District School Board		http://www.yrdsb.ca/Schools/Pages/School-Profile.aspx?SchoolID=407	Markville S.S.	Secondary School	L3P 7P5	(905) 940-8840 (647) 795-7652	1000 Carlton Rd.
ON	Markham	http://markhamdistrict.hs.yrdsb.ca/	 9-12 (Sem)	York Region District School Board		http://www.yrdsb.ca/Schools/Pages/School-Profile.aspx?SchoolID=404	Markham D.H.S.	Secondary School	L3P 2M3	(905) 294-1886 (647) 795-7667	89 Church St.
ON	King City	http://kingcity.ss.yrdsb.ca/	 9-12 (Sem)	York Region District School Board		http://www.yrdsb.ca/Schools/Pages/School-Profile.aspx?SchoolID=206	King City S.S.	Secondary School	L7B 1K2	(905) 833-5332 (647) 795-7605	2001 King Rd.
ON	Keswick	http://keswick.hs.yrdsb.ca/	 9-12 (Sem)	York Region District School Board		http://www.yrdsb.ca/Schools/Pages/School-Profile.aspx?SchoolID=107	Keswick H.S.	Secondary School	L4P 3S2	(905) 476-0933 (647) 795-7550	100 Biscayne Blvd.
ON	Newmarket	http://huronheights.ss.yrdsb.ca/	 9-12 (Sem)	York Region District School Board		http://www.yrdsb.ca/Schools/Pages/School-Profile.aspx?SchoolID=105	Huron Heights S.S.	Secondary School	L3Y 3J9	(905) 895-2384 (647) 795-7540	40 Huron Heights Dr.
ON	Woodbridge	http://emilycarr.ss.yrdsb.ca/	 9-12 (Sem)	York Region District School Board		http://www.yrdsb.ca/Schools/Pages/School-Profile.aspx?SchoolID=314	Emily Carr S.S.	Secondary School	L4H 3C2	(905) 850-5012 (647) 795-7712	4901 Rutherford Rd.
ON	Newmarket	http://denison.ss.yrdsb.ca/	 9-12 (Sem)	York Region District School Board		http://www.yrdsb.ca/Schools/Pages/School-Profile.aspx?SchoolID=102	Dr. J.M. Denison S.S.	Secondary School	L3Y 8J7	(905) 836-0021 (647) 795-7545	135 Bristol Rd.
ON	Aurora	http://drgwwilliams.ss.yrdsb.ca/	 9-12 (Sem)	York Region District School Board		http://www.yrdsb.ca/Schools/Pages/School-Profile.aspx?SchoolID=218	Dr. G.W. Williams S.S.	Secondary School	L4G 1A2	(905) 727-3131 (647) 795-7535	39 Dunning Ave.
ON	Markham	http://buroak.ss.yrdsb.ca/	 9-12 (Sem)	York Region District School Board		http://www.yrdsb.ca/Schools/Pages/School-Profile.aspx?SchoolID=402	Bur Oak S.S.	Secondary School	L6E 1G4	(905) 202-1234 (647) 795-7657	933 Bur Oak  Ave.
ON	Unionville	http://billcrothers.ss.yrdsb.ca/	 9-12	York Region District School Board		http://www.yrdsb.ca/Schools/Pages/School-Profile.aspx?SchoolID=410	Bill Crothers S.S.	Secondary School	L3R 2E4	(905) 477-8503 (647) 795-7610	44 Main Street
ON	Richmond Hill	http://bayview.ss.yrdsb.ca/	 9-12 (Sem) IB	York Region District School Board		http://www.yrdsb.ca/Schools/Pages/School-Profile.aspx?SchoolID=303	Bayview S.S.	Secondary School	L4C 2L4	(905) 884-4453 (647) 795-7585	10077 Bayview Ave.
ON	Aurora	http://aurora.hs.yrdsb.ca/	 9-12 (Sem/Dual)	York Region District School Board		http://www.yrdsb.ca/Schools/Pages/School-Profile.aspx?SchoolID=202	Aurora H.S.	Secondary School	L4G 2P4	(905) 727-3107 (647) 795-7530	155 Wellington St. W.
ON	Woodbridge	http://woodbridge.ps.yrdsb.ca/	 JK-8	York Region District School Board		http://www.yrdsb.ca/Schools/Pages/School-Profile.aspx?SchoolID=387	Woodbridge P.S.	Elementary School	L4L 1J7	(905) 851-0102 (647) 795-7700	60 Burwick Ave.
ON	Richmond Hill	http://windhamridge.ps.yrdsb.ca/	" 1-8(FI)
									("	York Region District School Board		http://www.yrdsb.ca/Schools/Pages/School-Profile.aspx?SchoolID=228	Windham Ridge P.S.	Elementary School	L4E 3Y4	(905) 773-5443 (647) 795-7580	32 Red Cardinal Trail
ON	Richmond Hill	http://alexandermackenzie.hs.yrdsb.ca/	 9-12(Sem)	York Region District School Board		http://www.yrdsb.ca/Schools/Pages/School-Profile.aspx?SchoolID=307	Alexander Mackenzie H.S.	Secondary School	L4C 3S3	(905) 884-0554 (647) 795-7590	300 Major Mackenzie Dr. W.
ON	Thornhill	http://yorkhill.es.yrdsb.ca/	" JK-8(E),1-3(FI)
									("	York Region District School Board		http://www.yrdsb.ca/Schools/Pages/School-Profile.aspx?SchoolID=388	Yorkhill E.S.	Elementary School	L4J 5K2	(905) 764-5292 (647) 795-7704	350 Hilda Ave.
ON	Thornhill	http://woodland.ps.yrdsb.ca/	" 4-8(FI)
									("	York Region District School Board		http://www.yrdsb.ca/Schools/Pages/School-Profile.aspx?SchoolID=488	Woodland P.S.	Elementary School	L3T 3C9	(905) 889-4910 (647) 795-7669	120 Royal Orchard Boulevard
ON	Unionville	http://williamberczy.ps.yrdsb.ca/	 JK-8	York Region District School Board		http://www.yrdsb.ca/Schools/Pages/School-Profile.aspx?SchoolID=486	William Berczy P.S.	Elementary School	L3R 1Z9	(905) 477-2047 (647) 795-7615	120 Carlton Rd.
ON	Markham	http://wismer.ps.yrdsb.ca/	 JK-8	York Region District School Board		http://www.yrdsb.ca/Schools/Pages/School-Profile.aspx?SchoolID=442	Wismer P.S.	Elementary School	L6E 1H8	(905) 471-5526 (647) 795-7656	171 Mingay Ave.
ON	Markham	http://wilclay.ps.yrdsb.ca/	 JK-8	York Region District School Board		http://www.yrdsb.ca/Schools/Pages/School-Profile.aspx?SchoolID=482	Wilclay P.S.	Elementary School	L3S 1R4	(905) 470-1447 (647) 795-7659	60 Wilclay Ave.
ON	Thornhill	http://wilshire.es.yrdsb.ca/	 JK-8	York Region District School Board		http://www.yrdsb.ca/Schools/Pages/School-Profile.aspx?SchoolID=384	Wilshire E.S.	Elementary School	L4J 7S8	(905) 889-6767 (647) 795-7675	265 Beverley Glen Blvd.
ON	Thornhill	http://willowbrook.ps.yrdsb.ca/	 JK-8	York Region District School Board		http://www.yrdsb.ca/Schools/Pages/School-Profile.aspx?SchoolID=487	Willowbrook P.S.	Elementary School	L3T 4X6	(905) 886-0743 (647) 795-7690	45 Willowbrook Rd.
ON	Thornhill	http://westminster.ps.yrdsb.ca/	 JK-8	York Region District School Board		http://www.yrdsb.ca/Schools/Pages/School-Profile.aspx?SchoolID=385	Westminster P.S.	Elementary School	L4J 2P3	(905) 731-2963 (647) 795-7689	366 Mullen Dr.
ON	Stouffville	http://wendatvillage.ps.yrdsb.ca/	 JK-8	York Region District School Board		http://www.yrdsb.ca/Schools/Pages/School-Profile.aspx?SchoolID=151	Wendat Village P.S.	Elementary School	L4A 0J8	(905) 642-8095 (647) 795-7737	99 Reeves Way Blvd.
ON	Markham	http://williamarmstrong.ps.yrdsb.ca/	 JK-8	York Region District School Board		http://www.yrdsb.ca/Schools/Pages/School-Profile.aspx?SchoolID=484	William Armstrong P.S.	Elementary School	L3P 3G6	(905) 294-1262 (647) 795-7655	11 Major Buttons Dr.
ON	Stouffville	http://whitchurchhighlands.ps.yrdsb.ca/	 JK-8	York Region District School Board		http://www.yrdsb.ca/Schools/Pages/School-Profile.aspx?SchoolID=288	Whitchurch Highlands P.S.	Elementary School	L4A 4L5	(905) 888-1980 (647) 795-7661	13812 Warden Ave.
ON	Richmond Hill	http://walterscott.ps.yrdsb.ca/	 JK-8	York Region District School Board		http://www.yrdsb.ca/Schools/Pages/School-Profile.aspx?SchoolID=383	Walter Scott P.S.	Elementary School	L4C 1J2	(905) 884-2693 (647) 795-7730	500 Major Mackenzie Dr. E.
ON	Aurora	http://wellington.ps.yrdsb.ca/	 JK-8	York Region District School Board		http://www.yrdsb.ca/Schools/Pages/School-Profile.aspx?SchoolID=226	Wellington P.S.	Elementary School	L4G 2P3	(905) 727-9751 (647) 795-7533	125 Wellington St. W.
ON	Markham	http://unionvillemeadows.ps.yrdsb.ca/	 JK-8	York Region District School Board		http://www.yrdsb.ca/Schools/Pages/School-Profile.aspx?SchoolID=449	Unionville Meadows P.S.	Elementary School	L3R 5C8	(905) 479-4795 (647) 795-7658	355 South Unionville Avenue
ON	Richmond Hill	http://trilliumwoods.ps.yrdsb.ca/	 JK-8	York Region District School Board		http://www.yrdsb.ca/Schools/Pages/School-Profile.aspx?SchoolID=237	Trillium Woods P.S.	Elementary School	L4S 2P3	(905) 508-5215 (647) 795-7591	18 Alamo Heights Dr.
ON	Keswick	http://wjwatson.ps.yrdsb.ca/	 JK-8	York Region District School Board		http://www.yrdsb.ca/Schools/Pages/School-Profile.aspx?SchoolID=188	W.J. Watson P.S.	Elementary School	L4P 3P2	(905) 476-1618 (647) 795-7570	162 Carrick Ave.
ON	Sutton		 JK-5	York Region District School Board		http://www.yrdsb.ca/Schools/Pages/School-Profile.aspx?SchoolID=154	Waabgon Gamig F. N. S.	Elementary School	L0E 1R0	(705) 437-1529	Box N13 RR #2
ON	Thornhill	http://venturapark.ps.yrdsb.ca/	" 1-8(FI)
									("	York Region District School Board		http://www.yrdsb.ca/Schools/Pages/School-Profile.aspx?SchoolID=382	Ventura Park P.S.	Elementary School	L4J 7V5	(905) 707-6488 (647) 795-7694	121 Worth Blvd.
ON	Woodbridge	http://vellorewoods.ps.yrdsb.ca/	 JK-8	York Region District School Board		http://www.yrdsb.ca/Schools/Pages/School-Profile.aspx?SchoolID=321	Vellore Woods P.S.	Elementary School	L4H 2T9	(905) 417-9211 (647) 795-7724	115 Starling Blvd.
ON	Unionville	http://unionville.ps.yrdsb.ca/	 JK-8	York Region District School Board		http://www.yrdsb.ca/Schools/Pages/School-Profile.aspx?SchoolID=480	Unionville P.S.	Elementary School	L3R 2H2	(905) 477-1824 (647) 795-7609	300 Main St.
ON	Thornhill	http://thornhillwoods.ps.yrdsb.ca/	 JK-8	York Region District School Board		http://www.yrdsb.ca/Schools/Pages/School-Profile.aspx?SchoolID=346	Thornhill Woods P.S.	Elementary School	L4J 8V6	(905) 326-8626 (647) 795-7723	341 Thornhill Woods Drive
ON	Sutton	http://sutton.ps.yrdsb.ca/	 JK-8	York Region District School Board		http://www.yrdsb.ca/Schools/Pages/School-Profile.aspx?SchoolID=185	Sutton P.S.	Elementary School	L0E 1R0	(905) 722-3782 (647) 795-7643	5147 Baseline Road, PO Box 190
ON	Thornhill	http://stornowaycrescent.ps.yrdsb.ca/	 JK-6	York Region District School Board		http://www.yrdsb.ca/Schools/Pages/School-Profile.aspx?SchoolID=472	Stornoway Crescent P.S.	Elementary School	L3T 3X7	(905) 889-9535 (647) 795-7679	36 Stornoway Cres.
ON	Thornhill	http://thornhill.ps.yrdsb.ca/	 JK-8	York Region District School Board		http://www.yrdsb.ca/Schools/Pages/School-Profile.aspx?SchoolID=381	Thornhill P.S.	Elementary School	L4J 1V8	(905) 889-1566 (647) 795-7691	7554 Yonge St.
ON	Maple	http://testonvillage.ps.yrdsb.ca/	 JK-8	York Region District School Board		http://www.yrdsb.ca/Schools/Pages/School-Profile.aspx?SchoolID=342	Teston Village P.S.	Elementary School	L6A 3G1	(905) 417-0555 (647) 795-7720	80 Murray Farm Lane
ON	Newmarket	http://terryfox.ps.yrdsb.ca/	 JK-8	York Region District School Board		http://www.yrdsb.ca/Schools/Pages/School-Profile.aspx?SchoolID=140	Terry Fox P.S.	Elementary School	L3X 2T1	(905) 967-0975 (647) 795-7568	161 Sawmill Valley Drive
ON	Stouffville	http://summitview.ps.yrdsb.ca/	" JK-8(E),1-2(FI)
									("	York Region District School Board		http://www.yrdsb.ca/Schools/Pages/School-Profile.aspx?SchoolID=282	Summitview P.S.	Elementary School	L4A 5Z4	(905) 640-1102 (647) 795-7660	6551 Main St.
ON	Newmarket	http://stuartscott.ps.yrdsb.ca/	 JK-8	York Region District School Board		http://www.yrdsb.ca/Schools/Pages/School-Profile.aspx?SchoolID=181	Stuart Scott P.S.	Elementary School	L3Y 4K5	(905) 895-8461 (647) 795-7563	247 Lorne Ave.
ON	Markham	http://stonebridge.ps.yrdsb.ca/	 JK-8	York Region District School Board		http://www.yrdsb.ca/Schools/Pages/School-Profile.aspx?SchoolID=441	Stonebridge P.S.	Elementary School	L6C 2Z8	(905) 887-2427 (647) 795-7651	168 Stonebridge Dr.
ON	Newmarket	http://stonehaven.es.yrdsb.ca/	 JK-8	York Region District School Board		http://www.yrdsb.ca/Schools/Pages/School-Profile.aspx?SchoolID=179	Stonehaven E.S.	Elementary School	L3X 2K3	(905) 898-2077 (647) 795-7562	875 Stonehaven Ave.
ON	Richmond Hill	http://sixteenthavenue.ps.yrdsb.ca/	 JK-8	York Region District School Board		http://www.yrdsb.ca/Schools/Pages/School-Profile.aspx?SchoolID=379	Sixteenth Avenue P.S.	Elementary School	L4C 7A9	(905) 884-5598 (647) 795-7732	400 Sixteenth Avenue
ON	Sharon	http://sharon.ps.yrdsb.ca/	 JK-8	York Region District School Board		http://www.yrdsb.ca/Schools/Pages/School-Profile.aspx?SchoolID=177	Sharon P.S.	Elementary School	L0G 1V0	(905) 478-4952 (647) 795-7569	18532 Leslie St.
ON	Richmond Hill	http://silverpines.ps.yrdsb.ca/	 JK-8	York Region District School Board		http://www.yrdsb.ca/Schools/Pages/School-Profile.aspx?SchoolID=376	Silver Pines P.S.	Elementary School	L4C 9J2	(905) 508-7303 (647) 795-7606	112 Stave Cres.
ON	Richmond Hill	http://silverstream.ps.yrdsb.ca/	 JK-8	York Region District School Board		http://www.yrdsb.ca/Schools/Pages/School-Profile.aspx?SchoolID=225	Silver Stream P.S.	Elementary School	L4S 2K9	(905) 508-5696 (647) 795-7607	180 Farmstead Rd.
ON	Markham	http://sirjohnamacdonald.ps.yrdsb.ca/	" JK-8(E),1(FI)
									("	York Region District School Board		http://www.yrdsb.ca/Schools/Pages/School-Profile.aspx?SchoolID=475	Sir John A. Macdonald P.S.	Elementary School	L6C 0J4	(905) 888-5777 (647) 795-7735	45 Murison Drive
ON	Markham	http://sirwilfridlaurier.ps.yrdsb.ca/	" 2-8(FI)
									("	York Region District School Board		http://www.yrdsb.ca/Schools/Pages/School-Profile.aspx?SchoolID=462	Sir Wilfrid Laurier P.S.	Elementary School	L6C 3H6	(905) 927-1452 (647) 795-7654	160 Hazelton Ave.
ON	Schomberg	http://schomberg.ps.yrdsb.ca/	 JK-6	York Region District School Board		http://www.yrdsb.ca/Schools/Pages/School-Profile.aspx?SchoolID=278	Schomberg P.S.	Elementary School	L0G 1T0	(905) 939-7711 (647) 795-7726	21 Main St.
ON	Markham	http://samchapman.ps.yrdsb.ca/	" 3-8(FI)
									("	York Region District School Board		http://www.yrdsb.ca/Schools/Pages/School-Profile.aspx?SchoolID=474	Sam Chapman P.S.	Elementary School	L6E 2G1	(905) 472-8374 (647) 795-7653	270 Alfred Paterson Drive
ON	Markham	http://royhcrosby.ps.yrdsb.ca/	 JK-6	York Region District School Board		http://www.yrdsb.ca/Schools/Pages/School-Profile.aspx?SchoolID=460	Roy H. Crosby P.S.	Elementary School	L3P 1G9	(905) 294-2910 (647) 795-7650	115 Drakefield Rd.
ON	Richmond Hill	http://rossdoan.ps.yrdsb.ca/	 JK-4	York Region District School Board		http://www.yrdsb.ca/Schools/Pages/School-Profile.aspx?SchoolID=375	Ross Doan P.S.	Elementary School	L4C 3T9	(905) 884-4022 (647) 795-7604	101 Weldrick Rd. W.
ON	Thornhill	http://rosedaleheights.ps.yrdsb.ca/	 JK-8	York Region District School Board		http://www.yrdsb.ca/Schools/Pages/School-Profile.aspx?SchoolID=370	Rosedale Heights P.S.	Elementary School	L4J 6Y8	(905) 882-1864 (647) 795-7693	300 Rosedale Heights
ON	Newmarket	http://rogers.ps.yrdsb.ca/	 JK-8	York Region District School Board		http://www.yrdsb.ca/Schools/Pages/School-Profile.aspx?SchoolID=173	Rogers P.S.	Elementary School	L3Y 1G6	(905) 895-5441 (647) 795-7564	256 Rogers Road
ON	Richmond Hill	http://richmondrose.ps.yrdsb.ca/	 JK-8	York Region District School Board		http://www.yrdsb.ca/Schools/Pages/School-Profile.aspx?SchoolID=276	Richmond Rose P.S.	Elementary School	L4S 1S7	(905) 737-4311 (647) 795-7599	160 Frank Endean Rd.
ON	Maple	http://romeodallaire.ps.yrdsb.ca/	" 1-8(FI)
									("	York Region District School Board		http://www.yrdsb.ca/Schools/Pages/School-Profile.aspx?SchoolID=354	Roméo Dallaire P.S.	Elementary School	L6A 0S1	(905) 585-0001	550 Peter Rupert Avenue
ON	Richmond Hill	http://roselawn.ps.yrdsb.ca/	 4-8	York Region District School Board		http://www.yrdsb.ca/Schools/Pages/School-Profile.aspx?SchoolID=371	Roselawn P.S.	Elementary School	L4C 6E6	(905) 884-5934 (647) 795-7598	422 Carrville Rd.
ON	Mount Albert	http://robertmunsch.ps.yrdsb.ca/	 JK-3	York Region District School Board		http://www.yrdsb.ca/Schools/Pages/School-Profile.aspx?SchoolID=156	Robert Munsch P.S.	Elementary School	L0G 1M0	(905) 473-0110 (647) 795-7744	395 King St. East
ON	Aurora	http://rickhansen.ps.yrdsb.ca/	 JK-8	York Region District School Board		http://www.yrdsb.ca/Schools/Pages/School-Profile.aspx?SchoolID=251	Rick Hansen P.S.	Elementary School	L4G 0J6	(905) 841-6225 (647) 795-7738	490 Mavrinac Boulevard
ON	Aurora	http://regencyacres.ps.yrdsb.ca/	 JK-8	York Region District School Board		http://www.yrdsb.ca/Schools/Pages/School-Profile.aspx?SchoolID=274	Regency Acres P.S.	Elementary School	L4G 2C7	(905) 727-9811 (647) 795-7542	123 Murray Dr.
ON	Markham	http://randall.ps.yrdsb.ca/	 JK-8	York Region District School Board		http://www.yrdsb.ca/Schools/Pages/School-Profile.aspx?SchoolID=455	Randall P.S.	Elementary School	L3S 1E2	(905) 479-2003 (647) 795-7635	50 Randall Ave.
ON	Markham	http://reesorpark.ps.yrdsb.ca/	" JK-8(E),1-2(FI)
									("	York Region District School Board		http://www.yrdsb.ca/Schools/Pages/School-Profile.aspx?SchoolID=456	Reesor Park P.S.	Elementary School	L3P 2Y5	(905) 294-6558 (647) 795-7646	69 Wootten Way North
ON	Keswick	http://rlgraham.ps.yrdsb.ca/	 JK-8	York Region District School Board		http://www.yrdsb.ca/Schools/Pages/School-Profile.aspx?SchoolID=133	R.L. Graham P.S.	Elementary School	L4P 3M8	(905) 476-9295 (647) 795-7566	70 Biscayne Blvd.
ON	Queensville	http://queensville.ps.yrdsb.ca/	 JK-6	York Region District School Board		http://www.yrdsb.ca/Schools/Pages/School-Profile.aspx?SchoolID=169	Queensville P.S.	Elementary School	L0G 1R0	(905) 478-4191 (647) 795-7578	20317 Leslie St.
ON	Richmond Hill	http://redstone.ps.yrdsb.ca/	 JK-8	York Region District School Board		http://www.yrdsb.ca/Schools/Pages/School-Profile.aspx?SchoolID=232	Redstone P.S.	Elementary School	L4S 2E2	(905) 508-1073 (647) 795-7601	235 Redstone Road
ON	Richmond Hill	http://redmaple.ps.yrdsb.ca/	 JK-8	York Region District School Board		http://www.yrdsb.ca/Schools/Pages/School-Profile.aspx?SchoolID=224	Red Maple P.S.	Elementary School	L4B 4P9	(905) 771-6157 (647) 795-7600	155 Red Maple Rd.
ON	Markham	http://ramerwood.ps.yrdsb.ca/	 JK-8	York Region District School Board		http://www.yrdsb.ca/Schools/Pages/School-Profile.aspx?SchoolID=454	Ramer Wood P.S.	Elementary School	L3P 7M8	(905) 471-6512 (647) 795-7634	11 Cairns Dr.
ON	Newmarket	http://princecharles.ps.yrdsb.ca/	 JK-8	York Region District School Board		http://www.yrdsb.ca/Schools/Pages/School-Profile.aspx?SchoolID=165	Prince Charles P.S.	Elementary School	L3Y 1W9	(905) 895-8401 (647) 795-7731	684 Srigley St.
ON	Richmond Hill	http://pleasantville.ps.yrdsb.ca/	 JK-8	York Region District School Board		http://www.yrdsb.ca/Schools/Pages/School-Profile.aspx?SchoolID=367	Pleasantville P.S.	Elementary School	L4C 4B9	(905) 884-7431 (647) 795-7592	400 Mill St.
ON	Newmarket	http://poplarbank.ps.yrdsb.ca/	" 1-8(FI)
									("	York Region District School Board		http://www.yrdsb.ca/Schools/Pages/School-Profile.aspx?SchoolID=146	Poplar Bank P.S.	Elementary School	L3X 2X1	(905) 953-8995 (647) 795-7558	400 Woodspring Ave. E, (Bonshaw Ave.)
ON	Holland Landing	http://parkavenue.ps.yrdsb.ca/	 JK-8	York Region District School Board		http://www.yrdsb.ca/Schools/Pages/School-Profile.aspx?SchoolID=161	Park Avenue P.S.	Elementary School	L9N 1H5	(905) 836-5951 (647) 795-7573	36 Sunrise St.
ON	Markham	http://parkland.ps.yrdsb.ca/	 JK-8	York Region District School Board		http://www.yrdsb.ca/Schools/Pages/School-Profile.aspx?SchoolID=439	Parkland P.S.	Elementary School	L3S 3B8	(905) 472-8536 (647) 795-7699	18 Coxworth Ave.
ON	Woodbridge	http://pinegrove.ps.yrdsb.ca/	 JK-8	York Region District School Board		http://www.yrdsb.ca/Schools/Pages/School-Profile.aspx?SchoolID=363	Pine Grove P.S.	Elementary School	L4L 1R2	(905) 850-0672 (647) 795-7716	86 Gamble St.
ON	Woodbridge	http://pierreberton.ps.yrdsb.ca/	 	York Region District School Board		http://www.yrdsb.ca/Schools/Pages/School-Profile.aspx?SchoolID=356	Pierre Berton P.S.	Elementary School	L4H 0X9	(905) 303-4540 (647) 795-7721	470 Via Campanile
ON	East Gwillimbury	http://phoebegilman.ps.yrdsb.ca	 JK-8	York Region District School Board		http://www.yrdsb.ca/Schools/Pages/School-Profile.aspx?SchoolID=155	Phoebe Gilman P.S.	Elementary School	L9N 0C1	(905) 235-5136 (647) 795-7727	145 Harvest Hills Blvd.
ON	Unionville	http://parkview.ps.yrdsb.ca/	 JK-8	York Region District School Board		http://www.yrdsb.ca/Schools/Pages/School-Profile.aspx?SchoolID=452	Parkview P.S.	Elementary School	L3R 1V6	(905) 477-2172 (647) 795-7608	22 Fonthill Blvd.
ON	Richmond Hill	http://oakridges.ps.yrdsb.ca/	 JK-8	York Region District School Board		http://www.yrdsb.ca/Schools/Pages/School-Profile.aspx?SchoolID=268	Oak Ridges P.S.	Elementary School	L4E 2P7	(905) 773-5572 (647) 795-7579	160 Coon's Rd.
ON	Stouffville	http://oscarpeterson.ps.yrdsb.ca/	 JK-8	York Region District School Board		http://www.yrdsb.ca/Schools/Pages/School-Profile.aspx?SchoolID=465	Oscar Peterson P.S.	Elementary School	L4A 0E7	(905) 642-1236 (647) 795-7664	850 Hoover Park Drive
ON	Markham	http://mountjoy.ps.yrdsb.ca/	 JK-8	York Region District School Board		http://www.yrdsb.ca/Schools/Pages/School-Profile.aspx?SchoolID=467	Mount Joy P.S.	Elementary School	L6E 1X1	(905) 202-1684 (647) 795-7740	281 Williamson Rd.
ON	Richmond Hill	http://ommackillop.ps.yrdsb.ca/	 JK-8	York Region District School Board		http://www.yrdsb.ca/Schools/Pages/School-Profile.aspx?SchoolID=355	O.M. MacKillop P.S.	Elementary School	L4C 4P7	(905) 884-5711 (647) 795-7597	206 Lucas St.
ON	Aurora	http://northernlights.ps.yrdsb.ca/	 JK-8	York Region District School Board		http://www.yrdsb.ca/Schools/Pages/School-Profile.aspx?SchoolID=235	Northern Lights P.S.	Elementary School	L4G 7S6	(905) 727-4224 (647) 795-7541	40 Bridgenorth Dr.
ON	Nobleton	http://nobleton.ps.yrdsb.ca/	 JK-8	York Region District School Board		http://www.yrdsb.ca/Schools/Pages/School-Profile.aspx?SchoolID=262	Nobleton P.S.	Elementary School	L0G 1N0	(905) 859-4590 (647) 795-7728	13375 Hwy. 27
ON	Pefferlaw	http://morningglory.ps.yrdsb.ca/	 JK-8	York Region District School Board		http://www.yrdsb.ca/Schools/Pages/School-Profile.aspx?SchoolID=153	Morning Glory P.S.	Elementary School	L0E 1N0	(705) 437-1537 (647) 795-7577	29478 Hwy #48, R.R. #2
ON	Maple	http://nelliemcclung.ps.yrdsb.ca/	 	York Region District School Board		http://www.yrdsb.ca/Schools/Pages/School-Profile.aspx?SchoolID=361	Nellie McClung P.S.	Elementary School	L6A 4M1	(905) 303-8113 (647) 795-7666	360 Thomas Cook Avenue
ON	Mount Albert	http://mountalbert.ps.yrdsb.ca/	 4-8	York Region District School Board		http://www.yrdsb.ca/Schools/Pages/School-Profile.aspx?SchoolID=157	Mount Albert P.S.	Elementary School	L0G 1M0	(905) 473-2940 (647) 795-7571	5488 Mount Albert Rd.
ON	Unionville	http://millikenmills.ps.yrdsb.ca/	" JK-8(E),3-8(FI)
									("	York Region District School Board		http://www.yrdsb.ca/Schools/Pages/School-Profile.aspx?SchoolID=451	Milliken Mills P.S.	Elementary School	L3R 3J3	(905) 475-8143 (647) 795-7644	289 Risebrough Circuit
ON	Richmond Hill	http://morainehills.ps.yrdsb.ca/	 JK-8	York Region District School Board		http://www.yrdsb.ca/Schools/Pages/School-Profile.aspx?SchoolID=241	Moraine Hills P.S.	Elementary School	L4E 4C7	(905) 292-0530 (647) 795-7596	85 Rollinghill Rd.
ON	Newmarket	http://meadowbrook.ps.yrdsb.ca/	 JK-8	York Region District School Board		http://www.yrdsb.ca/Schools/Pages/School-Profile.aspx?SchoolID=149	Meadowbrook P.S.	Elementary School	L3Y 3L5	(905) 895-3081 (647) 795-7561	233 Patterson St.
ON	Markham	http://markhamgateway.ps.yrdsb.ca/	 JK-8	York Region District School Board		http://www.yrdsb.ca/Schools/Pages/School-Profile.aspx?SchoolID=429	Markham Gateway P.S.	Elementary School	L3S 3X3	(905) 472-3303 (647) 795-7645	30 Fonda Road
ON	Maple	http://maplecreek.ps.yrdsb.ca/	 JK-8	York Region District School Board		http://www.yrdsb.ca/Schools/Pages/School-Profile.aspx?SchoolID=332	Maple Creek P.S.	Elementary School	L6A 2J8	(905) 417-9177 (647) 795-7719	210 Hawker Rd.
ON	Richmond Hill	http://michaellejean.ps.yrdsb.ca/	" 1-3(FI)
									("	York Region District School Board		http://www.yrdsb.ca/Schools/Pages/School-Profile.aspx?SchoolID=244	Michaëlle Jean P.S.	Elementary School	L4S 2P1	(905) 770-6507 (647) 795-7594	320 Shirley Drive
ON	Maple	http://mackenzieglen.ps.yrdsb.ca/	 JK-8	York Region District School Board		http://www.yrdsb.ca/Schools/Pages/School-Profile.aspx?SchoolID=336	Mackenzie Glen P.S.	Elementary School	L6A 2M4	(905) 417-9771 (647) 795-7718	575 Melville Ave.
ON	Newmarket	http://mazodelaroche.ps.yrdsb.ca/	" 1-8(FI)
									("	York Region District School Board		http://www.yrdsb.ca/Schools/Pages/School-Profile.aspx?SchoolID=147	Mazo de la Roche P.S.	Elementary School	L3Y 2E2	(905) 836-1032 (647) 795-7559	860 Arnold Cres.
ON	Maple	http://michaelcranny.es.yrdsb.ca/	 JK-8	York Region District School Board		http://www.yrdsb.ca/Schools/Pages/School-Profile.aspx?SchoolID=326	Michael Cranny E.S.	Elementary School	L6A 1Y9	(905) 832-4922 (647) 795-7715	155 Melville Ave.
ON	Newmarket	http://mapleleaf.ps.yrdsb.ca/	 JK-8	York Region District School Board		http://www.yrdsb.ca/Schools/Pages/School-Profile.aspx?SchoolID=145	Maple Leaf P.S.	Elementary School	L3Y 2Y7	(905) 895-9681 (647) 795-7648	155 Longford Dr.
ON	Thornhill	http://louishonorefrechette.ps.yrdsb.ca/	" 1-8(FI)
									("	York Region District School Board		http://www.yrdsb.ca/Schools/Pages/School-Profile.aspx?SchoolID=338	Louis-Honore Frechette P.S.	Elementary School	L4J 7Z8	(905) 738-1724 (647) 795-7678	40 New Westminster Dr.
ON	Richmond Hill	http://macleodslanding.ps.yrdsb.ca/	 JK-8	York Region District School Board		http://www.yrdsb.ca/Schools/Pages/School-Profile.aspx?SchoolID=243	MacLeod’s Landing P.S.	Elementary School	L4E 4Z1	(905) 398-7945 (647) 795-7593	195 Silver Maple Rd.
ON	Aurora	http://lesterbpearson.ps.yrdsb.ca/	" 3-8(FI)
									("	York Region District School Board		http://www.yrdsb.ca/Schools/Pages/School-Profile.aspx?SchoolID=253	Lester B. Pearson P.S.	Elementary School	L4G 3T3	(905) 841-3030 (647) 795-7539	15 Odin Cres.
ON	Woodbridge	http://lornajackson.ps.yrdsb.ca/	 JK-8	York Region District School Board		http://www.yrdsb.ca/Schools/Pages/School-Profile.aspx?SchoolID=341	Lorna Jackson P.S.	Elementary School	L4H 1R1	(905) 893-2829 (647) 795-7701	589 Napa Valley Ave.
ON	Keswick	http://lakeside.ps.yrdsb.ca/	 JK-8	York Region District School Board		http://www.yrdsb.ca/Schools/Pages/School-Profile.aspx?SchoolID=143	Lakeside P.S.	Elementary School	L4P 1J1	(905) 476-8369 (647) 795-7683	213 Shorecrest Rd.
ON	Keswick	http://lakesimcoe.ps.yrdsb.ca/	 JK-8	York Region District School Board		http://www.yrdsb.ca/Schools/Pages/School-Profile.aspx?SchoolID=135	Lake Simcoe P.S.	Elementary School	L4P 4A3	(905) 656-5970 (647) 795-7567	38 Thornlodge Dr.
ON	Markham	http://littlerouge.ps.yrdsb.ca/	 JK-8	York Region District School Board		http://www.yrdsb.ca/Schools/Pages/School-Profile.aspx?SchoolID=463	Little Rouge P.S.	Elementary School	L6B 1E8	(905) 202-5960 (647) 795-7649	571 Country Glen Rd.
ON	Markham	http://lincolnalexander.ps.yrdsb.ca/	 JK-8	York Region District School Board		http://www.yrdsb.ca/Schools/Pages/School-Profile.aspx?SchoolID=453	Lincoln Alexander P.S.	Elementary School	L6C 2H4	(905) 284-4513 (647) 795-7641	38 Hillmount Road
ON	Markham	http://legacy.ps.yrdsb.ca/	 JK-8	York Region District School Board		http://www.yrdsb.ca/Schools/Pages/School-Profile.aspx?SchoolID=471	Legacy P.S.	Elementary School	L3S 4B1	(905) 472-4764 (647) 795-7640	61 Russell Jarvis Dr.
ON	Richmond Hill	http://lakewilcox.ps.yrdsb.ca/	 JK-8	York Region District School Board		http://www.yrdsb.ca/Schools/Pages/School-Profile.aspx?SchoolID=252	Lake Wilcox P.S.	Elementary School	L4E 3B5	(905) 773-5381 (647) 795-7589	80 Wildwood Ave.
ON	Keswick	http://keswick.ps.yrdsb.ca/	" 1-8(FI)
									("	York Region District School Board		http://www.yrdsb.ca/Schools/Pages/School-Profile.aspx?SchoolID=141	Keswick P.S.	Elementary School	L4P 1E2	(905) 476-4377 (647) 795-7554	25 The Queensway North
ON	Maple	http://julliard.ps.yrdsb.ca/	" 2-8(FI)
									("	York Region District School Board		http://www.yrdsb.ca/Schools/Pages/School-Profile.aspx?SchoolID=345	Julliard P.S.	Elementary School	L6A 3W7	(905) 832-3311 (647) 795-7711	61 Julliard Drive
ON	Kleinburg	http://kleinburg.ps.yrdsb.ca/	 JK-8	York Region District School Board		http://www.yrdsb.ca/Schools/Pages/School-Profile.aspx?SchoolID=347	Kleinburg P.S.	Elementary School	L0J 1C0	(905) 893-1142 (647) 795-7725	10391 Islington Ave
ON	Kettleby	http://kettleby.ps.yrdsb.ca/	 JK-8	York Region District School Board		http://www.yrdsb.ca/Schools/Pages/School-Profile.aspx?SchoolID=242	Kettleby P.S.	Elementary School	L7B 0H4	(905) 727-9852 (647) 795-7602	3286 Lloydtown-Aurora Rd.
ON	Richmond Hill	http://kettlelakes.ps.yrdsb.ca/	 JK-8	York Region District School Board		http://www.yrdsb.ca/Schools/Pages/School-Profile.aspx?SchoolID=247	Kettle Lakes P.S.	Elementary School	L4E 4X5	(905) 313-8406 (647) 795-7588	62 Kingshill Road
ON	King City	http://kingcity.ps.yrdsb.ca/	 JK-8	York Region District School Board		http://www.yrdsb.ca/Schools/Pages/School-Profile.aspx?SchoolID=250	King City P.S.	Elementary School	L7B 1K9	(905) 833-5115 (647) 795-7603	25 King Boulevard
ON	Maple	http://josephagibson.ps.yrdsb.ca/	" JK-8(E),1(FI)
									("	York Region District School Board		http://www.yrdsb.ca/Schools/Pages/School-Profile.aspx?SchoolID=343	Joseph A. Gibson P.S.	Elementary School	L6A 1R8	(905) 832-1291 (647) 795-7710	50 Naylon St.
ON	Woodbridge	http://johnnylombardi.ps.yrdsb.ca/	 JK-8	York Region District School Board		http://www.yrdsb.ca/Schools/Pages/School-Profile.aspx?SchoolID=362	Johnny Lombardi P.S.	Elementary School	L4H 4C3	(905) 585-0002 (647) 749-4331	350 Lawford Rd.
ON	Thornhill	http://johnsviewvillage.ps.yrdsb.ca/	 JK-8	York Region District School Board		http://www.yrdsb.ca/Schools/Pages/School-Profile.aspx?SchoolID=450	Johnsview Village P.S.	Elementary School	L3T 5C3	(905) 881-3360 (647) 795-7688	41 Porterfield Cres.
ON	Newmarket	http://jlrbell.ps.yrdsb.ca/	 JK-5	York Region District School Board		http://www.yrdsb.ca/Schools/Pages/School-Profile.aspx?SchoolID=125	J.L.R. Bell P.S.	Elementary School	L3Y 2E9	(905) 895-2601 (647) 795-7557	121 Queen St.
ON	Markham	http://johnmccrae.ps.yrdsb.ca/	 JK-8	York Region District School Board		http://www.yrdsb.ca/Schools/Pages/School-Profile.aspx?SchoolID=458	John McCrae P.S.	Elementary School	L6E 1N7	(905) 294-9122 (647) 795-7639	565 Fred McLaren Blvd.
ON	Keswick	http://jersey.ps.yrdsb.ca/	 JK-8	York Region District School Board		http://www.yrdsb.ca/Schools/Pages/School-Profile.aspx?SchoolID=137	Jersey P.S.	Elementary School	L4P 3E9	(905) 476-7777 (647) 795-7553	176 Glenwoods Ave.
ON	Markham	http://highgate.ps.yrdsb.ca/	 JK-8	York Region District School Board		http://www.yrdsb.ca/Schools/Pages/School-Profile.aspx?SchoolID=446	Highgate P.S.	Elementary School	L3R 3R5	(905) 477-1019 (647) 795-7734	35 Highgate Dr.
ON	Markham	http://jamesrobinson.ps.yrdsb.ca/	 JK-8	York Region District School Board		http://www.yrdsb.ca/Schools/Pages/School-Profile.aspx?SchoolID=448	James Robinson P.S.	Elementary School	L3P 1N9	(905) 294-3484 (647) 795-7638	90 Robinson St.
ON	Holland Landing	http://hollandlanding.ps.yrdsb.ca/	 JK-8	York Region District School Board		http://www.yrdsb.ca/Schools/Pages/School-Profile.aspx?SchoolID=134	Holland Landing P.S.	Elementary School	L9N 1C5	(905) 836-6614 (647) 795-7574	16 Holland River Blvd.
ON	Aurora	http://highview.ps.yrdsb.ca	 JK-8	York Region District School Board		http://www.yrdsb.ca/Schools/Pages/School-Profile.aspx?SchoolID=239	Highview P.S.	Elementary School	L4G 6N9	(905) 727-6642 (647) 795-7538	240 McClellan Way
ON	Richmond Hill	http://hgbernard.ps.yrdsb.ca/	 JK-8	York Region District School Board		http://www.yrdsb.ca/Schools/Pages/School-Profile.aspx?SchoolID=322	H.G. Bernard P.S.	Elementary School	L4S 1E1	(905) 508-7009 (647) 795-7587	245 Bernard Ave.
ON	Maple	http://herberthcarnegie.ps.yrdsb.ca/	 JK-8	York Region District School Board		http://www.yrdsb.ca/Schools/Pages/School-Profile.aspx?SchoolID=353	Herbert H. Carnegie P.S.	Elementary School	L6A 0G1	(905) 417-0211 (647) 795-7714	575 Via Romano Boulevard
ON	Thornhill	http://hendersonavenue.ps.yrdsb.ca/	 JK-8	York Region District School Board		http://www.yrdsb.ca/Schools/Pages/School-Profile.aspx?SchoolID=444	Henderson Avenue P.S.	Elementary School	L3T 2K7	(905) 889-3132 (647) 795-7686	66 Henderson Ave.
ON	Aurora	http://hartman.ps.yrdsb.ca/	 JK-8	York Region District School Board		http://www.yrdsb.ca/Schools/Pages/School-Profile.aspx?SchoolID=245	Hartman P.S.	Elementary School	L4G 7T7	(905) 727-5938 (647) 795-7537	130 River Ridge Blvd.
ON	Stouffville	http://harrybowes.ps.yrdsb.ca/	 JK-8	York Region District School Board		http://www.yrdsb.ca/Schools/Pages/School-Profile.aspx?SchoolID=473	Harry Bowes P.S.	Elementary School	L4A 0N8	(905) 640-9856 (647) 795-7663	90 Greenwood Road
ON	Thornhill	http://glenshields.ps.yrdsb.ca/	 JK-8	York Region District School Board		http://www.yrdsb.ca/Schools/Pages/School-Profile.aspx?SchoolID=337	Glen Shields P.S.	Elementary School	L4K 1T8	(905) 738-0333 (647) 795-7685	158 Glen Shields Ave.
ON	Newmarket	http://glencedar.ps.yrdsb.ca/	 JK-8	York Region District School Board		http://www.yrdsb.ca/Schools/Pages/School-Profile.aspx?SchoolID=132	Glen Cedar P.S.	Elementary School	L3Y 5W1	(905) 895-1500 (647) 795-7556	915 Wayne Dr.
ON	Markham	http://greensborough.ps.yrdsb.ca/	 JK-8	York Region District School Board		http://www.yrdsb.ca/Schools/Pages/School-Profile.aspx?SchoolID=447	Greensborough P.S.	Elementary School	L6E 1J5	(905) 472-3474 (647) 795-7632	80 Alfred Paterson Drive
ON	Stouffville	http://gladpark.ps.yrdsb.ca/	" JK-8(E),3-8(FI)
									("	York Region District School Board		http://www.yrdsb.ca/Schools/Pages/School-Profile.aspx?SchoolID=438	Glad Park P.S.	Elementary School	L4A 1E5	(905) 642-0224 (647) 795-7628	300 Glad Park Ave.
ON	Thornhill	http://germanmills.ps.yrdsb.ca/	 JK-8	York Region District School Board		http://www.yrdsb.ca/Schools/Pages/School-Profile.aspx?SchoolID=440	German Mills P.S.	Elementary School	L3T 4R5	(905) 889-8776 (647) 795-7681	61 Simonston Blvd.
ON	Woodbridge	http://glenngould.ps.yrdsb.ca/	 JK-8	York Region District School Board		http://www.yrdsb.ca/Schools/Pages/School-Profile.aspx?SchoolID=358	Glenn Gould P.S.	Elementary School	L4H 0G5	(905) 417-4517 (647) 795-7713	675 Vellore Park Avenue
ON	Markham	http://fredvarley.ps.yrdsb.ca/	" JK-8(E),1-2(FI)
									("	York Region District School Board		http://www.yrdsb.ca/Schools/Pages/School-Profile.aspx?SchoolID=477	Fred Varley P.S.	Elementary School	L6E 0J8	(905) 910-0034	81 Alexander Lawrie Avenue
ON	Woodbridge	http://fossilhill.ps.yrdsb.ca/	 JK-8	York Region District School Board		http://www.yrdsb.ca/Schools/Pages/School-Profile.aspx?SchoolID=340	Fossil Hill P.S.	Elementary School	L4H 2P5	(905) 653-8055 (647) 795-7706	2 Firenza Drive
ON	Maple	http://forestrun.ps.yrdsb.ca/	 JK-8	York Region District School Board		http://www.yrdsb.ca/Schools/Pages/School-Profile.aspx?SchoolID=334	Forest Run P.S.	Elementary School	L4K 5H3	(905) 417-9227 (647) 795-7696	200 Forest Run Blvd.
ON	Markham	http://ellenfairclough.ps.yrdsb.ca/	 JK-8	York Region District School Board		http://www.yrdsb.ca/Schools/Pages/School-Profile.aspx?SchoolID=459	Ellen Fairclough P.S.	Elementary School	L3S 4K9	(905) 294-9455 (647) 795-7633	33 Brando Avenue
ON	Markham	http://franklinstreet.ps.yrdsb.ca/	" JK-8(E),3-8(FI)
									("	York Region District School Board		http://www.yrdsb.ca/Schools/Pages/School-Profile.aspx?SchoolID=436	Franklin Street P.S.	Elementary School	L3P 2S7	(905) 294-3562 (647) 795-7627	21 Franklin St.
ON	Woodbridge	http://eldersmills.ps.yrdsb.ca/	" 1-5(FI)
									("	York Region District School Board		http://www.yrdsb.ca/Schools/Pages/School-Profile.aspx?SchoolID=324	Elder's Mills P.S.	Elementary School	L4H 1L1	(905) 893-1631 (647) 795-7705	120 Napa Valley Avenue
ON	Keswick	http://fairwood.ps.yrdsb.ca/	 JK-8	York Region District School Board		http://www.yrdsb.ca/Schools/Pages/School-Profile.aspx?SchoolID=138	Fairwood P.S.	Elementary School	L4P 3Y5	(905) 476-5447 (647) 795-7552	201 Fairwood Dr.
ON	Markham	http://edwardtcrowle.ps.yrdsb.ca/	 JK-8	York Region District School Board		http://www.yrdsb.ca/Schools/Pages/School-Profile.aspx?SchoolID=433	Edward T. Crowle P.S.	Elementary School	L3P 4P8	(905) 471-5775 (647) 795-7623	15 Larkin Ave.
ON	Thornhill	http://ejsand.ps.yrdsb.ca/	 JK-8	York Region District School Board		http://www.yrdsb.ca/Schools/Pages/School-Profile.aspx?SchoolID=468	E.J. Sand P.S.	Elementary School	L3T 2L5	(905) 889-2753 (647) 795-7680	160 Henderson Ave.
ON	Maple	http://drrobertabondar.ps.yrdsb.ca/	 JK-8	York Region District School Board		http://www.yrdsb.ca/Schools/Pages/School-Profile.aspx?SchoolID=350	Dr. Roberta Bondar P.S.	Elementary School	L6A 0T4	(905) 417-8046 (647) 795-7722	401 Grand Trunk Ave.
ON	Richmond Hill	http://doncrest.ps.yrdsb.ca/	" JK-8(E),1(FI)
									("	York Region District School Board		http://www.yrdsb.ca/Schools/Pages/School-Profile.aspx?SchoolID=333	Doncrest P.S.	Elementary School	L4B 2B1	(905) 882-4480 (647) 795-7584	124 Blackmore Ave.
ON	Markham	http://donaldcousens.ps.yrdsb.ca/	 JK-8	York Region District School Board		http://www.yrdsb.ca/Schools/Pages/School-Profile.aspx?SchoolID=470	Donald Cousens P.S.	Elementary School	L6E 1T5	(905) 202-8120 (647) 795-7630	315 Mingay Avenue
ON	Markham	http://buttonville.ps.yrdsb.ca/	 JK-8	York Region District School Board		http://www.yrdsb.ca/Schools/Pages/School-Profile.aspx?SchoolID=421	Buttonville P.S.	Elementary School	L3R 9C2	(905) 513-9880 (647) 795-7620	141 John Button Blvd.
ON	Maple	http://discovery.ps.yrdsb.ca/	 JK-8	York Region District School Board		http://www.yrdsb.ca/Schools/Pages/School-Profile.aspx?SchoolID=328	Discovery P.S.	Elementary School	L6A 2Z2	(905) 417-1622 (647) 795-7695	120 Discovery Trail
ON	Thornhill	http://brownridge.ps.yrdsb.ca/	 JK-8	York Region District School Board		http://www.yrdsb.ca/Schools/Pages/School-Profile.aspx?SchoolID=221	Brownridge P.S.	Elementary School	L4J 7R8	(905) 660-3083 (647) 795-7676	65 Brownridge Dr.
ON	Aurora	http://devinsdrive.ps.yrdsb.ca/	" JK-8(E),1-2(FI)
									("	York Region District School Board		http://www.yrdsb.ca/Schools/Pages/School-Profile.aspx?SchoolID=234	Devins Drive P.S.	Elementary School	L4G 2Z4	(905) 727-2022 (647) 795-7534	70 Devins Dr.
ON	Newmarket	http://bogart.ps.yrdsb.ca/	 JK-8	York Region District School Board		http://www.yrdsb.ca/Schools/Pages/School-Profile.aspx?SchoolID=128	Bogart P.S.	Elementary School	L3Y 8G7	(905) 836-8041 (647) 795-7546	855 College Manor Dr.
ON	Markham	http://boxwood.ps.yrdsb.ca/	 JK-8	York Region District School Board		http://www.yrdsb.ca/Schools/Pages/School-Profile.aspx?SchoolID=427	Boxwood P.S.	Elementary School	L3S 3P7	(905) 294-5563 (647) 795-7614	30 Boxwood Cres.
ON	Richmond Hill	http://bondlake.ps.yrdsb.ca/	 JK - 8	York Region District School Board		http://www.yrdsb.ca/Schools/Pages/School-Profile.aspx?SchoolID=248	Bond Lake P.S.	Elementary School	L4E 5B9	(905) 313-8693 (647) 795-7684	245 Old Colony Road
ON	Richmond Hill	http://beynonfields.ps.yrdsb.ca/	" 1-8(FI)
									("	York Region District School Board		http://www.yrdsb.ca/Schools/Pages/School-Profile.aspx?SchoolID=249	Beynon Fields P.S.	Elementary School	L4E 0R9	(905) 508-7060 (647) 795-7739	258 Selwyn Rd.
ON	Unionville	http://beckettfarm.ps.yrdsb.ca/	 JK-8	York Region District School Board		http://www.yrdsb.ca/Schools/Pages/School-Profile.aspx?SchoolID=478	Beckett Farm P.S.	Elementary School	L6C 0T3	(289) 746-3276 (647) 795-7746	78 Beckett Ave.
ON	Woodbridge	http://bluewillow.ps.yrdsb.ca/	 JK-8	York Region District School Board		http://www.yrdsb.ca/Schools/Pages/School-Profile.aspx?SchoolID=325	Blue Willow P.S.	Elementary School	L4L 9E1	(905) 851-0043 (647) 795-7708	250 Blue Willow Dr.
ON	Markham	http://blackwalnut.ps.yrdsb.ca/	 JK-8	York Region District School Board		http://www.yrdsb.ca/Schools/Pages/School-Profile.aspx?SchoolID=476	Black Walnut P.S.	Elementary School	L6B 0P4	(905) 471-1119 (647) 795-7736	30 John Allan Cameron Street
ON	Sutton	http://blackriver.ps.yrdsb.ca/	 JK-8	York Region District School Board		http://www.yrdsb.ca/Schools/Pages/School-Profile.aspx?SchoolID=126	Black River P.S.	Elementary School	L0E 1R0	(905) 722-5889 (647) 795-7572	5279 Black River Rd., Box 1120
ON	Richmond Hill	http://beverleyacres.ps.yrdsb.ca/	" 4-8(FI)
									("	York Region District School Board		http://www.yrdsb.ca/Schools/Pages/School-Profile.aspx?SchoolID=323	Beverley Acres P.S.	Elementary School	L4C 3L3	(905) 884-5059 (647) 795-7583	283 Neal Dr.
ON	Thornhill	http://bayviewfairways.ps.yrdsb.ca/	 JK-8	York Region District School Board		http://www.yrdsb.ca/Schools/Pages/School-Profile.aspx?SchoolID=428	Bayview Fairways P.S.	Elementary School	L3T 2Z6	(905) 889-1858 (647) 795-7665	255 Bayview Fairways Dr.
ON	Richmond Hill	http://bayviewhill.es.yrdsb.ca/	 JK-8	York Region District School Board		http://www.yrdsb.ca/Schools/Pages/School-Profile.aspx?SchoolID=329	Bayview Hill E.S.	Elementary School	L4B 2J5	(905) 508-0806 (647) 795-7582	81 Strathearn Ave.
ON	Stouffville	http://ballantrae.ps.yrdsb.ca/	 JK-8	York Region District School Board		http://www.yrdsb.ca/Schools/Pages/School-Profile.aspx?SchoolID=230	Ballantrae P.S.	Elementary School	L4A 3K3	(905) 640-2232 (647) 795-7668	5632 Aurora Rd., R.R.#3
ON	Thornhill	http://bayviewglen.ps.yrdsb.ca/	 JK-6	York Region District School Board		http://www.yrdsb.ca/Schools/Pages/School-Profile.aspx?SchoolID=432	Bayview Glen P.S.	Elementary School	L3T 2V5	(905) 889-2448 (647) 795-7671	42 Limcombe Dr.
ON	Aurora	http://auroragrove.ps.yrdsb.ca/	" JK-8(E),1-2(FI)
									("	York Region District School Board		http://www.yrdsb.ca/Schools/Pages/School-Profile.aspx?SchoolID=223	Aurora Grove P.S.	Elementary School	L4G 6Z5	(905) 727-4435 (647) 795-7531	415 Stone Road
ON	Thornhill	http://bakersfield.ps.yrdsb.ca/	 JK-8	York Region District School Board		http://www.yrdsb.ca/Schools/Pages/School-Profile.aspx?SchoolID=330	Bakersfield P.S.	Elementary School	L4J 8T6	(905) 731-8227 (647) 795-7673	121 Mistysugar Trail
ON	Thornhill	http://baythorn.ps.yrdsb.ca/	 JK-8	York Region District School Board		http://www.yrdsb.ca/Schools/Pages/School-Profile.aspx?SchoolID=424	Baythorn P.S.	Elementary School	L3T 3V2	(905) 889-7992 (647) 795-7674	201 Baythorn Dr.
ON	Newmarket	http://armitagevillage.ps.yrdsb.ca/	 JK-8	York Region District School Board		http://www.yrdsb.ca/Schools/Pages/School-Profile.aspx?SchoolID=123	Armitage Village P.S.	Elementary School	L3X 1R1	(905) 853-3799 (647) 795-7544	125 Savage Rd.
ON	Aurora	http://auroraheights.ps.yrdsb.ca/	 JK-8	York Region District School Board		http://www.yrdsb.ca/Schools/Pages/School-Profile.aspx?SchoolID=222	Aurora Heights P.S.	Elementary School	L4G 2X5	(905) 727-6902 (647) 795-7532	85 Tecumseh Dr.
ON	Markham	http://armadale.ps.yrdsb.ca/	 JK-8	York Region District School Board		http://www.yrdsb.ca/Schools/Pages/School-Profile.aspx?SchoolID=423	Armadale P.S.	Elementary School	L3S 2J4	(905) 472-4050 (647) 795-7617	11 Coppard Ave.
ON	Unionville	http://aldergrove.ps.yrdsb.ca/	 K-8	York Region District School Board		http://www.yrdsb.ca/Schools/Pages/School-Profile.aspx?SchoolID=422	Aldergrove P.S.	Elementary School	L3R 6Z8	(905) 470-2227 (647) 795-7612	150 Aldergrove Dr.
ON	Markham	http://ashtonmeadows.ps.yrdsb.ca/	 JK-8	York Region District School Board		http://www.yrdsb.ca/Schools/Pages/School-Profile.aspx?SchoolID=426	Ashton Meadows P.S.	Elementary School	L6C 1T5	(905) 887-2656 (647) 795-7613	230 Calvert Rd.
ON	Newmarket	http://alexandermuir.ps.yrdsb.ca/	 JK-8	York Region District School Board		http://www.yrdsb.ca/Schools/Pages/School-Profile.aspx?SchoolID=144	Alexander Muir P.S.	Elementary School	L3X 3G1	(905) 895-9466 (647) 795-7543	75 Ford Wilson Blvd.
ON	Maple	http://annefrank.ps.yrdsb.ca/	 JK-8	York Region District School Board		http://www.yrdsb.ca/Schools/Pages/School-Profile.aspx?SchoolID=357	Anne Frank P.S.	Elementary School	L6A 0X2	(289) 342-1001 (647) 795-7745	431 Ilan Ramon Blvd.
